Store;DSM;Div;Mall;Address;City;State;Zip;Country;Phone
1106;4219;Claires;THE MALL OF NEW HAMPSHIRE;1500 S. WILLOW ST  SPC # W151;MANCHESTER;NH;03103;USA;603 622 2662
1108;5005;Icing;SOUTHLAKE;2192 SOUTHLAKE MALL;MERRILLVILLE;IN;46410;USA;219 736 0503
1111;4213;Claires;CHAMPLAIN CENTRES;60 SMITHFIELD BLVD.;PLATTSBURG;NY;12901;USA;518 563 2216
1122;5004;Icing;WOODFIELD MALL;5 WOODFIELD MALL SPC D204;SCHAUMBURG;IL;60173;USA;847 330 1066
1126;6201;Claires;OAK COURT MALL;4465 POPLAR AVE., SUITE 248;MEMPHIS;TN;38117;USA;901 683 3270
1132;7209;Claires;CHERRY CREEK S.C.;3000 EAST FIRST AVE. #100;DENVER;CO;80206;USA;303 333 6277
1135;4110;Claires;LAUREL PARK;37600 W SIX MILE RD  SPC. E412;LIVONIA;MI;48152;USA;734 432 0601
1138;6011;Claires;SCOTTSDALE FASHION SQUARE;E 7014 CAMELBACK RD;SCOTTSDALE;AZ;85251;USA;480 946 2490
1808;4123;Claires;THE JOHNSTOWN GALLERIA;500 GALLERIA DRIVE SPACE #248;JOHNSTOWN;PA;15904;USA;814 269 4900
1814;5304;Claires;TREASURE COAST SQUARE;3212 N.W. FEDERAL HIGHWAY;JENSEN BEACH;FL;34957;USA;772 692 1139
1819;5208;Claires;MALL AT GREEN HILLS;2126 ABBOTT MARTIN RD SP173;NASHVILLE;TN;37215;USA;615 383 6589
1824;5310;Claires;COLONIAL-BROOKWOOD;716 BROOKWOOD VILLAGE #206;HOMEWOOD;AL;35209;USA;205 871 0753
1825;6210;Claires;PENN SQUARE MALL;1901 NW EXPRESSWAY SUITE#1085;OKLAHOMA CITY;OK;73118;USA;405 840 7764
1827;7212;Claires;COLUMBIA- KENNEWICK;1321 N COLUMBIA CENTER #527;KENNEWICK;WA;99336;USA;509 736 0867
1873;6007;Claires;INLAND CENTER MALL;500 INLAND CENTER DRIVE #214;SAN BERNARDINO;CA;92408;USA;909 889 4081
1886;6214;Claires;MID RIVERS MALL;2012 MID RIVERS MALL  #1308;ST. PETERS;MO;63376;USA;636 279 2620
1888;7103;Claires;PIONEER PLACE;700 SW 5TH AVE.    SPC #1065;PORTLAND;OR;97204;USA;503 223 1287
1908;7102;Claires;THE COMMONS @ FEDERAL WAY;2011 S. COMMONS;FEDERAL WAY;WA;98003;USA;253 946 2753
1919;5206;Claires;HANES MALL;3320 SILAS CREEK PKWY- #8804;WINSTON-SALEM;NC;27103;USA;336 768 8893
1929;4125;Claires;MILLCREEK MALL;510 MILLCREEK MALL;ERIE;PA;16565;USA;814 864 1611
1931;7111;Claires;THE MALL AT NORTHGATE;5800 NORTHGATE DRIVE SUITE 41;SAN RAFAEL;CA;94903;USA;415 472 2714
1943;6007;Claires;ANTELOPE VALLEY MALL;1233 W. AVENUE P, SPC #123;PALMDALE;CA;93551;USA;661 947 5309
1954;5005;Claires;WATER TOWER PLACE;835 N. MICHIGAN AVE. #5015;CHICAGO;IL;60611;USA;312 787 3151
1957;5308;Claires;MELBOURNE SQUARE;1700 W. NEW HAVEN AVE.;MELBOURNE;FL;32904;USA;321 676 3888
1965;6210;Claires;CENTRAL MALL-LAWTON;#130 CENTRAL MALL;LAWTON;OK;73501;USA;580 248 3599
1973;6107;Claires;BARTON CREEK SQUARE MALL;2901 CAPITAL OF TEXAS HWY.#H19;AUSTIN;TX;78746;USA;512 329 9064
2501;7404;Claires;BOWER PLACE SHOPPING CTR.;4900 MOLLY BANISTER DR.;RED DEER;AB;T4R 1N9;CAN;403 343 7333
2502;7306;Claires;BRAMALEA CITY CENTRE;25 PEEL CENTRE DRIVE;BRAMPTON;ON;L6T 3R5;CAN;905 790 0841
2503;7401;Claires;CORNWALL CENTRE;2102-11TH AVENUE #T-20;REGINA;SK;S4P 0J5;CAN;306 781 7170
2504;7402;Claires;METROPOLIS AT METROTOWN;4700 KINGSWAY UNIT #2163;BURNABY;BC;V5H 4M1;CAN;604 435 7663
2506;7304;Claires;ERIN MILLS TOWN CENTRE;5100 ERIN MILLS PARKWAY 2B216;MISSISSAUGA;ON;L5M 4Z5;CAN;905 569 9769
2509;7306;Claires;HILLCREST;9350 YONGE STREET # B- 014A;RICHMOND HILL;ON;L4C 5G2;CAN;905 508 7299
2510;7303;Claires;LIME RIDGE MALL;999 UPPER WENTWORTH ST. #172A;HAMILTON;ON;L9A 4X5;CAN;905 388 9646
2511;7306;Claires;OSHAWA CENTRE;419 KING STREET WEST &STVS RDS;OSHAWA;ON;L1J 2K5;CAN;905 725 5233
2516;7304;Claires;PEN CENTRE;221 GLENDALE AVENUE   SPC 92;ST. CATHARINES;ON;L2T 2K9;CAN;905 688 8212
2518;7306;Claires;PICKERING TOWN CENTRE;1355 KINGSTON ROAD;PICKERING;ON;L1V 1B8;CAN;905 837 1457
2520;7306;Claires;MARKVILLE SHOPPING CENTRE;5000 HWY 7 EAST SUITE 335;MARKHAM;ON;L3R 4M9;CAN;905 946 0172
2523;7303;Claires;MASONVILLE PLACE;1680 RICHMOND STREET #L63;LONDON;ON;N6G 3Y9;CAN;519 850 7621
2524;7403;Claires;ABERDEEN MALL;266-1320 W. TRANS CANADA;KAMLOOPS, B.C.;BC;V1S 1J2;CAN;250 851 8706
2525;7401;Claires;MIDTOWN PLAZA;21ST STREET EAST  #219A;SASKATOON;SK;S7K 1J9;CAN;306 665 5995
2527;7401;Claires;ST. VITAL CENTRE;86-1225 ST. MARY'S RD;WINNIPEG;MB;R2M 5E5;CAN;204 255 3452
2528;7401;Claires;KILDONAN PLACE;1555 REGENT AVE WEST;WINNEPEG;MB;R2C 4J2;CAN;204 663 3812
2529;7301;Claires;HALIFAX SHOPPING CENTRE;7001 MUMFORD ROAD   #244;HALIFAX;NS;B3L 4N9;CAN;902 455 2077
2530;7405;Claires;WEST EDMONTON MALL;8882 170TH STREET UNIT 1013;EDMONTON;AB;T5T 4M2;CAN;780 481 9406
2533;7405;Claires;MILL WOODS TOWN CENTER;2331-66 AT N.W.;EDMONTON;AB;T6K 4B5;CAN;780 490 0360
2534;7402;Claires;WOODGROVE CENTRE;6631 ISLAND HWY NORTH #55;NANAIMO;BC;V9T 4T7;CAN;250 390 2933
2537;7404;Claires;SUNRIDGE MALL;2525 36TH STREET NE UNIT 142;CALGARY;AB;T1Y 5T4;CAN;403 280 7106
2540;7306;Claires;GEORGIAN MALL;509 BAYFIELD STREET #N-28;BARRIE;ON;L4M 4Z8;CAN;705 728 3700
2541;7404;Claires;SOUTHCENTRE MALL;100 ANDERSON ROAD S.E.SPC 342;CALGARY;AB;T1Y 5T4;CAN;403 225 1891
2544;7401;Claires;SHOPPERS MALL;1570 18TH STREET;BRANDON;MB;R7A 5C5;CAN;204 728 5307
2545;7405;Claires;LONDONDERRY MALL;137 AVENUE & 66TH STREET #297;EDMONTON;AB;T5C 3C8;CAN;780 457 4846
2546;7403;Claires;GUILDFORD TOWN CENTRE;2695 GUILDFORD TOWN CTR #2223;SURREY;BC;V3R 7C1;CAN;604 589 7542
2547;7401;Claires;THE MALL @ LAWSON HEIGHTS;134 PRIMROSE #35;SASKATOON;SK;S7K 5S6;CAN;306 242 9937
2548;7301;Claires;MAYFLOWER MALL;800 GRAND LAKE ROAD UNIT44A;SYDNEY;NS;B1P 6S9;CAN;902 562 7289
2550;7401;Claires;POLO PARK SHOPPING CENTER;1485 PORTAGE AVENUE SPC 316D;WINNIPEG;MB;R3G 0W4;CAN;204 775 9628
2551;7403;Claires;CAPILANO MALL;935 MARINE DRIVE;N. VANCOUVER;BC;V7P 1S3;CAN;604 983 6992
2552;7306;Claires;THE PROMENADE-THORNHILL;1 PROMENADE CIRCLE;THORNHILL;ON;L4J 1P8;CAN;905 707 0804
2553;7301;Claires;MIC MAC MALL;21 MIC MAC BLVD;DARTMOUTH;NS;B3A 4N3;CAN;902 461 9413
2560;7403;Claires;ORCHARD PARK SHOPPING CTR;2271 HARVEY AVENUE #235;KELOWNA;BC;V1Y 6H2;CAN;250 860 1911
2561;7405;Claires;ST. ALBERT CENTRE;375 ST. ALBERT TRAIL SPC# 78A;ST. ALBERT;AB;T8N 3K8;CAN;780 459 9071
2562;7403;Claires;VILLAGE GREEN MALL;4900 27TH STREET SPC #30;VERNON;BC;V1T 7G7;CAN;250 542 1811
2565;7302;Claires;CATARAQUI TOWN CENTRE;GARDINER'S ROAD & HWY 2;KINGSTON;ON;K7M 7H4;CAN;613 384 7579
2566;7303;Claires;INTERCITY SHOPPING CENTRE;1000 FORT WILLIAM RD SPC # A6;THUNDER BAY;ON;P7B 6B9;CAN;807 623 3413
2567;7402;Claires;MAYFAIR SHOPPING CENTRE;247-3147 DOUGLAS ST;VICTORIA;BC;V8Z 6E3;CAN;250 384 9633
2568;7301;Claires;MCALLISTER PLACE S.C.;515 WESTMORELAND ROAD;ST. JOHN;NB;E2J 3W9;CAN;506 646 8004
2569;7402;Claires;HILLSIDE CENTRE;1644 HILLSIDE AVE CRU10;VICTORIA;BC;V8T 2C5;CAN;250 595 5413
2570;7301;Claires;REGENT MALL S.C.;1381 REGENT STREET;FREDERICTON;NB;E3C 1A2;CAN;506 457 4033
2575;7405;Claires;KINGSWAY GARDEN MALL   #185;109ST & PRINCESS ELIZABETH AV;EDMONTON;AB;T5G 3A6;CAN;780 477 1787
2578;7403;Claires;CHERRY LANE S.C.;2111 MAIN ST. SP# 139;PENTICTON;BC;V2A 6W6;CAN;250 490 8320
2580;7404;Claires;MEDICINE HAT MALL;3292 DUNMORE RD. S.E.;MEDICINE HAT;AB;T1B 2R4;CAN;403 528 9277
2581;7304;Claires;NEW SUDBURY CENTRE;1349 LASELLE BLVD;SUDBURY;ON;P3A 1Z2;CAN;705 566 0813
2582;7301;Claires;CHAMPLAIN PLACE S.C.;477 PAUL STREET;DIEPPE;NB;E1A 4X5;CAN;506 854 7050
2583;7306;Claires;SCARBOROUGH TOWN CENTRE;300 BOROUGH DRIVE #55;SCARBOROUGH;ON;M1P 4P5;CAN;416 290 6850
2584;7404;Claires;MARKET MALL-CALGARY;3625 SHAGNAPPI TRAIL N.W.#F014;CALGARY;AB;T3A 0E2;CAN;403 286 7116
2587;7304;Claires;SQUARE ONE SHOPPING CTR;100 CITY CENTER DR # 2134;MISSISSAUGA;ON;L5M 1M7;CAN;905 276 1539
2595;7402;Claires;RICHMOND CENTRE;6551 NO 3 ROAD SPC #1850;RICHMOND;BC;V6Y 2V7;CAN;604 214 9321
2597;7403;Claires;WILLOWBROOK-LANGLEY;19705 FRASER HIGHWAY;LANGLEY;BC;V3A 7E9;CAN;604 532 1741
2598;7405;Claires;SOUTHGATE CENTRE;111-51ST AVENUE UNIT #41A;EDMONTON;AB;T6H 4M6;CAN;780 438 9087
2599;7301;Claires;AVALON MALL;48 KENMOUNT ROAD;ST.JOHNS;NL;A1B 1W3;CAN;709 739 8006
2602;7405;Claires;LLOYD MALL;5211 - 44TH STRET SPC # 135;LLOYDMINSTER;AB;T9V 0A7;CAN;780 875 9697
2603;7404;Claires;PARK PLACE;501 FIRST AVENUE SOUTH;LETHBRIDGE;AB;T1J 4L9;CAN;403 329 3315
2607;7306;Claires;FAIRVIEW MALL;1800 SHEPPARD MALL SP#2038;WILLOWDALE;ON;M2J 5A7;CAN;416 492 5735
2609;7401;Claires;NORTHGATE REGINA;489 ALBERT STREET NORTH;REGINA;SK;S4R 3C4;CAN;306 347 3300
2612;7404;Claires;CHINOOK CENTRE;6455 MACLEOD TRAIL SW STE 152;CALGARY;AB;T2H 0K3;CAN;403 252 9140
2615;7301;Claires;CHARLOTTETOWN MALL;670 UNIVERSITY AVENUE;CHARLOTTETOWN;PE;C1E 1H6;CAN;902 628 6784
2617;7401;Claires;GATEWAY-PRINCE ALBERT;1403 CENTRAL AVENUE;PRINCE ALBERT;SK;S6V 7J4;CAN;306 764 7077
2618;7306;Claires;UPPER CANADA MALL;17600 YONGE STREET SP#HH22;NEWMARKET;ON;L3Y 4Z1;CAN;905 853 0541
2619;7302;Claires;PLACE D'ORLEANS S.C.;110 PLACE D'ORLEANS  SPC1010;ORLEANS;ON;K1C 2L9;CAN;613 834 1479
2626;7304;Claires;NORTHGATE SHOPPING CENTRE;1500 FISHER STREET;NORTH BAY;ON;P1B 2H3;CAN;705 495 3707
2628;7403;Claires;COTTONWOOD-CHILLIWACK;45585 LUCKAKUCK;CHILLIWACK;BC;V2R 1A1;CAN;604 824 1139
2633;7302;Claires;QUINTE MALL;390 NORTH FRONT STREET;BELLEVILLE;ON;K8P 3E1;CAN;613 961 5233
2635;7405;Claires;SHERWOOD PARK MALL;2020 SHERWOOD DRIVE;SHERWOOD PARK;AB;T8A 3H9;CAN;780 416 1443
2637;7402;Claires;PINE CENTRE MALL;3055 MASSEY DRIVE;PRINCE GEORGE;BC;V2N 2S9;CAN;250 564 4544
2638;7302;Claires;HAZELDEAN MALL;300 EAGLESON ROAD;KANATA;ON;K2M 1C9;CAN;613 599 7852
2640;7302;Claires;DEVONSHIRE MALL;3100 HOWARD AVENUE SPC # 1;WINDSOR;ON;N8X 3Y8;CAN;519 967 0681
2641;7401;Claires;GARDEN CITY S.C.;27-2305 MCPHILLIPS STREET;WINNIPEG;MB;R2V 3E1;CAN;204 338 5754
2645;7402;Claires;COQUITLAM CENTRE;2929 BARNET HWY;COQUITLAM;BC;V3B 5R5;CAN;604 468 7246
2647;7404;Claires;PRAIRIE MALL SHOPPING CTR;11801 100TH STREET;GRAND PRAIRIE;AB;T8V 3Y2;CAN;780 513 8944
2648;7304;Claires;THE TORONTO EATON CENTRE;220 YONGE STREET;TORONTO;ON;M5B 2L9;CAN;416 260 4644
2650;7403;Claires;SEVENOAKS SHOPPING CENTRE;32900 SOUTH FRASER WAY  #412;ABBOTSFORD;BC;V2S 5A1;CAN;604 853 5349
2655;7302;Claires;TECUMSEH MALL;7654 TECUMSEH ROAD EAST;WINDSOR;ON;N8T 1E9;CAN;519 945 9003
2656;7303;Claires;WHITE OAKS MALL-LONDON;1105 WELLINGTON ROAD SPC309;LONDON;ON;N6E 1V4;CAN;519 686 3091
2660;7303;Claires;LAMBTON MALL;1380 LONDON ROAD;SARNIA;ON;N7S 1P8;CAN;519 541 0268
2662;7405;Claires;PETER POND SHOPPING CTR;9713 HARDIN STREET #1062;FT. MC MURRAY;AB;T9H 1L2;CAN;780 791 7523
2666;7303;Claires;CAMBRIDGE CENTRE;355 HESPELER RD    SPC 306;CAMBRIDGE;ON;N1R 6B3;CAN;519 620 1087
2667;7401;Claires;SOUTHLAND MALL-REGINA;2965 GORDON ROAD;REGINA;SK;S4S 6H7;CAN;306 585 2120
2669;7404;Claires;PARKLAND MALL;4747 67TH STREET;RED DEER;AB;T4N 6H3;CAN;403 340 2174
2673;7304;Claires;TIMMINS SQUARE S.C.;1500 RIVERSIDE DRIVE;TIMMINS;ON;P4R 1A1;CAN;705 268 0551
2675;7405;Claires;SOUTH EDMONTON COMMONS;1970 99 ST. NW;EDMONTON;AB;T6N 1K9;CAN;780 485 5982
2676;7303;Claires;EASTGATE SQUARE;75 CENTENNIAL PKWY NORTH #B9;STONEY CREEK;ON;L8E 2P2;CAN;905 662 2592
2680;7404;Claires;SIGNAL HILL;5753 SIGNAL HILL CENTER S.W.;CALGARY;AB;T3H 3P8;CAN;403 242 5499
2685;7302;Claires;LANSDOWNE PLACE;645 LANSDOWNE STREET WEST;PETERBOROUGH;ON;K9J 7Y5;CAN;705 741 1687
2687;7301;Claires;GANDER MALL;132 BENNETT DRIVE;GANDER;NL;A1V 2H2;CAN;709 651 2490
2692;7301;Claires;EXPLOITS VALLEY MALL;19 CROMER AVENUE;GRAND FALLS;NL;A2A 2K5;CAN;709 489 5055
2699;7302;Claires;BAYSHORE SHOPPING CENTRE;100 BAYSHORE DRIVE  SPC EE17;OTTAWA;ON;K2B 8C1;CAN;613 828 4371
2701;7306;Claires;VAUGHAN MILLS;1 BASS PRO MILLS DRIVE;VAUGHAN;ON;L4K 5W4;CAN;905 761 1494
2707;7303;Claires;STONE ROAD MALL;435 STONE ROAD WEST   K-09;GUELPH;ON;N1G 2X6;CAN;519 836 1748
2709;7403;Claires;762 GRANVILLE STREET;NORTHEAST CORNER;VANCOUVER;BC;V6Z 1E4;CAN;604 602 4391
2718;7404;Claires;CROSSIRON MILLS;261055 CROSSIRON BLVD #CRU469;ROCKY VIEW;AB;T4A 0G3;CAN;403 274 6455
2719;7304;Claires;MAPLEVIEW MALL II;900 MAPLE AVE SPC#323B,MB #169;BURLINGTON;ON;L7S 2J8;CAN;905 631 8878
2721;7401;Claires;THE CENTRE AT CIRCLE & 8TH;3310 8TH ST. E  #525;SASKATOON;SK;S7H 5M3;CAN;306 244 2119
2722;7304;Claires;BURLINGTON MALL;777 GUELPH LINE #B12;BURLINGTON;ON;L7R 3N2;CAN;905 634 2081
2723;7302;Claires;ST. LAURENT;1200 ST. LAURENT BOULEVARD;OTTAWA;ON;K1K 3B8;CAN;613 744 7670
2726;7306;Claires;TANGER O.C. COOKSTOWN;RR#1,3311 SIMCOE RD 89 #H01;COOKSTOWN;ON;L0L 1L0;CAN;705 458 8403
2727;7302;Claires;TANGER O.C. OTTAWA;8555 CAMPEAU DR  #840;OTTAWA;ON;K2T 1B7;CAN;613 836 8963
2728;7304;Claires;THE OUTLET COL AT NIAGARA;300 TAYLOR ROAD SPC 401;NIAGARA ON THE LAKE;ON;L0S 1J0;CAN;905 687 1930
2729;7402;Claires;TSAWWASSEN MILLS;5000 CANOE PASS WAY SPC 417;TSAWWASSEN;BC;V4M 0B3;CAN;604 383 0063
2812;7307;Claires;RUE SAINTE-CATHERINE;1187, RUE STE-CATHERINE OUEST;MONTREAL;QC;H3B 1K4;CAN;514 281 5775
2813;7307;Claires;CARREFOUR ANGRIGNON;7077 BOUL NEWMAN;LA SALLE;QC;H8N 1X1;CAN;514 366 0550
2814;7307;Claires;CARREFOUR DU NORD;900 BOUL GRIGNON;ST. JEROME;QC;J7Y 3S7;CAN;450 431 2880
2815;7307;Claires;PLACE ROSEMERE;401 BOUL LABELLE;ROSEMERE;QC;J7A 3T2;CAN;450 435 6417
2816;7307;Claires;GALERIES DE GRANBY;40 RUE EVANGELINE;GRANBY;QC;J2G 8K1;CAN;450 372 6969
2817;7307;Claires;PROMENADES DRUMMONDVILLE;755 BOUL RENE-LEVESQUE;DRUMMONDVILLE;QC;J2C 6Y7;CAN;819 472 1010
2818;7307;Claires;FLEUR DE LYS;552 BOULEVARD WILFRID HAMELL02;QUEBEC;QC;G1M 3E5;CAN;418 524 4774
2819;7307;Claires;PLACE DU ROYAUME;1401 TALBOT BOULEVARD;SAGUENAY-CHICOUTIMI;QC;G7H 5N6;CAN;418 543 0700
2822;7307;Claires;MAIL CHAMPLAIN;2151 BOUL. LAPINIERE;BROSSARD;QC;J4W 2T5;CAN;450 465 1661
2823;7307;Claires;GALERIES DE LA CAPITALE;5401 BOUL DES GALERIES #111;QUEBEC;QC;G2K 1N4;CAN;418 624 0660
2824;7307;Claires;CARREFOUR ST-GEORGES;8585 BOUL LACROIX SPC 007A;ST GEORGES DE BEAUCE;QC;G5Y 5L6;CAN;418 228 8078
2825;7307;Claires;CARREFOUR DE L'ESTRIE;3050 BOUL DE PORTLAND SPC#E20;SHERBROOKE;QC;J1L 1K1;CAN;819 346 0426
2826;7307;Claires;LES GALERIES CHAGNON    SPC190;1200 BOUL ALPHONSE-DESJARDINS;LEVIS;QC;G6V 6Y8;CAN;418 837 0483
2827;7307;Claires;LAURIER QUEBEC;2700 BOULEVARD LAURIER SPC2700;QUEBEC;QC;G1V 2L8;CAN;418 650 0810
3004;4212;Claires;344 GREENWICH AVENUE;344 GREENWICH AVENUE;GREENWICH;CT;06831;USA;203 618 4461
3010;7016;Claires;MALL OF AMERICA;292 E. BROADWAY;BLOOMINGTON;MN;55425;USA;952 858 9903
3014;7209;Claires;FLATIRON CROSSING;1 WEST FLATIRON CIR.;BROOMFIELD;CO;80021;USA;720 887 1110
3019;4110;Claires;CROSSROADS VILLAGE;47164 MICHIGAN AVE.;CANTON;MI;48188;USA;734 495 0211
3022;7210;Claires;FRONT RANGE VILLAGE;2733 COUNCIL TREE AVE SPC #402;FORT COLLINS;CO;80525;USA;970 377 9679
3023;7210;Claires;TREASURE VALLEY MARKET PL;16447 NORTH MARKETPLACE ROAD;NAMPA;ID;83687;USA;208 463 0329
3026;4306;Claires;VALLEY SQUARE VILLAGE CTR;1544 MAIN STREET;WARRINGTON;PA;18976;USA;215 343 8241
3027;4317;Claires;JERSEY SHORE PREMIUM OUTLET;1 PREMIUM OUTLET BLVD SPC #741;TINTON FALLS;NJ;07753;USA;732 922 1236
3028;5304;Claires;POMPANO CITI CENTRE;2001 NORTH FEDERAL HWY # G-103;POMPANO BEACH;FL;33062;USA;954 786 7510
3035;6113;Claires;HOUSTON PREMIUM OUTLETS;29300 HEMPSTEAD ROAD  SPC#205;CYPRESS;TX;77433;USA;281 256 7023
3036;5208;Claires;COLONIAL TOWN PARK;817 INDUSTRIAL BLVD SPC #900;SMYRNA;TN;37167;USA;615 355 5898
3037;7208;Claires;THE DISTRICT @ S. JORDAN;11587 S. DISTRICT MAIN DR;SOUTH JORDAN;UT;84095;USA;801 878 8695
3038;4218;Claires;LEGACY PLACE;950 PROVIDENCE  HWY SPC # 636;DEDHAM;MA;02026;USA;781 326 4838
3041;6012;Claires;PROMENADE @ CASA GRANDE;1269 N. PROMENADE PKWY # 109;CASA GRANDE;AZ;85294;USA;520 836 2905
3066;5302;Claires;PLAZA FAJARDO;PR # 3. INT PR 940 SP# E-121;FAJARDO;PR;00738;USA;787 801 1255
3122;4324;Claires;BERGEN MALL;2701 BERGEN TOWN CTR SPC #29;PARAMUS;NJ;07653;USA;201 291 2483
3124;6011;Claires;THE SHOPS AT NORTERRA;2450 W. HAPPY VALLEY RD  #1150;PHOENIX;AZ;85085;USA;623 780 5996
3128;4328;Claires;PENINSULA TOWN CENTER;2370 MCMENAMIN STREET #E-128;HAMPTON;VA;23666;USA;757 896 2128
3134;4121;Claires;CINCINNATI PREMIUM OUTLET;400 PREMIUM OUTLETS DRIVE #831;MONROE;OH;45050;USA;513 539 7064
3139;4220;Claires;WARWICK MALL;400 BALD HILL ROAD;WARWICK;RI;02886;USA;401 738 1539
3145;4213;Claires;FREEPORT VILLAGE STATION;1 FREEPORT VILLAGE STN #309S;FREEPORT;ME;04032;USA;207 865 0076
3147;6210;Claires;OUTLETS AT OKLAHOMA CITY;7638 W. RENO AVE;OKLAHOMA CITY;OK;73128;USA;405 789 1002
3148;4326;Claires;CHRISTIANA MALL;449 CHRISTIANA MALL SP # 1125;NEWARK;DE;19702;USA;302 366 1408
3149;4326;Claires;MONDAWMIN MALL;2401 LIBERTY HEIGHTS AVE #2695;BALTIMORE;MD;21215;USA;410 225 9673
3150;4316;Claires;TANGER O.C. DEER PARK;1550 THE ARCHES CIRCLE #1550;DEER PARK;NY;11729;USA;631 242 4957
3152;5310;Claires;THE SHOPS OF GRAND RIVER;6200 GRAND RIVER BLVD E.SP#421;LEEDS;AL;35094;USA;205 702 4902
3154;6207;Claires;HAMMOND SQUARE;205 PALACE DRIVE;HAMMOND;LA;70403;USA;985 345 5677
3172;5205;Claires;SUGARLOAF MILLS;5900 SUGARLOAF PARKWAY #251;LAWRENCEVILLE;GA;30043;USA;678 847 5906
3189;4124;Claires;CROCKER PARK;284 CROCKER PARK BLVD SPC1025A;WESTLAKE;OH;44145;USA;440 250 8791
3190;7208;Claires;CITY CREEK CENTER;51 S.MAIN ST. SPC #138A;SALT LAKE CITY;UT;84101;USA;801 532 2961
3197;5301;Claires;PLAZA CAYEY;ST RD PR#1, KM55.2 BO;MONTELLANO CAYEY;PR;00736;USA;787 263 3839
3198;5302;Claires;PLAZA PALMA REAL;350 STATE ROAD #3 KM78.10;HUMACAO;PR;00791;USA;787 852 1116
3206;7110;Claires;GILROY PREMIUM OUTLETS;681 LEAVESLEY SUITE 95;GILROY;CA;95020;USA;408 842 6273
3211;6112;Icing;BAYBROOK MALL;1074 BAYBROOK MALL;FRIENDSWOOD;TX;77546;USA;281 480 2115
3215;6010;Icing;BREA MALL;1043 BREA MALL;BREA;CA;92821;USA;714 256 2650
3218;4218;Claires;BURLINGTON MALL;75 MIDDLESEX TPKE SPC #2060;BURLINGTON;MA;01803;USA;781 273 3266
3222;6110;Icing;COLLIN CREEK;811 NORTH CENTRAL EXPSWY #1050;PLANO;TX;75075;USA;972 516 9064
3223;4326;Claires;THE MALL IN COLUMBIA;10300 LITTLE PATUXENT PKWY;COLUMBIA;MD;21044;USA;410 730 8506
3226;6111;Claires;GALLERIA DALLAS;13350 DALLAS PARKWAY #3450;DALLAS;TX;75240;USA;972 726 8711
3227;4125;Claires;EASTERN HILLS MALL;4545 TRANSIT ROAD;WILLIAMSVILLE;NY;14221;USA;716 632 4023
3234;5301;Claires;PLAZA ISABELA;3535 AVE MILITAR SUITE 405;ISABELA;PR;00662;USA;787 872 8198
3237;6109;Icing;HULEN MALL;4800 S. HULEN STREET  #2068;FT. WORTH;TX;76132-1486;USA;817 292 6481
3238;5208;Claires;OPRY MILLS;343 OPRY MILLS DR SUITE#747;NASHVILLE;TN;37214;USA;615 649 0842
3240;6110;Claires;LA GRAN PLAZA DE FORT WORTH;4200 SOUTH FREEWAY SPC1039;FORT WORTH;TX;76115;USA;817 920 9171
3241;4105;Icing;LAKESIDE MALL;14600 LAKESIDE CIRCLE SPC 1180;STERLING HEIGHTS;MI;48314;USA;586 566 6557
3242;5210;Icing;LENOX SQUARE MALL;3393 PEACHTREE RD.N.E.# 3112A;ATLANTA;GA;30326;USA;404 869 0800
3251;5004;Claires;OAKBROOK SHOPPING CENTER;544 OAKBROOK CENTER;OAK BROOK;IL;60523;USA;630 472 1621
3252;6003;Claires;FASHION OUTLET OF LAS VEGAS;32100 LAS VEGAS BLVD SPACE 323;PRIMM;NV;89019;USA;702 874 0155
3254;7106;Claires;PALLADIO AT BROADSTONE.;330 PALLADIO PARKWAY SUITE2053;FOLSOM;CA;95630;USA;916 983 7319
3262;4218;Claires;SOUTH SHORE PLAZA;250 GRANITE STREET #1017;BRAINTREE;MA;02184;USA;781 848 8530
3263;6110;Claires;ALLIANCE TOWN CENTER;2914 TEXAS SAGE TRAIL;FORT WORTH;TX;76177;USA;817 741 4212
3265;4212;Icing;WESTFIELD TRUMBULL;5065 MAIN STREET SPC #112;TRUMBULL;CT;06611;USA;203 371 2336
3267;4315;Claires;BAY PLAZA SHOPPING CENTER;2140 BARSTOW AVENUE;BRONX;NY;10475;USA;718 320 5399
3269;7110;Claires;WST-VALLEY FAIR;2855 STEVENS CREEK BLVD #2-327;SANTA CLARA;CA;95050;USA;408 247 6895
3270;5309;Claires;PAVILION AT PORT ORANGE;5509 S. WILLIAMSON BLVD;PORT ORANGE;FL;32128;USA;386 304 2807
3273;7101;Claires;WESTLAKE CENTER;400 PINE STREET SUITE 212;SEATTLE;WA;98101;USA;206 628 9933
3274;5307;Claires;WEST SHORE PLAZA;185 WESTSHORE PLAZA SPACE 45C;TAMPA;FL;33609;USA;813 282 0494
3276;4317;Icing;WOODBRIDGE CENTER;250 WOODBRIDGE CTR DRIVE #2440;WOODBRIDGE;NJ;07095;USA;732 602 9291
3278;6211;Icing;WOODLAND HILLS-TULSA;7021 S MEMORIAL DRIVE SPC 282;TULSA;OK;74133;USA;918 252 3292
3280;4123;Claires;SOUTH HILLS VILLAGE;301 SOUTH HILLS VILLAGE #200A;PITTSBURGH;PA;15241;USA;412 851 9430
3283;6007;Claires;GLENDALE GALLERIA;2185 GLENDALE GALLERIA #BU05;GLENDALE;CA;91210;USA;818 243 6309
3285;5002;Claires;WESTFIELD OLD ORCHARD;4999 OLD ORCHARD CENTER #K19;SKOKIE;IL;60077;USA;847 329 0316
3288;4123;Claires;ROSS PARK;1000 ROSS PARK DRIVE SP#G04A;PITTSBURGH;PA;15237;USA;412 366 9778
3292;4315;Claires;1385 BROADWAY;BETWEEN 37 & 38 STREETS;NEW YORK;NY;10018;USA;212 302 6616
3293;4315;Claires;86TH STREET;476 86TH STREET;BROOKLYN;NY;11209;USA;718 630 5895
3297;4316;Claires;BAY TERRACE S.C.;211 - 43 26TH AVENUE;BAYSIDE;NY;11360;USA;718 225 8392
3299;7111;Icing;SUNVALLEY;470 SUNVALLEY MALL;CONCORD;CA;94520;USA;925 356 2729
3300;5308;Claires;ALTAMONTE MALL;451 E ALTAMONTE DRIVE ST B1253;ALTAMONTE SPRINGS;FL;32701;USA;407 834 8665
3302;4217;Icing;THE SHOPPES @ BUCKLAND HS;194 BUCKLAND ROAD #2168;MANCHESTER;CT;06040;USA;860 644 6444
3304;4308;Claires;WST-WHEATON;11160 VIERS MILL RD. SPC# 147;WHEATON;MD;20902;USA;301 949 3092
3305;7110;Icing;STONERIDGE MALL;STONERIDGE MALL;PLEASANTON;CA;94588;USA;925 469 1957
3308;6106;Icing;RIVER CENTER;849 E COMMERCE ST  #445;SAN ANTONIO;TX;78205;USA;210 224 9663
3309;7110;Claires;CAPITOLA MALL;1855 41ST AVENUE SPC # B01;CAPITOLA;CA;95010;USA;831 477 1720
3310;6109;Claires;THE PARKS AT ARLINGTON;3811 S. COOPER STREET # 2072;ARLINGTON;TX;76015;USA;817 465 3091
3311;4217;Claires;AUBURN MALL;385 SOUTHBRIDGE ST. STE. #460;AUBURN;MA;01501;USA;508 832 6757
3313;4308;Claires;UNION STATION;40 MASS AVE. NE;WASHINGTON;DC;20002;USA;202 289 4522
3314;6008;Claires;SOUTH BAY GALLERIA;1815 SOUTH HAWTHORNE BLVD 194;REDONDO BEACH;CA;90278;USA;310 542 3194
3315;5307;Claires;UNIVERSITY-TAMPA;2213 UNIVERSITY SQUARE MALL;TAMPA;FL;33612;USA;813 615 0566
3317;7110;Claires;SOUTHLAND MALL-HAYWARD;277 SOUTHLAND MALL SPC # 110;HAYWARD;CA;94545;USA;510 785 3021
3318;6104;Claires;COTTONWOOD MALL;10,000 COORS BY PASS N.W. G220;ALBUQUERQUE;NM;87114;USA;505 898 3584
3329;4306;Claires;PHILADELPHIA MILLS;1425 WOODHAVEN & KNIGHTS RD;PHILADELPHIA;PA;19154;USA;215 612 9494
3330;5202;Claires;BROADWAY AT THE BEACH;1210 CELEBRITY CIRCLE  #AA-204;MYRTLE BEACH;SC;29577;USA;843 916 8347
3332;6010;Icing;ONTARIO MILLS;1 MILLS CIRC SUITE 413A0;ONTARIO;CA;91764;USA;909 481 4988
3333;6113;Claires;PEARLAND TOWN CENTER;11200 BROADWAY STREET  #160;PEARLAND;TX;77584;USA;713 436 5512
3335;4315;Claires;JAMAICA AVENUE;164-13 JAMAICA AVENUE;QUEENS;NY;11432;USA;718 262 8476
3338;6012;Claires;ARIZONA MILLS;5000 ARIZONA MILLS;TEMPE;AZ;85282;USA;480 838 6860
3339;6110;Claires;GRAPEVINE MILLS;3000 GRAPEVINE MILL PKY STE546;GRAPEVINE;TX;76051;USA;972 874 1531
3341;4326;Icing;WST-ANNAPOLIS;2505 ANNAPOLIS MALL;ANNAPOLIS;MD;21401;USA;410 266 7148
3345;6201;Icing;WOLFCHASE GALLERIA;2760 NORTH GERMANTOWN #183;MEMPHIS;TN;38133;USA;901 382 4734
3358;4219;Claires;MARKET STREET @ LYNNFIELD;660 MARKET STREET;LYNNFIELD;MA;01940;USA;781 334 6862
3360;6113;Claires;CONROE MARKETPLACE;2904 INTERSTATE 45N.;CONROE;TX;77303;USA;936 788 2386
3362;5005;Icing;COMMONS OF CHICAGO RIDGE;241 CHICAGO RIDGE MALL DRIVE;CHICAGO RIDGE;IL;60415;USA;708 424 1412
3366;5210;Icing;ARBOR PLACE;6700 DOUGLAS BLVD SPC#2380;DOUGLASVILLE;GA;30135;USA;678 838 9088
3372;4220;Claires;PROVIDENCE PLACE;95 PROVIDENCE PLACE;PROVIDENCE;RI;02903;USA;401 270 4048
3375;4218;Claires;CAMBRIDGE SIDE GALLERIA;100 CAMBRIDGESIDE PLACE;CAMBRIDGE;MA;02141;USA;617 577 8028
3377;6107;Icing;LAKELINE MALL;11200 LAKELINE MALL DRIVE #L02;CEDAR PARK;TX;78613;USA;512 249 2274
3378;7016;Icing;THE EMPIRE MALL;4001 WEST 41ST;SIOUX FALLS;SD;57106;USA;605 362 1872
3381;4308;Claires;MANASSAS MALL;8300 SUDLEY ROAD;MANASSAS;VA;20109;USA;703 330 9689
3383;6011;Icing;ARROWHEAD TOWNE CENTER;7700 W. ARROWHEAD TOWNE CENTER;GLENDALE;AZ;85308;USA;623 412 7872
3384;6011;Icing;PARADISE VALLEY MALL;4550 E.CACTUS ROAD SPC# 258;PHOENIX;AZ;85032;USA;602 992 0318
3385;4317;Icing;HAMILTON MALL;4403 BLACK HORSE PIKE   #2039;MAYS LANDING;NJ;08330;USA;609 645 0132
3387;4219;Icing;THE MALL @ ROCKINGHAM PK;99 ROCKINGHAM PARK BLVD;SALEM;NH;03079;USA;603 894 4161
3393;6205;Claires;CORTANA MALL;9847 CORTANA PLACE;BATON ROUGE;LA;70815;USA;225 926 1160
3394;6105;Claires;CIELO VISTA MALL;8401 GATEWAY W  SPC #P02A;EL PASO;TX;79925;USA;915 774 0100
3396;4306;Icing;DEPTFORD MALL;1750 DEPTFORD CENTER RD #2030;DEPTFORD;NJ;08096;USA;856 845 5911
3398;6205;Claires;MALL OF ACADIANA;5725 JOHNSTON STREET;LAFAYETTE;LA;70503;USA;337 983 0900
3401;4217;Claires;HOLYOKE MALL AT INGLESIDE;50 HOLYOKE STREET;HOLYOKE;MA;01040;USA;413 533 5874
3402;4125;Icing;MCKINLEY MALL;3701 MC KINLEY PARKWAY;BLASDELL;NY;14219;USA;716 822 9145
3404;4326;Icing;TOWSON TOWN CENTER;825 DULANEY VALLEY RD;TOWSON;MD;21204;USA;410 821 6177
3405;4122;Claires;EASTLAND - COLUMBUS;2740 B. SOUTH HAMILTON RD;COLUMBUS;OH;43232;USA;614 856 9226
3409;4210;Icing;THE MARKETPLACE;471 MIRACLE MILE DRIVE;ROCHESTER;NY;14623;USA;585 292 6290
3410;5005;Claires;NORTH RIVERSIDE PARK MALL;7501 W.CERMAK ROAD SPC # M005;NORTH RIVERSIDE;IL;60546;USA;708 442 0885
3411;5004;Claires;HARLEM IRVING PLAZA;4222 N HARLEM AVE SPC D1A;NORRIDGE;IL;60706;USA;708 452 5941
3414;4306;Icing;WILLOW GROVE PARK;2500 MORELAND ROAD     #3021;WILLOW GROVE;PA;19090;USA;215 658 0658
3415;6205;Icing;MALL OF LOUISIANA;6401 BLUEBONNET ROAD;BATON ROUGE;LA;70836;USA;225 757 0559
3416;7017;Icing;SOUTHERN HILLS MALL;4400 SERGEANT ROAD;SIOUX CITY;IA;51106;USA;712 276 4819
3417;5001;Icing;FOX RIVER MALL;4301 WEST WISCONSIN AVE # 598;APPLETON;WI;54913;USA;920 993 0603
3418;6207;Claires;NORTHPARK MALL;1200 E. COUNTY LINE ROAD;RIDGELAND;MS;39157;USA;601 952 0407
3421;4107;Icing;BRIARWOOD MALL;604 BRIARWOOD;ANN ARBOR;MI;48108;USA;734 994 4905
3422;4108;Icing;WOODLAND-GRAND RAPIDS;3175 28TH STREET S.E.;GRAND RAPIDS;MI;49508;USA;616 942 8961
3423;4308;Icing;LAKEFOREST;701 RUSSELL AVENUE;GAITHERSBURG;MD;20877;USA;301 527 8977
3426;5005;Icing;ORLAND SQUARE S.C.;748 ORLAND SQUARE;ORLAND PARK;IL;60462;USA;708 226 0059
3431;5215;Icing;HAMILTON PLACE;2100 HAMILTON PLACE BLVD.;CHATTANOOGA;TN;37421;USA;423 510 8954
3433;6003;Claires;MEADOWS MALL;4300 MEADOWS LANE;LAS VEGAS;NV;89107;USA;702 877 8890
3435;6004;Claires;CARMEL MOUNTAIN PLAZA;11738 CARMEL MOUNTAIN ROAD;SAN DIEGO;CA;92128;USA;858 613 1827
3438;6012;Icing;SUPERSTITION SPRINGS P.C.;6555 E. SOUTHERN AVENUE;MESA;AZ;85206;USA;480 641 6830
3443;6008;Claires;LOS CERRITOS CENTER;115 LOS CERRITOS CTR SPC #FC01;CERRITOS;CA;90703;USA;562 865 0753
3452;5206;Claires;FRIENDLY CENTER RETAIL;634 FRIENDLY SHOPPING CTR RD.;GREENSBORO;NC;27408;USA;336 632 0395
3456;5214;Icing;MALL ST. MATTHEWS;5000 SHELBYVILLE RD;LOUISVILLE;KY;40207-3342;USA;502 895 0608
3463;6106;Claires;HUEBNER OAKS;11745 IH 10 WEST;SAN ANTONIO;TX;78230;USA;210 561 9408
3465;4110;Claires;MACOMB MALL SHOPPING CTR;32417 GRATOIT ROAD;ROSEVILLE;MI;48066;USA;586 285 1747
3466;6210;Icing;QUAIL SPRINGS MALL;2501 W. MEMORIAL ROAD;OKLAHOMA CITY;OK;73134;USA;405 302 0020
3470;7017;Icing;WESTROADS MALL;10000 CALIFORNIA #2314;OMAHA;NE;68114;USA;402 384 9385
3471;7210;Icing;BOISE TOWN SQUARE;350 N MILWAUKEE ST  SPC#2179;BOISE;ID;83704;USA;208 373 7995
3473;7015;Icing;OAKWOOD MALL - EAU CLAIRE;4800 GOLF ROAD;EAU CLAIRE;WI;54701;USA;715 855 0042
3474;4324;Claires;PALISADES CENTER;1001 PALISADE CTR DRIVE;WEST NYACK;NY;10994;USA;845 348 9339
3479;6010;Icing;MAIN PLACE SANTA ANA;2800 N. MAIN STREET;SANTA ANA;CA;92705;USA;714 541 5447
3481;4317;Claires;BRIDGEWATER COMMONS;400 COMMONS WAY SPACE # 3025;BRIDGEWATER;NJ;08807;USA;908 203 9339
3482;4306;Claires;VOORHEES TOWN CENTER;1450 ECHELON MALL;VOORHEES;NJ;08043;USA;856 772 3636
3485;4302;Claires;WILLOWBROOK-WAYNE;1398 WILLOWBROOK MALL;WAYNE;NJ;07470;USA;973 256 0321
3486;6205;Icing;PRIEN LAKE MALL;660 W. PRIEN LAKE ROAD;LAKE CHARLES;LA;70601;USA;337 562 8800
3487;6112;Claires;KATY MILLS;5000 KATY MILLS CIRCLE SPC 153;KATY;TX;77494;USA;281 644 4435
3488;5207;Claires;CONCORD MILLS;8111 CONCORD MILLS BLVD SP 219;CONCORD;NC;28027;USA;704 979 1027
3490;5203;Icing;SOUTHLAKE MALL;2413 SOUTHLAKE MALL;MORROW;GA;30260;USA;678 422 8395
3491;6201;Icing;PARK PLAZA;6000 W. MARKHAM STREET  3076;LITTLE ROCK;AR;72205;USA;501 664 0605
3492;6003;Icing;GALLERIA AT SUNSET;1300 W. SUNSET ROAD;HENDERSON;NV;89014;USA;702 433 8267
3495;6006;Claires;THE OUTLETS AT ORANGE;20 CITY BLVD.WEST SUITE #905;ORANGE;CA;92868;USA;714 634 1136
3497;5214;Claires;KENTUCKY OAKS MALL;5101 HINKLEVILLE ROAD;PADUCAH;KY;42001;USA;270 443 7899
3501;4108;Icing;RIVER TOWN CROSSINGS;3700 RIVERTOWN PARKWAYY;GRANDVILLE;MI;49418;USA;616 532 3029
3502;4122;Claires;THE EASTON TOWN CENTER;110 EASTON TOWN CTRD;COLUMBUS;OH;43219;USA;614 428 8573
3504;6214;Claires;ST. CLAIR SQUARE;163 ST CLAIR SQUARE;FAIRVIEW HEIGHTS;IL;62208;USA;618 628 8068
3505;5201;Icing;GREENBRIER MALL;1401 GREENBRIER PARKWAY;CHESAPEAKE;VA;23320;USA;757 420 6130
3507;6010;Icing;LAKEWOOD CENTER;371 LAKEWOOD CENTER;LAKEWOOD;CA;90712;USA;562 630 8499
3508;5205;Icing;MALL OF GEORGIA;3333 BUFORD DRIVE  SPC 2063;BUFORD;GA;30519;USA;678 482 7191
3517;6211;Claires;TANGER O.C. BRANSON;300 TANGER BLVD SPC 204;BRANSON;MO;65616;USA;417 339 9178
3518;5310;Claires;EASTDALE MALL;1000 EASTDALE MALL;MONTGOMERY;AL;36117;USA;334 395 5732
3522;6104;Claires;WESTGATE MALL-AMARILLO;7701 I-40 W STE 620;AMARILLO;TX;79121;USA;806 355 9894
3525;6209;Icing;TOWNE EAST SQUARE;7700 E.KELLOGG   SUITE 1024;WICHITA;KS;67207;USA;316 612 1364
3526;5010;Icing;WHITE OAKS MALL;2501 W. WABASH AVE.    F01;SPRINGFIELD;IL;62704;USA;217 793 3827
3527;4105;Icing;FASHION SQUARE MALL;4807 FASHION SQUARE BLVD #434;SAGINAW;MI;48604;USA;989 790 8657
3528;6209;Icing;TOWNE WEST SQUARE;4600 W.KELLOGG SPC # J-16;WICHITA;KS;67209;USA;316 942 3910
3530;4210;Icing;EASTVIEW;614 EASTVIEW MALL;VICTOR;NY;14564;USA;585 223 9050
3532;6211;Claires;BATTLEFIELD MALL;2825 SOUTH GLEN STONE ST #T09;SPRINGFIELD;MO;65804;USA;417 887 3516
3533;7106;Icing;SOLANO;1350 TRAVIS BLVD   SPC  #1523;FAIRFIELD;CA;94533;USA;707 432 0729
3534;6106;Icing;ROLLING OAKS MALL;6909 N. LOOP 1604;SAN ANTONIO;TX;78247;USA;210 651 5401
3536;4108;Icing;UNIVERSITY PARK MALL;6501 N. GRAPE RD.;MISHAWAKA;IN;46545;USA;574 277 4596
3539;5205;Claires;HAYWOOD MALL;700 HAYWOOD ROAD;GREENVILLE;SC;29607-2748;USA;864 284 6759
3541;4218;Icing;CAPE COD MALL;793 IYANNOUGH ROAD;HYANNIS;MA;02601;USA;508 790 9750
3546;5304;Icing;THE MALL @ WELLINGTON;10300 W. FOREST HILL BLVD;WELLINGTON;FL;33414;USA;561 793 6167
3549;5308;Icing;MALL AT MILLENIA;4200 CONROY ROAD STE 125;ORLANDO;FL;32839;USA;407 354 0671
3550;4326;Icing;WHITE MARSH;8200 PERRY HALL BLVD;PARKVILLE;MD;21236;USA;410 931 1164
3553;5002;Icing;MAYFAIR MALL;2500 N. MAYFAIR ROAD;WAUWATOSA;WI;53226;USA;414 773 9003
3555;4302;Icing;WILLOWBROOK - WAYNE;2702 WILLOWBROOK MALL;WAYNE;NJ;07470;USA;973 256 0935
3559;4302;Icing;STATEN ISLAND MALL;2655 RICHMOND AVE SPACE #1110;STATEN ISLAND;NY;10314;USA;718 982 9451
3560;7014;Icing;DAKOTA SQUARE;2400 TENTH ST. SW   SPC. #528;MINOT;ND;58701;USA;701 839 6022
3561;5007;Icing;NORTHPARK-DAVENPORT;320 W. KIMBERLY RD. #M- 70;DAVENPORT;IA;52806;USA;563 391 6657
3565;5309;Icing;ORANGE PARK MALL;1910 WELLS ROAD     B09;ORANGE PARK;FL;32073;USA;904 215 8016
3566;4110;Icing;FAIRLANE TOWN CENTER;18900 MICHIGAN AVENUE #N323;DEARBORN;MI;48126;USA;313 441 1185
3567;4110;Icing;TWELVE OAKS MALL;27948 NOVI ROAD SUITE E213;NOVI;MI;48377;USA;248 348 9951
3569;5307;Icing;COUNTRYSIDE SQUARE;27001 US HWY 19N SUITE #2044;CLEARWATER;FL;33761;USA;727 793 9249
3573;5001;Icing;BAY PARK SQUARE;918 BAY PARK SQUARE;GREEN BAY;WI;54304;USA;920 490 7891
3576;5302;Icing;PLAZA CAROLINA;HWY #3 & LOIZA AVENUE SP# 106A;CAROLINA;PR;00983;USA;787 769 1785
3577;7103;Icing;DIMOND CENTER;800 E. DIMOND BLVD #125B;ANCHORAGE;AK;99515;USA;907 868 3414
3578;4212;Icing;DANBURY FAIR MALL;7 BACKUS AVENUE;DANBURY;CT;06810-7434;USA;203 778 4019
3579;6012;Icing;CHANDLER FASHION CENTER;3111 W. CHANDLER BLVD.;CHANDLER;AZ;85226;USA;480 917 2996
3581;6214;Icing;WEST COUNTY;160 COUNTY MALL;DES PERES;MO;63131;USA;314 821 7071
3584;5009;Icing;JORDAN CREEK TOWN CENTER;101 JORDAN CREEK PARKWAY 12270;WEST DES MOINES;IA;50266;USA;515 223 5540
3595;5305;Icing;TYRONE SQUARE;6901 22ND AVE;ST. PETERSBURG;FL;33710;USA;727 341 0611
3596;5309;Icing;THE AVENUES;10300 SOUTHSIDE BLVD SP# 114;JACKSONVILLE;FL;32256;USA;904 519 2870
3597;5202;Icing;COASTAL GRD MYRTLE BEACH;2000 COASTAL GRAND CIRCLE;MYRTLE BEACH;SC;29577;USA;843 839 3235
3600;4122;Icing;POLARIS FASHION PLACE;1500 POLARIS PARKWAY;COLUMBUS;OH;43240;USA;614 854 0405
3602;5010;Icing;TIPPECANOE MALL;2415 SAGAMORE PKWY.;LAFAYETTE;IN;47905;USA;765 447 9305
3604;6003;Icing;FASHION SHOW;3200 LAS VEGAS BLVD,S SPC 2755;LAS VEGAS;NV;89109;USA;702 369 6088
3605;6007;Icing;WEST-TOPANGA;6600 TOPANGA CANYON BLVD.;CANOGA PARK;CA;91303;USA;818 593 6525
3608;5309;Icing;THE OAKS-GAINESVILLE;6419 W. NEWBERRY RD STE# F20;GAINSVILLE;FL;32605;USA;352 331 7647
3609;7110;Icing;NEWPARK MALL;2046 NEWPARK MALL;NEWARK;CA;94560;USA;510 791 2199
3615;4302;Icing;THE STREETS AT CHESTER;360 STATE HIGHWAY 206 SOUTH;CHESTER;NJ;07930;USA;908 879 0065
3619;6109;Icing;SUNSET MALL;4001 SUNSET DRIVE;SAN ANGELO;TX;76904;USA;325 949 5090
3622;7208;Icing;FASHION PLACE;6191 SOUTH STATE STEET;MURRAY;UT;84107;USA;801 269 0283
3625;4326;Icing;THE MALL IN COLUMBIA;10300 LITTLE PATUXENT PKWY;COLUMBIA;MD;21044;USA;410 740 5005
3629;5207;Icing;NORTHLAKE-CHARLOTTE;6801 NORTHLAKE MALL DRIVE;CHARLOTTE;NC;28216;USA;704 598 3792
3638;6107;Icing;ROUND ROCK PREMIUM OUTLET;4401 N. IH-35;ROUND ROCK;TX;78664;USA;512 868 0287
3642;6206;Icing;PIERRE BOSSIER MALL;2950 EAST TEXAS STREET SPC #26;BOSSIER CITY;LA;71111;USA;318 752 0393
3645;5311;Icing;CORDOVA MALL;5100 N. 9 TH AVE;PENSACOLA;FL;32504;USA;850 475 1373
3646;6110;Icing;GRAPEVINE MILLS;3000 GRAPEVINE MALL PKWY #135;GRAPEVINE;TX;76051;USA;972 874 8348
3651;5202;Icing;VILLAGE AT SANDHILL;495-3 TOWN CENTER PLACE BOX 74;COLUMBIA;SC;29229;USA;803 462 9671
3655;7016;Icing;APACHE MALL;410 APACHE MALL;ROCHESTER;MN;55902;USA;507 292 0892
3660;6006;Icing;PROM. SHOPS AT DOS LAGOS;2790 CABOT DRIVE SPC 4-137;CORONA;CA;92883;USA;951 603 0253
3661;7206;Icing;SOUTHGATE MALL-MISSOULA;2901 BROOKS ST.;MISSOULA;MT;59801;USA;406 728 2086
3663;6113;Icing;GULFGATE CENTER;100 GULFGATE MALL;HOUSTON;TX;77087;USA;713 644 5690
3668;6010;Icing;WESTMINSTER MALL-CA;1076 WESTMINSTER BLVD;WESTMINSTER;CA;92683;USA;714 891 7953
3672;6214;Icing;OSAGE BEACH PREMIUM OUTLET;4540 HWY 54 SPC # F-2;OSAGE BEACH;MO;65065;USA;573 348 2672
3673;6007;Icing;THE ANTELOPE VALLEY MALL;1233 WEST AVENUE P SPC #925;PALMDALE;CA;93551;USA;661 575 9357
3679;7101;Icing;NORTHGATE SHOPPING CENTER;401 N.E. NORTHGATE WAY #738;SEATTLE;WA;98125;USA;206 365 0083
3682;7015;Icing;MILLER HILL MALL;1600 MILLER TRUNK HWY #N08A;DULUTH;MN;55811;USA;218 727 4092
3689;5302;Icing;YACHT HAVEN GRANDE  BUILDING N;5316 YACHT HAVEN GRANDE #105;ST THOMAS;VI;00802;USA;340 776 2111
3696;6011;Icing;PARK WEST;9824 N. NORTHERN AVE. #1810;PEORIA;AZ;85345;USA;623 877 3291
3699;5215;Icing;ASHEVILLE MALL;THREE SOUTH TUNNEL RD # D-06;ASHEVILLE;NC;28805;USA;828 298 6055
3700;6012;Icing;TUCSON VALLEY MALL;4500 N. ORACLE  RD SPC #401;TUCSON;AZ;85705;USA;520 887 9252
3701;6002;Icing;THE OAKS;350 W. HILLCREST ST SUITE MOO2;THOUSAND OAKS;CA;91360;USA;805 497 4142
3703;7106;Icing;WST-GALLERIA AT ROSEVILLE;1151 GALLERIA BOULEVARD #267;ROSEVILLE;CA;95678;USA;916 781 0197
3721;5303;Icing;WESTLAND- HIALEAH;1645 W. 49TH ST. STE. 1316;HIALEAH;FL;33012;USA;305 362 1690
3723;4302;Icing;NEWPORT CENTRE;30 MALL DR W;JERSEY CITY;NJ;07310;USA;201 653 5982
3724;4122;Icing;MALL AT TUTTLE;5043 TUTTLE CROSSING BLVD 293A;DUBLIN;OH;43016;USA;614 717 9501
3725;7102;Icing;TACOMA MALL;4502 S STEELE ST;TACOMA;WA;98409;USA;253 472 0294
3726;4302;Icing;LIVINGSTON MALL;112 EISENHOWER PARKWAY SPC1014;LIVINGSTON;NJ;07039;USA;973 533 0134
3728;4302;Icing;ROCKAWAY TOWNSQUARE;301 MOUNT HOPE AVE;ROCKAWAY;NJ;07866;USA;973 366 5436
3729;4315;Icing;KING'S PLAZA;5100 KINGS PLAZA SPC 249B;BROOKLYN;NY;11234;USA;718 434 4648
3730;4212;Icing;WESTFARMS MALL;1500 NEW BRITAIN AVE SPC E118;WEST HARTFORD;CT;06110;USA;860 561 2808
3732;4317;Icing;MONMOUTH MALL;ROUTES 35 AND 36;EATONTOWN;NJ;07724;USA;732 380 1159
3733;5001;Icing;WEST TOWNE MALL;202 W TOWNE MALL   SPC A48;MADISON;WI;53719;USA;608 833 3939
3734;6007;Icing;WST - SANTA ANITA;400 S BALDWIN AVE #1220;ARCADIA;CA;91007;USA;626 445 7943
3735;6002;Icing;WST - VALENCIA TOWN CENTER;24201 W VALENCIA BLVD #2048;VALENCIA;CA;91335;USA;661 286 2158
3736;7206;Icing;NORTHTOWN MALL-SPOKANE;4750 NORTH DIVISION;SPOKANE;WA;99207;USA;509 484 8295
3739;7212;Icing;COLUMBIA - KENNEWICK  SPC 364;1321 N COLUMBIA CENTER BLVD;KENNEWICK;WA;99336;USA;509 737 6072
3740;6212;Icing;ZONA ROSA;7268 NW 86TH PLACE SPC#174;KANSAS CITY;MO;64153;USA;816 587 0413
3741;5002;Icing;BAYSHORE;5727 N CENTERPARK WAY N116;GLENDALE;WI;53217;USA;414 332 2923
3742;5005;Icing;133 STATE STREET;133 S. STATE STREET;CHICAGO;IL;60603;USA;312 346 3225
3744;5206;Icing;TRIANGLE TOWN CENTER;5959 TRIANGLE TOWN BLVD #2050;RALEIGH;NC;27616;USA;919 792 0359
3745;6214;Icing;ST. LOUIS P.O.;18511 OUTLET BLVD   SPC 841;CHESTERFIELD;MO;63005;USA;636 778 2070
3747;5305;Icing;UNIVERSITY TOWN CENTER;140 UNIVERSITY TOWN CTR DR 190;SARASOTA;FL;34243;USA;941 866 6328
3748;4315;Icing;THE MALL AT BAY PLAZA;200 BAYCHESTER AVE  SUITE129B;BRONX;NY;10475;USA;718 409 0849
3749;5210;Icing;ATLANTIC STATION;230 18TH ST NW STE 11115;ATLANTA;GA;30363;USA;404 249 2008
3752;6112;Icing;FIRST COLONY MALL;16535 SOUTHWEST FREEWAY  #840;SUGARLAND;TX;77479;USA;281 491 2775
3755;5004;Icing;YORKTOWN CENTER;203 YORKTOWN RD SPC 217;LOMBARD;IL;60148;USA;630 424 0791
3756;6004;Icing;OUTLETS AT THE BORDER;4459 CAMINO DE LA PLAZA  450;SAN DIEGO;CA;92173;USA;619 397 1246
3758;5002;Icing;GURNEE MILLS;6170 W GRAND AVE;GURNEE;IL;60031;USA;847 855 1210
3759;5311;Icing;DESTIN COMMONS;4265 LEGENDARY DR SPC J106;DESTIN;FL;32541;USA;850 837 2516
3761;5210;Icing;CUMBERLAND MALL;1409 CUMBERLAND MALL SE  211;ATLANTA;GA;30339;USA;770 803 9932
3762;5303;Icing;BAYSIDE MARKETPLACE;401 BISCAYNE BLVD;MIAMI;FL;33132;USA;305 375 8088
3763;5203;Icing;AUGUSTA MALL;3450 WRIGHTSBORO RD;AUGUSTA;GA;30909;USA;706 667 7160
3764;4218;Icing;BURLINGTON MALL;75 MIDDLESEX TURNPIKE;BURLINGTON;MA;01803;USA;781 272 1277
3765;5012;Icing;CASTLETON SQUARE;6020 E 82ND ST;INDIANAPOLIS;IN;46250;USA;317 845 1508
3766;4220;Icing;CRYSTAL MALL;850 HARTFORD TURNPIKE;WATERFORD;CT;06385;USA;860 439 0200
3767;6111;Icing;FIREWHEEL TOWN CENTER;450 CEDAR SAGE DRIVE SPC 11;GARLAND;TX;75040;USA;972 495 0431
3770;4317;Icing;MENLO PARK;55 PARSONAGE RD  SPC 1540C;EDISON;NJ;08837;USA;732 321 6857
3771;4219;Icing;PHEASANT LANE MALL;310 DANIEL WEBSTER HIGHWAY;NASHUA;NH;03060;USA;603 888 1368
3772;4204;Icing;MONTGOMERY MALL;144 MONTGOMERY MALL;NORTH WALES;PA;19454;USA;215 361 5939
3773;4110;Icing;SOMERSET COLLECTION;2800 W BIG BEAVER RD;TROY;MI;48084;USA;248 458 0140
3774;6008;Icing;WST - CULVER CITY;6000 SEPULVEDA BLVD;CULVER CITY;CA;90230-6431;USA;310 391 5360
3775;4212;Icing;WST - CONNECTICUT POST;1201 BOSTON POST RD;MILFORD;CT;06460;USA;203 877 1343
3776;4317;Icing;OCEAN COUNTY MALL;1201 HOOPER AVE;TOMS RIVER;NJ;08753;USA;732 240 3200
3782;5208;Icing;OPRY MILLS MALL;433 OPRY MILLS DR  SPC 115;NASHVILLE;TN;37214;USA;615 872 2134
5001;6212;Claires;OAK PARK MALL;11567 W 95TH STREET;OVERLAND PARK;KS;66214;USA;913 888 6400
5006;6001;Claires;LAHAINA GATEWAY;335 KEAWE STREET SPC #B112;LAHAINA MAUI;HI;96761;USA;808 661 4180
5009;4302;Claires;THE SHOPS AT RIVERSIDE;390 HACKENSACK AVE #245A;HACKENSACK;NJ;07601;USA;201 489 0183
5013;5303;Claires;DADELAND MALL;7537 SW 88TH STREET STE 1000;MIAMI;FL;33156;USA;305 668 3778
5022;6006;Claires;FASHION ISLAND;1021 NEWPORT CENTER DR.  A-150;NEWPORT BEACH;CA;92660;USA;949 721 1451
5023;6212;Claires;SUMMITWOODS CROSSING;1756 N.W CHIPMAN RD;LEES SUMMIT;MO;64081;USA;816 246 6458
5024;6106;Claires;AAFES-LACKLAND AFB;2180 REESE STREET;SAN ANTONIO;TX;78236;USA;210 675 9404
5027;4107;Claires;LIMA MALL;2400 ELIDA RD RM #320;LIMA;OH;45805;USA;419 331 3976
5029;6210;Claires;PIONEER SQUARE SHOPPING C;723 NORTH PERKINS ROAD;STILLWATER;OK;74075;USA;405 377 5471
5030;7212;Claires;GRESHAM STATION S.C.;1254 NW CIVIC DRIVE;GRESHAM;OR;97030;USA;503 665 3126
5031;6205;Claires;FAIRWAY MKT/FAIRWAY PLAZA;5584 FAIRMONT PARKWAY;PASADENA;TX;77505;USA;281 991 7001
5032;6212;Claires;TOWN CENTER PLAZA;5207 W 117 STREET;LEAWOOD;KS;66209;USA;913 663 3043
5033;6001;Claires;KAHALA MALL;4211 WAIALAE AVENUE SUITE 1330;HONOLULU;HI;96816;USA;808 738 0104
5034;6001;Claires;ALA MOANA CENTER;1450 ALA MOANA CENTER 3021;HONOLULU;HI;96814;USA;808 946 4199
5035;6011;Claires;PRESCOTT GATEWAY MALL;3250 GATEWAY BLVD  SPC 1046;PRESCOTT;AZ;86303;USA;928 442 0133
5041;4220;Claires;THE CROSSING @ SMITHFIELD;371 PUTNAM PIKE SUITE 510;SMITHFIELD;RI;02917;USA;401 232 2861
5042;5012;Claires;CIRCLE CENTRE;49 WEST MARYLAND STREET;INDIANAPOLIS;IN;46204;USA;317 423 9072
5044;6003;Claires;SILVERADO RANCH PLAZA;9731 EASTERN AVENUE #A9;LAS VEGAS;NV;89183;USA;702 269 6007
5045;5206;Claires;THE STREETS AT SOUTHPOINT;6702 FAYETTEVILLE ROAD #286;DURHAM;NC;27713;USA;919 544 8067
5046;5308;Claires;VERO BEACH OUTLETS;1745 94TH DR SPC D215;VERO BEACH;FL;32966;USA;772 778 9247
5048;5004;Claires;F.O. OF CHICAGO ROSEMONT;5220 ROSE ST SPC 1086;ROSEMONT;IL;60018;USA;847 233 9417
5049;7101;Claires;REDMOND TOWN CENTER;7325 166TH AVE NE STE. F122;REDMOND;WA;98052;USA;425 895 8091
5054;5303;Claires;THE FALLS SHOPPING CENTER;8888 SW 136 STREET;MIAMI;FL;33176;USA;305 259 4369
5055;4203;Claires;TOWN MALL OF WESTMINSTER;400 N CENTER ST #161;WESTMINSTER;MD;21157;USA;410 857 8216
5057;4328;Claires;SHOPS AT WILLOW LAWN;1601 WILLOW LAWN DR SPC A-6;RICHMOND;VA;23230;USA;804 282 1209
5058;5007;Claires;GENEVA COMMONS;1534 COMMONS DRIVE;GENEVA;IL;60134;USA;630 232 2707
5059;7015;Claires;RIVERDALE VILLAGE;12786 RIVERDALE BLVD;COON RAPIDS;MN;55448;USA;763 712 8326
5060;5310;Claires;THE SHOPPES AT EASTCHASE;6828 EAST CHASE PARKWAY;MONTGOMERY;AL;36117;USA;334 356 2860
5063;5210;Claires;PERIMETER MALL;4400 ASHFORD DUNWOODY ROAD;ATLANTA;GA;30346;USA;770 677 0313
5065;4219;Claires;MERRIMACK PREMIUM OUTLETS;80 PREMIUM OUTLETS BLVD #355;MERRIMACK;NH;03054;USA;603 424 4420
5069;5206;Claires;TRIANGLE TOWN CENTER;5959 TRIANGLE TOWN BLVD EU2137;RALEIGH;NC;27616;USA;919 792 2092
5071;7209;Claires;COLORADO MILLS;14500 W. COLFAX UNIT #489;LAKEWOOD;CO;80401;USA;303 278 6338
5073;5210;Claires;OUTLET SHOPPES AT ATLANTA;I-75 AT RIDGEWALK PKWY #E505;WOODSTOCK;GA;30188;USA;770 591 0660
5074;7208;Claires;STATION PARK;877 W EAST PROMONTORY SPC-H105;FARMINGTON;UT;84025;USA;801 451 0440
5078;7016;Claires;EAGAN PROMENADE;3324 PROMENADE AVE;EAGAN;MN;55121;USA;651 994 9382
5079;4121;Claires;VOICE OF AMERICA CENTRE;7586 VOICE OF AMERICA CTR DR;WEST CHESTER;OH;45069;USA;513 755 3765
5080;4315;Claires;FULTON STREET;523 FULTON STREET;BROOKLYN;NY;11201;USA;718 858 4596
5083;5310;Claires;PARKWAY PLACE MALL;2801 MEMORIAL PARKWAY SOUTH;HUNTSVILLE;AL;35801;USA;256 534 5924
5084;4122;Claires;CHILLICOTHE MALL;1075 N BRIDGE ST;CHILLICOTHE;OH;45601;USA;740 773 8677
5085;4328;Claires;SHORT PUMP TOWN CENTER;11800 WEST BROAD ST;RICHMOND;VA;23233;USA;804 360 5912
5087;6008;Claires;BALDWIN HILLS CRENSHAW PI;3650 M LUTHER KING BLVD #237;LOS ANGELES;CA;90008;USA;323 291 1812
5090;4105;Claires;TANGER O.C. WEST BRANCH;2990 COOK ROAD SUITE #127B;WEST BRANCH;MI;48661;USA;989 343 0519
5091;7209;Claires;DENVER PAVILIONS;600 16TH STREET  #134;DENVER;CO;80202;USA;303 893 6956
5094;4105;Claires;THE VILLAGE-ROCHESTER;124 NORTH ADAMS ROAD;ROCHESTER HILLS;MI;48309;USA;248 375 5869
5096;4125;Claires;FORT STEUBEN MALL;100 MALL DRIVE A-3;STEUBENVILLE;OH;43952;USA;740 264 5131
5101;6207;Claires;LAKESIDE SHOPPING CENTER;3301 VETERANS MEMORIAL BLVD;METAIRIE;LA;70002;USA;504 831 7967
5106;5205;Claires;FORUM ON PEACHTREE PKWAY;5135 PEACHTREE PKWY;NORCROSS;GA;30092;USA;770 447 9941
5111;5005;Claires;VALPARAISO MARKETPLACE;2620 LAPORTE AVE;VALPARAISO;IN;46383;USA;219 531 1517
5112;5202;Claires;TANGER O.C. MYRTLE BEACH;10843 KINGS ROAD;MYRTLE BEACH;SC;29572;USA;843 449 8287
5113;4123;Claires;SOUTHSIDE WORKS;411 CINEMA DRIVE SPC C222;PITTSBURGH;PA;15203;USA;412 381 0378
5115;7103;Claires;5TH AVENUE MALL;320 W 5TH AVENUE #148;ANCHORAGE;AK;99501;USA;907 272 5869
5117;6113;Claires;COPPERWOOD VILLAGE S.C.;6581 HIGHWAY 6 NORTH;HOUSTON;TX;77084;USA;281 550 5990
5118;4108;Claires;OUTLETS SHOPPES AT FREMONT;6245 N, OLD 27;FREMONT;IN;46737;USA;260 833 8699
5119;7206;Claires;LEWISTON MALL;1808 19TH AVENUE SPC# 1808D;LEWISTON;ID;83501;USA;208 746 7008
5122;7014;Claires;CROSSROADS CENTER -ST. CLOUD;4101 W DIVISION STREET #B001;ST.CLOUD;MN;56301;USA;320 252 7816
5124;7017;Claires;WESTROADS MALL;156 WESTMINSTER MALL;OMAHA;NE;68114;USA;402 393 1424
5126;4124;Claires;CHAPEL HILL S.C.;2000 BRITTAIN RD., SUITE 340;AKRON;OH;44310;USA;330 633 7477
5127;7206;Claires;HOLIDAY VILLAGE MALL;1200 10TH AVE SOUTH;GREAT FALLS;MT;59405;USA;406 761 7541
5129;5004;Claires;YORKTOWN SHOPPING CENTER;148 YORKTOWN SHOPPING CENTER;LOMBARD;IL;60148;USA;630 629 7444
5130;5012;Claires;MARKLAND MALL;1158 SOUTH 17TH STREET;KOKOMO;IN;46902;USA;765 459 5992
5133;4203;Claires;PARK CITY CENTER;640 PARK CITY CENTER;LANCASTER;PA;17601;USA;717 299 2231
5137;5215;Claires;BASKIN SQUARE;631 PARKWAY;GATLINBURG;TN;37738;USA;865 436 5949
5138;5208;Claires;COOLSPRINGS GALLERIA;1800 GALLERIA BLVD  SPC 5060;FRANKLIN;TN;37067;USA;615 771 7341
5141;4108;Claires;WOODLAND-GRAND RAPIDS;3195 28TH STREET #H102;KENTWOOD;MI;49512;USA;616 949 2710
5142;5010;Claires;CROSS COUNTY MALL;700 BROADWAY EAST;MATTOON;IL;61938;USA;217 234 3166
5146;7014;Claires;WEST ACRES SHOPPING CTR.;3902 13TH AVE S #306;FARGO;ND;58103;USA;701 282 3750
5147;7017;Claires;PLATTE RIVER MALL;1100 SOUTH DEWEY  SPACE 60;NORTH PLATTE;NE;69101;USA;308 534 3290
5148;6210;Claires;CENTRAL MALL;5111 ROGERS AVE SUITE 27;FORT SMITH;AR;72903;USA;479 452 3291
5149;5007;Claires;NORTHWOOD MALL-PEORIA;2200 W. MEMORIAL DRIVE;PEORIA;IL;61613;USA;309 688 0211
5150;4204;Claires;PHILADELPLHIA PREM.OUTLET;18 LIGHT CAP ROAD  SPC #1063;POTTSTOWN;PA;19464;USA;610 327 4584
5151;4125;Claires;SOUTHERN PARK MALL;7401 MARKET ST., RM 283;YOUNGSTOWN;OH;44512;USA;330 758 6036
5152;5012;Claires;CASTLETON SQUARE;6020 E. 82ND ST, SUITE 138;INDIANAPOLIS;IN;46250;USA;317 849 5168
5154;4124;Claires;BELDEN VILLAGE;4336 BELDEN VILLAGE MALL;CANTON;OH;44718;USA;330 494 6644
5155;4107;Claires;WESTWOOD MALL;1728 MICHIGAN;JACKSON;MI;49202;USA;517 782 1920
5158;5002;Claires;SOUTHRIDGE GREENDALE;5300 S. 76TH STREET SPC # 580;GREENDALE;WI;53129;USA;414 421 4330
5159;5007;Claires;EASTLAND-BLOOMINGTON;1615 E. EMPIRE STREET SP #1365;BLOOMINGTON;IL;61701;USA;309 663 4922
5161;5007;Claires;NORTHLAND-STERLING;2900 E. LINCOLN HWY;STERLING;IL;61081;USA;815 626 4912
5163;4108;Claires;CONCORD MALL;3701 S. MAIN STREET;ELKHART;IN;46517;USA;574 875 7725
5164;4217;Claires;THE SHOPPS @ BLACKSTONE;70 WORCHESTER PROVIDENCE;MILLBURY;MA;01527;USA;508 865 6626
5166;4218;Claires;DERBY STREET SHOPPES;94 DERBY STREET;HINGHAM;MA;02043;USA;781 749 0619
5168;7017;Claires;CONESTOGA MALL;3404 W. 13TH STREET;GRAND ISLAND;NE;68803-2383;USA;308 384 4113
5171;4204;Claires;EXTON SQUARE;100 EXTON SQUARE   SPC 257;EXTON;PA;19341;USA;610 363 1084
5174;5007;Claires;CHERRYVALE MALL;7200 HARRISON AVENUE #H42B;ROCKFORD;IL;61112;USA;815 332 4058
5175;5010;Claires;HONEY CREEK MALL;3401 SOUTH US 41  STE J27;TERRE HAUTE;IN;47802;USA;812 231 8677
5176;5010;Claires;TIPPECANOE MALL;2415 SAGAMORE PKWY # A-10A;LAFAYETTE;IN;47905;USA;765 447 6732
5177;5001;Claires;JANESVILLE MALL;2500 MILTON AVENUE;JANESVILLE;WI;53545;USA;608 756 3851
5180;6212;Claires;INDEPENDENCE CENTER;18813 E 39TH STREET SUITE L10;INDEPENDENCE;MO;64057;USA;816 795 0448
5181;7015;Claires;MAPLEWOOD MALL;3001 WHITE BEAR AVE N STE 2050;MAPLEWOOD;MN;55109;USA;651 770 3658
5183;4105;Claires;WATERSIDE MARKETPLACE;50607 WATERSIDE DRIVE;CHESTERFIELD TWNSHP;MI;48051;USA;586 949 0730
5184;5004;Claires;WST-FOX VALLEY;2069 FOX VALLEY CENTER #C-11;AURORA;IL;60504;USA;630 898 5221
5186;5010;Claires;SHOPS AT PERRY CROSSING;2498 PERRY CROSSING WAY #150;PLAINFIELD;IN;46168;USA;317 839 2440
5190;7209;Claires;TOWN CENTER @ AURORA;14200 E.ALAMEDA AVE. SP#1037A;AURORA;CO;80012;USA;303 364 4489
5191;5007;Claires;CHICAGO PREMIUM OUTLETS;1650 PREMIUM OUTLET BLVD #1141;AURORA;IL;60502;USA;630 499 5011
5192;7103;Claires;OLD MILL DIST @ RIVER BEND;450 SW POWERHOUSE DRIVE;BEND;OR;97702-1387;USA;541 382 6944
5193;6210;Claires;SOONER MALL;3443 W. MAIN STREET;NORMAN;OK;73072;USA;405 364 4631
5194;4107;Claires;SHOPS AT FALLEN TIMBERS;3100 MAIN STREET SPC # 1118;MAUMEE;OH;43537;USA;419 878 2973
5197;6110;Claires;SIKES CENTER;3111 MIDWESTERN PARKWAY;WICHITA FALLS;TX;76308;USA;940 692 7292
5198;5002;Claires;NORTHBROOK COURT;2242 NORTHBROOK COURT;NORTHBROOK;IL;60062;USA;847 272 5198
5199;4203;Claires;HUNT VALLEY TOWNE CENTRE;118 SHAWAN ROAD;HUNT VALLEY;MD;21030;USA;410 329 9510
5200;6214;Claires;WEST COUNTY;107 WEST COUNTY MALL  SPC 2205;DES PERES;MO;63131;USA;314 909 9835
5203;6010;Claires;SOUTHBAY PAVILION;20700 S AVALON F-16;CARSON;CA;90746;USA;310 715 2840
5205;6006;Claires;IRVINE SPECTRUM CENTER;741 SPECTRUM CENTER DRIVE;IRVINE;CA;92618;USA;949 453 0338
5206;5010;Claires;TOWN FAIR CENTER;1206 JAMES AVENUE;BEDFORD;IN;47421;USA;812 278 3107
5207;4213;Claires;COLONIE CENTER;1417 CENTRAL AVE SPC H-7;ALBANY;NY;12205;USA;518 459 8584
5208;4108;Claires;GREEN RIDGE SQUARE;3286A ALPINE AVE NW SPC 119;WALKER;MI;49544;USA;616 647 8631
5211;4122;Claires;MIAMI VALLEY CENTRE MALL;987 EAST ASH STREET #102;PIQUA;OH;45356;USA;937 773 2109
5212;7108;Claires;SAND CREEK CROSSING;2440 SAND CREEK ROAD;BRENTWOOD;CA;94513-7062;USA;925 240 0681
5214;6201;Claires;MAIN STREET;911 HWY 12 WEST;STARKVILLE;MS;39759;USA;662 615 1739
5215;6207;Claires;THE ESPLANADE;1401 W. ESPLANADE, SP.# 711;KENNER;LA;70065;USA;504 464 9432
5217;7103;Claires;DIMOND CENTER;800 EAST DIMOND BLVD #176;ANCHORAGE;AK;99515;USA;907 344 3427
5218;6003;Claires;LAUGHLIN OUTLET CENTER;1955 S. CASINO DR. SPACE #246;LAUGHLIN;NV;89029;USA;702 299 1068
5219;7211;Claires;ASPEN GROVE;7301 S. SANTA FE DR SPC G3;LITTLETON;CO;80120;USA;720 283 7322
5221;4308;Claires;BOULEVARD AT CAPITAL CTR.CTR;901 A CAPITAL CENTER BLVD;LARGO;MD;20785;USA;301 333 5130
5225;6112;Claires;MEYERLAND PLAZA;394 MEYERLAND PLAZA MALL;HOUSTON;TX;77096;USA;832 778 9100
5226;6007;Claires;HEMET VALLEY MALL;2200 W FLORIDA AVE #325;HEMET;CA;92545;USA;951 652 4081
5228;5304;Claires;TOWER SHOPS CENTER;2044 S.UNIVERSITY DRIVE;DAVIE;FL;33324;USA;954 382 3633
5229;4210;Claires;THE MALL @ GREECE RIDGE;460 GREECE RIDGE CENTER SPC;ROCHESTER;NY;14626;USA;585 227 6741
5231;5009;Claires;VALLEY WEST MALL;1551 VALLEY WEST DRIVE;W. DES MOINES;IA;50266;USA;515 223 5231
5233;6211;Claires;WOODLAND HILLS -TULSA;7021 SOUTH MEMORIAL, SUITE 222;TULSA;OK;74133;USA;918 252 5244
5235;5010;Claires;WHITE OAKS MALL;253 WHITE OAKS S.C. SPC #D07A;SPRINGFIELD;IL;62704;USA;217 787 9535
5236;4302;Claires;141 EAST BROAD STREET;141 EAST BROAD STREET;WESTFIELD;NJ;07090;USA;908 317 9157
5237;5010;Claires;MARKET PLACE MALL;2000 N. NEIL STREET;CHAMPAIGN;IL;61820;USA;217 359 3305
5238;5005;Claires;ORLAND SQUARE S.C.;202 ORLAND SQUARE DRIVE;ORLAND PARK;IL;60462;USA;708 349 8989
5240;6209;Claires;TOWNE EAST SQUARE;7700 EAST KELLOGE;WICHITA;KS;67207;USA;316 684 7812
5241;4204;Claires;MONTGOMERY MALL;236 MONTGOMERY MALL;NORTH WALES;PA;19454;USA;215 362 0855
5242;4123;Claires;WESTMORELAND MALL;5256 ROUTE 30 SPC 219;GREENSBURG;PA;15601;USA;724 836 2663
5243;4302;Claires;ROCKAWAY TOWN SQUARE;ROUTE 80 & MT.HOPE ROAD-#2046;ROCKAWAY;NJ;07866;USA;973 361 4038
5244;5214;Claires;JEFFERSON MALL;4801 OUTERLOOP RD.SPC# B-316;LOUISVILLE;KY;40219;USA;502 966 5244
5245;4108;Claires;UNIVERSITY PARK MALL;6501 NORTH GRAPE, ROOM 312;MISHAWAKA;IN;46545;USA;574 272 6723
5248;6206;Claires;LONGVIEW MALL;3500 MCCANN ROAD SPC # H-09A;LONGVIEW;TX;75605;USA;903 753 9581
5249;4327;Claires;FRANCIS SCOTT KEY MALL;5500 BUCKEYS TOWN PIKE #268;FREDERICK;MD;21703;USA;301 663 6544
5251;6006;Claires;THE VILLAGE AT ORANGE;2235 NORTH ORANGE MALL;ORANGE;CA;92868;USA;714 974 9808
5252;6110;Claires;NORTH EAST MALL;1101 MELBOURNE ROAD, STE.3008;HURST;TX;76053;USA;817 284 3552
5254;5010;Claires;ALTON SQUARE;129 ALTON SQUARE SHOPPING CTR.;ALTON;IL;62002;USA;618 462 7881
5255;5311;Claires;EDGEWATER MALL;2600 BEACH BLVD. SPACE #10;BILOXI;MS;39531;USA;228 388 2304
5256;4204;Claires;WYOMING VALLEY MALL;SPACE #2 WYOMING VALLEY MALL;WILKES BARRE;PA;18702;USA;570 824 2335
5258;5010;Claires;HICKORY POINT MALL;SPACE #1310;FORSYTH;IL;62535;USA;217 875 3793
5259;5207;Claires;VALLEY HILLS MALL;1960 HIGHWAY 64-70 S.E.;HICKORY;NC;28602;USA;828 328 8330
5260;5010;Claires;QUINCY MALL;3340 QUINCY MALL;QUINCY;IL;62301;USA;217 224 8304
5262;5007;Claires;LOUIS JOLIET;1226 LOUIS JOLIET MALL;JOLIET;IL;60435;USA;815 439 1031
5264;7016;Claires;THE EMPIRE MALL;700 W. EMPIRE;SIOUX FALLS;SD;57106;USA;605 361 3050
5265;6111;Claires;RICHLAND MALL;6001 W. WACO DRIVE, SPC 16-B;WACO;TX;76710;USA;254 776 4518
5266;4203;Claires;LOGAN VALLEY MALL;5580 GOODS LANE SUITE 2149;ALTOONA;PA;16602;USA;814 946 4929
5267;5012;Claires;GREENWOOD PARK MALL;1251 U.S. 31 NORTH;GREENWOOD;IN;46142;USA;317 888 5653
5268;5214;Claires;TOWNE SQUARE MALL;5000 FREDRICKA ST., SUITE 54;OWENSBORO;KY;42301;USA;270 685 3267
5269;5007;Claires;PERU MALL;3940 ROUTE 251  SPC #B16;PERU;IL;61354;USA;815 223 0275
5270;7211;Claires;RUSHMORE MALL;2200 N. MAPLE;RAPID CITY;SD;57701;USA;605 342 1378
5272;4315;Claires;181ST STREET;658 W 181ST STREET;NEW YORK;NY;10033;USA;212 568 6213
5273;5206;Claires;HANES MALL;3320 SILAS CREEK PKWY-STE 220;WINSTON-SALEM;NC;27103;USA;336 768 2104
5275;7017;Claires;SOUTHERN HILLS MALL;4400 SERGEANT RD. SPC # 234;SIOUX CITY;IA;51106;USA;712 276 1246
5276;5208;Claires;GREENWOOD-BOWLING GREEN;2625 SCOTTSVILLE ROAD;BOWLING GREEN;KY;42101;USA;270 842 3794
5278;7014;Claires;DAKOTA SQUARE;2400 TENTH ST. S.W.;MINOT;ND;58701;USA;701 839 5278
5279;4123;Claires;CENTURY III MALL;3075 CLAIRTON RD., RM. 608;WEST MIFFLIN;PA;15123;USA;412 653 6633
5280;7014;Claires;KIRKWOOD MALL;832 KIRKWOOD PLAZA SHOPP. CTR.;BISMARCK;ND;58504;USA;701 258 1752
5281;4121;Claires;THE GREENE;76 CHESTNUT STREET;BEAVERCREEK;OH;45440;USA;937 320 9447
5284;5202;Claires;MAGNOLIA MALL;2701 W. DAVID MCLEOD BLVD.;FLORENCE;SC;29501;USA;843 667 4816
5285;6214;Claires;SOUTH COUNTY;303 SOUTH COUNTY CENTER;ST. LOUIS;MO;63129;USA;314 894 1109
5286;4107;Claires;MERIDIAN MALL;1982.E GRAND RIVER #345;OKEMOS;MI;48864;USA;517 349 5278
5287;6109;Claires;GATEWAY STATION;1169 N BURLESON BLVD STE 105;BURLESON;TX;76028;USA;817 426 0745
5288;4121;Claires;EASTGATE MALL;4601/540 EASTGATE BLVD. #556;CINCINNATI;OH;45245;USA;513 752 6168
5289;5215;Claires;WALNUT SQUARE MALL;816 WALNUT SQUARE BLVD;DALTON;GA;30721;USA;706 226 1508
5291;4203;Claires;LYCOMING MALL;300 LYCOMING MALLCIRCLE STE196;PENNSDALE;PA;17756;USA;570 546 7362
5292;6110;Claires;GOLDEN TRIANGLE MALL;2201 I35E S.    L-16;DENTON;TX;76205;USA;940 566 6012
5293;4122;Claires;COLONY SQUARE MALL;3575 N. MAPLE #68;ZANESVILLE;OH;43701;USA;740 453 5162
5294;4324;Claires;NEWBURGH MALL;1401 ROUTE 300;NEWBURGH;NY;12550;USA;845 564 0190
5295;4108;Claires;THE CROSSROADS-PORTAGE;6650 S. WESTNEDGE, SPACE 130A;PORTAGE;MI;49024;USA;269 323 0188
5296;5214;Claires;UNIVERSITY-CARBONDALE;1237 E. MAIN;CARBONDALE;IL;62901;USA;618 529 3155
5297;6006;Claires;DISTRICT AT TUSTIN LEGACY;2421 PARK AVE SPC# 312;TUSTIN;CA;92782;USA;714 258 8865
5298;5004;Claires;SPRING HILL MALL;1568 SPRING HILL MALL;WEST DUNDEE;IL;60118;USA;847 428 5299
5299;6209;Claires;TOWNE WEST SQUARE;4600 W. KELLOGG ROAD #R12B;WICHITA;KS;67209;USA;316 942 4076
5300;4210;Claires;ARNOT MALL;3300 CHAMBERS ROAD SUITE 5012;HORSEHEADS;NY;14845;USA;607 796 9375
5301;5001;Claires;BAY PARK SQUARE;303 BAY PARK SQUARE SHOP. CNTR;GREEN BAY;WI;54304;USA;920 498 2852
5302;4328;Claires;SPOTSYLVANIA TOWNE CENTRE;110 SPOTSYLVANIA MALL DR.;FREDERICKSBURG;VA;22407;USA;540 786 6138
5303;4327;Claires;HUNTINGTON MALL;642 HUNTINGTON MALL;BARBOURSVILLE;WV;25504;USA;304 733 0736
5304;5009;Claires;CROSSROADS-FORT DOGDE;5TH AVENUE SOUTH;FORT DODGE;IA;50501;USA;515 955 5374
5305;5202;Claires;SUMTER MALL;1057-56 BROAD STREET;SUMTER;SC;29150;USA;803 773 4852
5306;4203;Claires;NITTANY MALL;2901 E. COLLEGE AVE;STATE COLLEGE;PA;16801;USA;814 234 7239
5307;5005;Claires;FORD CITY SHOPPING CENTER;7601 S. CICERO AVENUE;CHICAGO;IL;60652;USA;773 582 5310
5310;4326;Claires;WST-ANNAPOLIS;1665 ANNAPOLIS MALL  #62;ANNAPOLIS;MD;21401;USA;410 266 5305
5311;4125;Claires;EASTWOOD MALL COMPLEX;5555 YOUNGSTWN-WARREN RD #424;NILES;OH;44446;USA;330 652 2230
5312;4218;Claires;WAREHAM CROSSING;2421 CRANBERRY HWY  SPC #414;WAREHAM;MA;02571;USA;508 291 3069
5314;6107;Claires;KILLEEN MALL;2100 S.W.S. YOUNG DR.;KILLEEN;TX;76543;USA;254 699 9695
5315;6214;Claires;WEST PARK MALL;3049 ROUTE K;CAPE GIRARDEAU;MO;63701;USA;573 335 5396
5316;5012;Claires;GLENBROOK SQUARE;4201 COLDWATER RD. SPC #H2;FORT WAYNE;IN;46805;USA;260 484 7467
5318;6106;Claires;VICTORIA MALL;7800 HALLETTSVILLE HGWY.;VICTORIA;TX;77904;USA;361 573 4461
5319;5010;Claires;COLLEGE MALL;2842 E. 3RD STREET # F14;BLOOMINGTON;IN;47401;USA;812 334 2680
5320;6107;Icing;BARTON CREEK SQUARE MALL;2901 CAPITOL OF TEXAS HIGHWAY;AUSTIN;TX;78746;USA;512 327 3141
5322;5002;Claires;REGENCY MALL;5856 DURAND AVENUE #A120;RACINE;WI;53406;USA;262 554 0793
5323;5202;Claires;CITADEL MALL;2070 SAM RITTENBERG BLVD #732;CHARLESTON;SC;29407;USA;843 763 0385
5325;4324;Claires;HUDSON VALLEY MALL;1300 ULSTER AVENUE;KINGSTON;NY;12401;USA;845 336 7925
5326;4107;Claires;LANSING MALL;5222 W. SAGINAW HGWY. #236;LANSING;MI;48917;USA;517 323 4347
5328;5004;Claires;THE PROMENADE BOLINGBROOK;623 EAST BOUGHTON ROAD;BOLINGBROOK;IL;60440;USA;630 739 2042
5330;5214;Claires;EASTLAND-EVANSVILLE;800 N. GREEN RIVER RD. #150;EVANSVILLE;IN;47715;USA;812 473 5330
5331;7211;Claires;CHAPEL HILLS MALL;1710 BRIARGATE BLVD., #333;COLORADO SPRINGS;CO;80920;USA;719 593 9993
5332;4210;Claires;SANGERTOWN SQUARE;8555 SENECA TURNPIKE SPC L04;NEW HARTFORD;NY;13413;USA;315 724 0147
5334;7015;Claires;VALLEY VIEW-LA CROSSE;3800 U.S. HIGHWAY 16 #175;LA CROSSE;WI;54601;USA;608 781 5334
5335;4327;Claires;MEADOWBROOK MALL;2630 MEADOWBROOK ROAD;BRIDGEPORT;WV;26330;USA;304 842 6833
5336;4327;Claires;APPLE BLOSSOM MALL;1850 APPLE BLOSSOM DRIVE #N133;WINCHESTER;VA;22601;USA;540 665 0716
5337;5004;Claires;WOODFIELD MALL;F322 WOODFIELD MALL;SCHAUMBURG;IL;60173;USA;847 240 0050
5340;5001;Claires;WAUSAU CENTER;A-152 WAUSAU CENTER;WAUSAU;WI;54403;USA;715 848 3452
5341;4210;Claires;THE MARKETPLACE;710 MIRACLE MILE DRIVE;ROCHESTER;NY;14623;USA;585 475 1412
5342;4108;Claires;LAKEVIEW SQUARE;5775 BECKLEY RD;BATTLE CREEK;MI;49015;USA;269 979 4244
5343;4107;Claires;SANDUSKY MALL;4314 MILAN ROAD SPC 155;SANDUSKY;OH;44870;USA;419 625 2776
5344;4124;Claires;CARNATION MALL;2500 W.STATE ST.;ALLIANCE;OH;44601;USA;330 823 5344
5345;4327;Claires;CHARLESTON TOWN CTR MALL;1009 CHARLESTON TOWN CENTER;CHARLESTON;WV;25389;USA;304 343 2061
5346;5214;Claires;GREEN TREE MALL;757 E LEWIS & CLARK PKY #220;CLARKSVILLE;IN;47129;USA;812 284 5346
5348;4124;Claires;OHIO VALLEY MALL;67800 MALL ROAD;ST. CLAIRSVILLE;OH;43950;USA;740 695 5348
5349;4306;Claires;WILLOW GROVE PARK;2500 MORELAND RD. SPC # 1116;WILLOW GROVE;PA;19090;USA;215 659 7499
5350;7211;Claires;SOUTHWEST PLAZA;8501 W. BOWLES AVENUE #2042;LITTLETON;CO;80123;USA;303 973 7794
5351;6212;Claires;LEGENDS OUTLETS KANSAS CITY;1843 VILLAGE WEST PARKWAY;KANSAS CITY;KS;66111;USA;913 788 7584
5352;6210;Claires;OAKWOOD MALL-ENID;4125 WEST GARRIOTT RD SP# E-09;ENID;OK;73703;USA;580 233 9821
5353;5214;Claires;FAYETTE MALL;3401 NICHOLASVILLE RD. #G-176;LEXINGTON;KY;40503;USA;859 245 7042
5356;4324;Claires;JEFFERSON VALLEY MALL;650 LEE BLVD;YORKTOWN HGTS.,;NY;10598;USA;914 245 8184
5357;5210;Claires;THE AVENUE WEST COBB;3625 DALLAS HWY SW;MARIETTA;GA;30064;USA;770 420 0556
5358;6104;Claires;ANIMAS VALLEY MALL;4601 E. MAIN STREET #860;FARMINGTON;NM;87402;USA;505 326 1445
5359;5009;Claires;LINDALE MALL;4444 FIRST AVE N.E. SP #0115;CEDAR RAPIDS;IA;52402;USA;319 393 8858
5365;6105;Claires;VALLE VISTA MALL;2000 S EXPRESSWAY 83;HARLINGEN;TX;78552;USA;956 421 3141
5366;6214;Claires;ST. LOUIS P.O.;18527 OUTLETS BLVD SPC739;CHESTERFIELD;MO;63005;USA;636 778 1020
5368;5215;Claires;COL.PINN @ TURKEY CREEK;11371 PARKSIDE DRIVE;KNOXVILLE;TN;37934;USA;865 671 6250
5369;5303;Claires;MIAMI INTERNATIONAL;1455 NORTHWEST 107TH AVENUE;MIAMI;FL;33172;USA;305 592 1232
5370;5309;Claires;ORANGE PARK MALL;1910 WELLS ROAD;ORANGE PARK;FL;32073;USA;904 264 0392
5371;5215;Claires;KNOXVILLE CENTER;3001 KNOXVILLE CENTER RD #1250;KNOXVILLE;TN;37924;USA;865 544 1535
5372;4315;Claires;THE SHOPS AT ATLAS PARK;8040 COOPER AVENUE   SPC6110;GLENDALE;NY;11385;USA;718 416 1270
5373;5311;Claires;GULFPORT PREMIUM OUTLETS;10130 FACTORY SHOPS BLVD.;GULFPORT;MS;39503;USA;228 864 4556
5374;7210;Claires;GREELEY MALL;2072 GREELEY AVENUE SPACE 50A;GREELEY;CO;80631;USA;970 356 0303
5376;7211;Claires;THE CITADEL;750 CITADEL DRIVE EAST;COLORADO SPRINGS;CO;80909;USA;719 596 5376
5377;5001;Claires;FOX RIVER MALL;4301 WEST WISCONSIN AVE #506;APPLETON;WI;54913;USA;920 731 4386
5383;7015;Claires;KANDI MALL;1605 S 1ST. STREET #C-14;WILLMAR;MN;56201;USA;320 235 6752
5384;5206;Claires;PIEDMONT MALL;325 PIEDMONT DRIVE;DANVILLE;VA;24540;USA;434 799 8190
5385;6212;Claires;CAPITAL MALL;3600 COUNTRY CLUB DR. #503;JEFFERSON CITY;MO;65101;USA;573 893 3181
5386;6111;Claires;MUSIC CITY MALL;4101 E 42 ND STREET;ODESSA;TX;79762;USA;432 366 2658
5387;6004;Claires;GROSSMONT SHOPPING CENTER;5500 GROSSMONT CENTER DR SP151;LA MESA;CA;91942;USA;619 698 0425
5388;5202;Claires;COASTAL GRD MYRTLE BEACH;2000 COASTAL GRAND CIRCLE;MYRTLE BEACH;SC;29577;USA;843 839 3283
5389;5207;Claires;MORGANTON HEIGHTS;E156 MORGANTON HEIGHTS BLVD;MORGANTON;NC;28655;USA;828 430 6888
5390;6207;Claires;OUTLETS OF MISSISSIPPI;200 BASS PRO DRIVE  SPC 445;PEARL;MS;39208;USA;601 939 0030
5391;5205;Claires;ANDERSON MALL;3101 N. MAIN, N-4;ANDERSON;SC;29621;USA;864 226 8019
5392;6109;Claires;MALL OF ABILENE;4310 BUFFALO GAP RD.;ABILENE;TX;79606;USA;325 691 1230
5395;6206;Claires;PIERRE BOSSIER MALL;2950 E. TEXAS ST.      #306;BOSSIER CITY;LA;71111;USA;318 747 3134
5396;5309;Claires;GLYNN PLACE MALL;100 MALL BLVD., SPACE A-7;BRUNSWICK;GA;31520;USA;912 267 0723
5399;6002;Claires;SIMI VALLEY TOWN CENTER;1555 SIMI TOWN CENTER;SIMI VALLEY;CA;93065;USA;805 584 6339
5400;6111;Claires;MIDLAND PARK MALL;4511 N MIDKIFF DRIVE # B-06A;MIDLAND;TX;79705;USA;432 697 5591
5401;6105;Claires;LA PLAZA MALL;2200 SOUTH 10TH STREET;MCALLEN;TX;78503;USA;956 686 4586
5402;6113;Claires;DEERBROOK MALL;20131 HIGHWAY 59 NORTH SP#1314;HUMBLE;TX;77338;USA;281 540 1746
5403;5009;Claires;NORTH GRAND MALL;2801 GRAND AVE;AMES;IA;50010;USA;515 232 2490
5404;6201;Claires;HOT SPRINGS MALL;4501 CENTRAL AVENUE  #B-9;HOT SPRINGS;AR;71913;USA;501 525 9041
5405;4203;Claires;NORTH HANOVER;1155 CARLISLE STREET;HANOVER;PA;17331;USA;717 632 2427
5406;4123;Claires;UNIONTOWN MALL;1150 MALL RUN ROAD;UNIONTOWN;PA;15401;USA;724 439 6308
5408;5309;Claires;VALDOSTA MALL;1700 NORMAN DRIVE;VALDOSTA;GA;31601;USA;229 242 3029
5409;4203;Claires;CAPITAL CITY MALL;3572 CAPITAL CITY MALL DR.;CAMP HILL;PA;17011;USA;717 975 9864
5411;6011;Claires;FLAGSTAFF MALL;4650 N.HIGHWAY 89A  #B6;FLAGSTAFF;AZ;86001;USA;928 526 5178
5412;5210;Claires;PHIPPS PLAZA;3500 PEACHTREE RD NE SPC2017C;ATLANTA;GA;30326;USA;404 841 0039
5414;6003;Claires;LAS VEGAS PREMIUM OUTLETS-NTH;855 S. GRAND CENTRAL PKWY;LAS VEGAS;NV;89106;USA;702 383 6002
5415;5307;Claires;PADDOCK MALL;3100 COLLEGE ROAD;OCALA;FL;34474;USA;352 237 4787
5416;5009;Claires;MERLE HAY MALL;3800 MERLE HAY RD. STE 416;DES MOINES;IA;50310;USA;515 276 7074
5417;5009;Claires;SOUTHBRIDGE MALL;100 SOUTH FEDERAL AVENUE #206;MASON CITY;IA;50401;USA;641 424 6768
5418;6012;Claires;THE TUCSON MALL;4500 N.ORACLE RD SUITE 170;TUCSON;AZ;85705;USA;520 888 5237
5419;5009;Claires;WESTLAND MALL-BURLINGTON;550 SOUTH GEAR AVENUE STE #59;W BURLINGTON;IA;52655;USA;319 753 5546
5420;5201;Claires;MAYFAIRE TOWN CENTER;6859 MAIN STREET;WILMINGTON;NC;28405;USA;910 256 2847
5421;4125;Claires;CLEARVIEW MALL;101 CLEARVIEW CIRCLE # 227;BUTLER;PA;16001;USA;724 285 8257
5422;4123;Claires;CRANBERRY SQUARE;RTS. 322 AND 257;CRANBERRY;PA;16319;USA;814 676 0727
5423;5005;Claires;SOUTHLAKE;2035 SOUTHLAKE MALL;MERRILLVILLE;IN;46410;USA;219 769 7153
5424;5001;Claires;EAST TOWNE MALL;70 EAST TOWNE MALL;MADISON;WI;53704;USA;608 244 2066
5425;5310;Claires;VILLAGE MALL;1627-53 OPELIKA ROAD SPC #51;AUBURN;AL;36830;USA;334 887 7138
5426;6106;Claires;SOUTH PARK MALL;2310 S.W. MILITARY DR., #212;SAN ANTONIO;TX;78224;USA;210 921 2810
5427;6011;Claires;DESERT SKY MALL;7611 W THOMAS ROAD #C-6;PHOENIX;AZ;85033;USA;623 849 8577
5428;5305;Claires;UNIVERSITY TOWN CENTER;140 UNIVERSITY TOWN CTR DR 295;SARASOTA;FL;34243;USA;941 866 6327
5430;6104;Claires;SANTA FE PLACE;4250 CERRILLO RD. SPC # 1110;SANTA FE;NM;87505;USA;505 473 1488
5431;4327;Claires;VALLEY VIEW-ROANOKE;4802 VALLEY VIEW BLVD N.W.;ROANOKE;VA;24012;USA;540 366 8522
5432;7211;Claires;THE PROM SHOPS @ BRIARGATE;1645 BRIARGATE PARKWAY;COLORADO SPRINGS;CO;80920;USA;719 548 8033
5434;5311;Claires;PANAMA CITY MALL;2126 MARTIN LUTHER KING JR.BLV;PANAMA CITY;FL;32405;USA;850 763 2190
5435;4125;Claires;MCKINLEY MALL;234 MCKINLEY MALL;BLASDELL;NY;14219;USA;716 828 0658
5436;6206;Claires;PECANLAND MALL;4700 MILLHAVEN ROAD;MONROE;LA;71203;USA;318 387 9439
5437;7108;Claires;MERCED MALL;660 MERCED MALL;MERCED;CA;95348;USA;209 384 7899
5438;4326;Claires;WHITE MARSH;8200 PERRY HALL BLVD.;BALTIMORE;MD;21236;USA;410 931 6975
5439;5311;Claires;WIREGRASS COMMONS MALL;900 COMMONS DRIVE SUITE 918;DOTHAN;AL;36303;USA;334 794 8780
5442;5310;Claires;GADSDEN MALL;1001 RAINBOW DR.,STORE # 62;GADSDEN;AL;35901;USA;256 547 5252
5444;5005;Claires;CHICAGO RIDGE MALL;641 CHICAGO RIDGE MALL #K-16;CHICAGO RIDGE;IL;60415;USA;708 423 6770
5446;5004;Claires;216 MAIN ST - NAPERVILLE;216 MAIN STREET;NAPERVILLE;IL;60540;USA;630 548 1454
5447;4327;Claires;COUNTRY CLUB MALL;WINCHESTER & VOCKE RD.  #864;LAVALE;MD;21502;USA;301 729 1376
5448;4217;Claires;HAMPSHIRE MALL;367 RUSSEL STREET;HADLEY;MA;01035;USA;413 586 5080
5449;5215;Claires;NORTHGATE-CHATTANOOGA;271 NORTHGATE MALL;CHATTANOOGA;TN;37415;USA;423 870 3526
5450;7209;Claires;MESA MALL;2424 U S HIGHWAY 6 & 50;GRAND JUNCTION;CO;81505;USA;970 243 5450
5451;4327;Claires;VALLEY MALL-HARRISONBURG;1925 E. MARKET STREET STE 604;HARRISONBURG;VA;22801;USA;540 433 8452
5452;7210;Claires;GRAND TETON MALL;2300 E 17TH STREET, SPACE 120;IDAHO FALLS;ID;83404;USA;208 524 6026
5453;7210;Claires;EASTRIDGE-CASPER;601 SE WYOMING BLVD SPACE 1302;CASPER;WY;82609;USA;307 266 6279
5454;6004;Claires;GRAN PLAZA OUTLETS;888 WEST SECOND ST SPC I-210;CALEXICO;CA;92231;USA;760 768 2293
5455;4210;Claires;OAKDALE MALL;601-635 HARRY L DR #31;JOHNSON CITY;NY;13790;USA;607 770 9229
5456;6106;Claires;THE SHOPS AT LA CANTERA;5009 LA CANTERA PKWY #9895;SAN ANTONIO;TX;78256;USA;210 694 4649
5457;5202;Claires;NORTHWOODS-CHARLESTON;2150 NORTHWOODS BLVD SPC J720;N CHARLESTON;SC;29406;USA;843 553 1213
5458;7017;Claires;NEBRASKA CROSSING OUTLETS;21355 NEB.CROSSING DR STE F123;GRETNA;NE;68028;USA;402 332 5176
5459;4121;Claires;FLORENCE MALL;1160 FLORENCE MALL;FLORENCE;KY;41042;USA;859 371 7759
5460;5207;Claires;STONECREST AT PIPER GLEN;7918 REA ROAD;CHARLOTTE;NC;28277;USA;704 543 9634
5461;6109;Claires;SUNSET MALL;1182 SUNSET MALL    #1334;SAN ANGELO;TX;76904;USA;325 942 1990
5462;6206;Claires;LUFKIN MALL;4600 SOUTH MEDFORD;LUFKIN;TX;75901;USA;936 634 6993
5464;7210;Claires;PINE RIDGE MALL;4155 YELLOWSTONE HIGHWAY #143;CHUBBUCK;ID;83204;USA;208 237 5664
5466;5310;Claires;RIVERCHASE GALLERIA;2000 RIVERCHASE GALLERIA #204;HOOVER;AL;35244;USA;205 987 8566
5467;6004;Claires;WST-PLAZA BONITA;3030 PLAZA BONITA ROAD;NATIONAL CITY;CA;91950;USA;619 470 8788
5468;6004;Claires;MISSION VALLEY CENTER;1640 CAMINO DEL RIO NORTH;SAN DIEGO;CA;92108;USA;619 543 9958
5469;6207;Claires;THE O.C. RIVERWALK      #221;500 PORT OF NEW ORLEANS PLAC;NEW ORLEANS;LA;70130;USA;504 309 7390
5470;5005;Claires;RIVER OAKS S.C.;207 RIVER OAKS;CALUMET CITY;IL;60409;USA;708 868 4750
5472;7016;Claires;PARAGON OUTLETS TWIN CITIES;3925 EAGAN OUTLETS PKWY #880;EAGAN;MN;55122;USA;651 686 0321
5474;5009;Claires;COLLEGE SQ - CEDAR FALLS;1 COLLEGE SQUARE MALL,STE1260;CEDAR FALLS;IA;50613;USA;319 277 7376
5476;5304;Claires;PEMBROKE LAKES MALL;11401 PINES BLVD #238;PEMBROKE PINES;FL;33026;USA;954 438 0433
5477;5214;Claires;TOWNE MALL;1704 N. DIXIE HGWY;ELIZABETHTOWN;KY;42701;USA;270 737 0171
5478;6107;Claires;POST OAK MALL;1500 HARVEY ROAD;COLLEGE STATION;TX;77840;USA;979 764 1810
5479;7106;Claires;SOLANO;1350 TRAVIS BLVD., SUITE 1508;FAIRFIELD;CA;94533;USA;707 429 1730
5480;5311;Claires;CORDOVA MALL;5100 N. NINTH AVENUE, SP. D433;PENSACOLA;FL;32504;USA;850 477 5578
5484;6104;Claires;SOUTH PLAINS MALL;6002 SLIDE ROAD, SPACE # G23;LUBBOCK;TX;79414;USA;806 799 5661
5486;5311;Claires;SANTA ROSA MALL;300 MARY ESTHER BLVD STE 45;MARY ESTHER;FL;32569;USA;850 243 9658
5488;5203;Claires;TANGER OUTLETS SAVANNAH;200 TANGER OUTLET BLVD;SAVANNAH;GA;31322;USA;912 450 0330
5489;4123;Claires;WASHINGTON CROWN CENTER;1500 W. CHESTNUT;WASHINGTON;PA;15301;USA;724 222 8350
5490;6205;Claires;PASADENA TOWN SQUARE;301 PASADENA TOWN SQUARE;PASADENA;TX;77506;USA;713 473 4640
5491;5310;Claires;UNIVERSITY-TUSCALOOSA;1701 MC FARLAND BLVD. EAST;TUSCALOOSA;AL;35404;USA;205 556 1216
5492;4315;Claires;2267 BROADWAY;2267 BROADWAY;MANHATTAN;NY;10024;USA;212 877 2655
5495;5010;Claires;VILLAGE MALL;2917 N. VERMILION, RM. C-54;DANVILLE;IL;61832;USA;217 442 3959
5497;5205;Claires;GEORGIA SQUARE MALL;3700 ATLANTA HIGHWAY, SP. 115;ATHENS;GA;30606;USA;706 548 8439
5498;6211;Claires;TULSA PROMENADE;4107 SOUTH YALE  SUITE #200;TULSA;OK;74135;USA;918 663 0389
5502;5206;Claires;RANDOLPH MALL;345 RANDOLPH MALLL;ASHEBORO;NC;27203;USA;336 629 7994
5503;4125;Claires;CHAUTAUQUA MALL;318 EAST FAIRMONT AVE. #628;LAKEWOOD;NY;14750;USA;716 763 1711
5504;4213;Claires;CLIFTON PARK CENTER;22 CLIFTON COUNTRY RD. STE 26;CLIFTON PARK;NY;12065;USA;518 371 3010
5505;4212;Claires;DANBURY FAIR MALL;7 BACKUS AVE., SP. 137;DANBURY;CT;06810;USA;203 798 9569
5506;5205;Claires;THE SHOPPES AT WEBB GIN;1350 SCENIC HWY S.W. SPC #408;SNELLVILLE;GA;30078;USA;770 978 9067
5509;5012;Claires;NORTHTOWNE MALL;1500 N. CLINTON ST. UNIT #153;DEFIANCE;OH;43512;USA;419 782 8160
5510;6205;Claires;PARKDALE MALL;6155 EASTEX FREEWAY STE 726;BEAUMONT;TX;77706;USA;409 899 5510
5511;4326;Claires;DOVER MALL& COMMOMS;4023 DOVER MALL;DOVER;DE;19901;USA;302 736 0818
5512;5009;Claires;CROSSROADS-WATERLOO;2060 CROSSROADS BLVD SP# 210;WATERLOO;IA;50702;USA;319 232 6721
5513;6212;Claires;ZONA ROSA;7206 NW 86 TH;KANSAS CITY;MO;64153;USA;816 584 2845
5514;5207;Claires;WST-EASTRIDGE;246 N. NEW HOPE ROAD, G-241A;GASTONIA;NC;28054;USA;704 865 0111
5516;5310;Claires;PROPST PROMENADE;300 COLONIAL PROMENADE PKWY;ALABASTER;AL;35007;USA;205 664 0292
5520;7015;Claires;THE SHOPPES @ ARBOR LAKE;12473 ELM CREEK BLVD;MAPLE GROVE;MN;55369;USA;763 420 5876
5522;7108;Claires;LAGUNA GATEWAY S.C.;9170 W STOCKTON BLVD;ELK GROVE;CA;95758;USA;916 478 2754
5524;5001;Claires;FOREST MALL;835 W. JOHNSON STREET, SP. H-6;FOND DU LAC;WI;54935;USA;920 922 4403
5525;5012;Claires;MUNCIE MALL;3501 N. GRANVILLE AVE.;MUNCIE;IN;47303;USA;765 289 4229
5526;5303;Claires;BAYSIDE MARKETPLACE;401 BISCAYNE BLVD & NE 4TH ST;MIAMI;FL;33132;USA;786 316 0197
5527;5308;Claires;THE FLORIDA MALL;8001 S. ORANGE BLOSSOM TR #844;ORLANDO;FL;32809;USA;407 857 5843
5528;5214;Claires;OUTLET SHOPS OF BLUEGRASS;1155 BUCK CREED ROAD  #E512;SIMPSONVILLE;KY;40067;USA;502 722 5144
5531;7108;Claires;MONTE VISTA CROSSINGS;3017 COUNTRY SIDE DRIVE;TURLOCK;CA;95380;USA;209 667 8318
5532;7206;Claires;HOLIDAY VILLAGE MALL;1753 US HWY 2 WEST, SPACE 21B;HAVRE;MT;59501;USA;406 265 4025
5533;6004;Claires;WST-NORTH COUNTY;200 E. VIA RANCHO PARKWAY #217;ESCONDIDO;CA;92025;USA;760 745 6569
5534;4306;Claires;CHERRY HILL MALL;2000 ROUTE 38 SPC #1430;CHERRY HILL;NJ;08002;USA;856 486 1134
5538;6205;Claires;SOUTHLAND MALL-HOUMA;5953 WEST PARK AVENUE;HOUMA;LA;70364;USA;985 876 6462
5543;4324;Claires;CROSS COUNTY S.C.;1G XAVIER DRIVE;YONKERS;NY;10704;USA;914 375 3452
5544;5215;Claires;FOOTHILLS-MARYVILLE;129 FOOTHILLS MALL;MARYVILLE;TN;37801;USA;865 977 6300
5545;5207;Claires;MONROE MALL;2115-109  W. ROOSEVELT BLVD;MONROE;NC;28110;USA;704 283 7032
5546;6206;Claires;ALEXANDRIA MALL;3437 MASONIC DRIVE  SPACE 1486;ALEXANDRIA;LA;71301;USA;318 487 9432
5547;4210;Claires;SALMON RUN MALL;21182 SALEM RUN LOOP W.;WATERTOWN;NY;13601;USA;315 788 8665
5552;7015;Claires;OAKWOOD MALL-EAU CLAIRE;4800 GOLF ROAD SP-424;EAU CLAIRE;WI;54701;USA;715 833 1646
5554;6112;Claires;LACENTERRA AT CINCO RANCH;23501 CINCO RANCH BLVD #E110;KATY;TX;77494;USA;281 574 1663
5557;7212;Claires;ROGUE VALLEY MALL;1600 N. RIVERSIDE, SP. 1106;MEDFORD;OR;97501;USA;541 779 9508
5558;7210;Claires;MAGIC VALLEY MALL;1485 POLELINE RD. E, SPACE 193;TWIN FALLS;ID;83301;USA;208 734 3427
5560;5201;Claires;GREENBRIER MALL;1401 GREENBRIER PKWY, SP.2206;CHESAPEAKE;VA;23320;USA;757 420 5122
5562;6207;Claires;FREMAUX TOWN CENTER;736 TOWN CENTER PKWY SPC C600;SLIDELL;LA;70458;USA;985 690 6069
5564;7208;Claires;SOUTH TOWNE CENTER;10450 S. STATE ST. SPC #1001;SANDY;UT;84070;USA;801 571 6927
5568;7208;Claires;CACHE VALLEY MALL;1300 NORTH MAIN STREET;LOGAN;UT;84341;USA;435 755 7154
5570;4122;Claires;UPPER VALLEY MALL;1475 UPPER VALLEY PIKE, RM 834;SPRINGFIELD;OH;45504;USA;937 323 6837
5571;5208;Claires;GOVERNOR'S SQ CLARKSVILLE;2801 WILMA RUDOLPH BLVD;CLARKSVILLE;TN;37040;USA;931 645 0374
5572;4122;Claires;INDIAN MOUND MALL;771 S. 30TH ST., SPACE 529;HEATH;OH;43056;USA;740 522 5250
5573;6003;Claires;THE MALL OF VICTOR VALLEY;14400 BEAR VALLEY RD. STE 345;VICTORVILLE;CA;92392;USA;760 241 2227
5574;5215;Claires;HAMILTON PLACE;2100 HAMILTON PLACE BLVD;CHATTANOOGA;TN;37421;USA;423 899 7437
5575;6105;Claires;MALL DEL NORTE;5300 SAN DARIO AVE #142;LAREDO;TX;78041;USA;956 727 5734
5577;6214;Claires;SAINT LOUIS GALLERIA;2073 SAINT LOUIS GALLERIA;ST. LOUIS;MO;63117;USA;314 863 3580
5580;4316;Claires;MAYFAIR SHOPPING CENTER;58 MAY FAIR SHOPPING CENTER;COMMACK;NY;11725;USA;631 543 1892
5581;4328;Claires;PATRICK HENRY MALL;12300 JEFFERSON AVENUE;NEWPORT NEWS;VA;23602;USA;757 249 2818
5582;6201;Claires;MCCAIN PLAZA;3929 MC CAIN BLVD #H-03;NORTH LITTLE ROCK;AR;72116;USA;501 771 4387
5583;6105;Claires;LA PALMERA;5488 S PADRE ISLAND DR #2200;CORPUS CHRISTI;TX;78411;USA;361 906 0860
5584;6104;Claires;ROSWELL MALL;4501 N. MAIN, SP. 14;ROSWELL;NM;88201;USA;575 624 1732
5586;7110;Claires;NEWPARK MALL;1211 NEWPARK MALL;NEWARK;CA;94560;USA;510 791 2343
5587;5012;Claires;CLAY TERRACE;14550 CLAY TERRACE;CARMEL;IN;46032;USA;317 569 0127
5588;6008;Claires;DEL AMO FASHION CENTER;21712 HAWTHORNE BLVD SPC #299;TORRANCE;CA;90503;USA;310 370 7752
5589;7017;Claires;SHADOW LAKE TOWNE CENTER;7775 OLSON DRIVE SPC# 117;PAPILLION;NE;68046;USA;402 592 1768
5590;6012;Claires;PARK PLACE-TUCSON;5870 E. BROADWAY, SPC505;TUCSON;AZ;85711;USA;520 748 1517
5591;4204;Claires;SOUTH MALL;3300 LEHIGH STREET, SP. 712;ALLENTOWN;PA;18103;USA;610 797 1888
5594;5012;Claires;MOUNDS MALL;2109 STATE RD. 9 SOUTH  SP-G03;ANDERSON;IN;46016;USA;765 642 7944
5595;5311;Claires;DESTIN COMMONS;4315 LEGENDARY DRIVE;DESTIN;FL;32541;USA;850 650 5099
5596;4317;Claires;TANGER O.C. ATL CITY THE WALK;2030 BALTIC  AVE;ATLANTIC CITY;NJ;08401;USA;609 340 8544
5597;5305;Claires;GULF COAST TOWN CENTER;9918 GOLF COAST MAIN STREET;FORT MYERS;FL;33913;USA;239 267 3785
5600;6201;Claires;THE MALL AT TURTLE CREEK;3000 EAST HIGHLAND DRIVE;JONESBORO;AR;72401;USA;870 336 2630
5602;5307;Claires;WST- COUNTRYSIDE;27001 U.S. 19 NORTH STE. 1027;CLEARWATER;FL;33761;USA;727 791 6016
5604;6109;Claires;MANSFIELD TOWN CROSSING;1841 HIGHWAY 287 N. SUITE 200;MANSFIELD;TX;76063;USA;682 518 6096
5605;5309;Claires;THE MALL AT WAYCROSS;2215 MEMORIAL DRIVE #6A;WAYCROSS;GA;31501;USA;912 285 5472
5608;6209;Claires;NORTHPARK MALL-JOPLIN;101 NORTH RANGELINE, #234;JOPLIN;MO;64801;USA;417 623 4442
5609;6008;Claires;THE SHOPS AT MONTEBELLO;2039 MONTEBELLO TOWN CENTER;MONTEBELLO;CA;90640;USA;323 722 2434
5611;6011;Claires;YUMA PALMS;1313 SOUTH YUMA PALMS PKWY #C3;YUMA;AZ;85364;USA;928 373 9693
5614;5002;Claires;WST-HAWTHORN;526 HAWTHORN CENTER, SP. 528;VERNON HILLS;IL;60061;USA;847 362 6336
5615;4212;Claires;WST-TRUMBULL;5065 MAIN STREET, SP. 1125;TRUMBULL;CT;06611;USA;203 374 1291
5616;6107;Claires;TEMPLE MALL;3111 S. 31ST STREET SPC#3183;TEMPLE;TX;76502;USA;254 778 0380
5618;6209;Claires;FLINTHILLS MALL;1676 INDUSTRIAL RD., SPACE C-5;EMPORIA;KS;66801;USA;620 343 7734
5619;6210;Claires;QUAIL SPRINGS MALL;2501 W. MEMORIAL RD., SP. 254;OKLAHOMA CITY;OK;73134;USA;405 751 4731
5620;7110;Claires;NORTHRIDGE MALL-SALINAS;512 NORTHRIDGE MALL  D12;SALINAS;CA;93906;USA;831 449 5615
5621;6209;Claires;CENTRAL MALL-SALINA;2259 SOUTH NINTH STREET;SALINA;KS;67401;USA;785 823 1186
5622;7102;Claires;FACTORIA SQUARE;3933 FACTORIA MALL, S.E. #D2;BELLEVUE;WA;98006;USA;425 747 4942
5623;7110;Claires;DEL MONTE CENTER;1460 DEL MONTE CENTER;MONTEREY;CA;93940;USA;831 375 7052
5624;7111;Claires;BAYSHORE MALL;3300 BROADWAY BOX 43;EUREKA;CA;95501;USA;707 443 8891
5625;4122;Claires;RIVER VALLEY MALL;1635 RIVER VALLEY CIRCLE SOUTH;LANCASTER;OH;43130;USA;740 654 0742
5627;4328;Claires;CHESTERFIELD TOWNE CENTER;11500 MIDLOTHIAN TURN PIKE;RICHMOND;VA;23235;USA;804 379 8906
5628;4105;Claires;LAKESIDE MALL;14600 LAKESIDE CIRCLE, #1079;STERLING HEIGHTS;MI;48313;USA;586 247 2270
5629;4326;Claires;MARLEY STATION;7900 GOVERNOR RITCHIE HWY#E155;GLEN BURNIE;MD;21061;USA;410 768 9044
5630;4327;Claires;VALLEY MALL - HAGERSTOWN;HALFWAY BLVD.-46 VALLEY MALL;HAGERSTOWN;MD;21740;USA;301 582 2956
5633;7212;Claires;SALEM CENTRE;401 CENTER ST N.E.;SALEM;OR;97301-3780;USA;503 370 7845
5636;6105;Claires;LAS PALMAS MARKETPLACE;11917 GATEWAY WEST;EL PASO;TX;79936;USA;915 598 5750
5639;5309;Claires;ST. JOHNS TOWN CENTER;4712 RIVER CITY DRIVE;JACKSONVILLE;FL;32246;USA;904 564 1839
5641;6209;Claires;MANHATTAN TOWN CENTER;100 MANHATTAN TOWN CTR. #130;MANHATTAN;KS;66502;USA;785 776 6993
5642;4327;Claires;GRAND CENTRAL MALL;#282 GRAND CENTRAL;VIENNA;WV;26105;USA;304 485 8320
5643;5206;Claires;FOUR SEASONS TOWN CENTRE;322 FOUR SEASONS MALL;GREENSBORO;NC;27407;USA;336 292 5093
5644;4327;Claires;NEW RIVER VALLEY MALL;837 NEW RIVER ROAD;CHRISTIANSBURG;VA;24073;USA;540 381 0260
5645;4210;Claires;GREAT NORTHERN MALL;4081 ROUTE 31;CLAY;NY;13041;USA;315 652 0336
5646;7017;Claires;GATEWAY MALL;6100 O STREET SPACE #295;LINCOLN;NE;68505;USA;402 467 3357
5647;7102;Claires;THREE RIVERS MALL;351 THREE RIVERS DR #269;KELSO;WA;98626;USA;360 636 3047
5649;6109;Claires;THE PARKS @ ARLINGTON;3811 S. COOPER ST. SUITE 2022;ARLINGTON;TX;76015;USA;817 472 5910
5650;7015;Claires;MILLER HILL MALL;1600 MILLER TRUNK HWY SPC#E07;DULUTH;MN;55811;USA;218 727 6378
5651;4317;Claires;HAMILTON MALL;4403 BLACK HORSE PIKE #1063;MAYS LANDING;NJ;08330;USA;609 645 9337
5653;5309;Claires;THE OAKS-GAINESVILLE;6393 NEWBERRY ROAD;GAINESVILLE;FL;32605;USA;352 331 2169
5654;6113;Claires;GULFGATE CENTER;3111  WOODRIDGE SUITE 555;HOUSTON;TX;77087;USA;713 643 6441
5655;4213;Claires;AVIATION MALL;578 AVIATION RD SPC C-29;QUEENSBURY;NY;12804;USA;518 798 9957
5657;4317;Claires;BROOKE 35 PLAZA;2150 HWY 35;SEA GIRT;NJ;08750;USA;732 974 8803
5658;5305;Claires;WST-SARASOTA SQUARE;8201 S. TAMIAMI TRAIL SPC #A23;SARASOTA;FL;34238;USA;941 924 6322
5659;4213;Claires;ROTTERDAM SQUARE MALL;93 W. CAMPBELL ROAD SPC G-112;SCHENECTADY;NY;12306;USA;518 374 9899
5663;6109;Claires;RIDGMAR;1778 GREEN OAKS ROAD;FORT WORTH;TX;76116;USA;817 731 3360
5665;4218;Claires;ARSENAL MALL;485 ARSENAL STREET, SP. C-18;WATERTOWN;MA;02472;USA;617 926 9550
5666;6107;Claires;WOLF RANCH;1013 WEST UNIVERSITY DR. #175;GEORGETOWN;TX;78628;USA;512 868 5997
5667;6113;Claires;SILVERLAKE VILLAGE;10414 W BROADWAY;PEARLAND;TX;77584;USA;713 436 6605
5671;5311;Claires;BEL AIR MALL;3464 BEL AIR MALL;MOBILE;AL;36606;USA;251 478 3162
5674;5311;Claires;PEACHTREE MALL;3507 MANCHESTER EXPRESSWAY;COLUMBUS;GA;31909;USA;706 324 2039
5677;6210;Claires;SHAWNEE MALL;4901 KICKAPOO ST., SPACE 1512;SHAWNEE;OK;74801;USA;405 273 2749
5679;4217;Claires;THE MALL AT WHITNEY FIELD;100 COMMERCIAL ROAD SPC 44;LEOMINSTER;MA;01453;USA;978 840 4020
5680;5215;Claires;TANGER O.C. SEVIERVILLE;1645 PARKWAY;SEVIERVILLE;TN;37862;USA;865 429 5091
5681;4123;Claires;INDIANA MALL-CLAIRES;2334 OAKLAND AVE SUITE 27;INDIANA;PA;15701;USA;724 463 3325
5682;4219;Claires;LIBERTY TREE MALL;100 INDEPENDENCE WAY;DANVERS;MA;01923;USA;978 774 5434
5683;6211;Claires;ARROWHEAD MALL;501 N. MAIN  #61;MUSKOGEE;OK;74401;USA;918 682 4502
5684;4213;Claires;UNIVERSITY MALL;155 DORSET STREET SPC# D11;SO. BURLINGTON;VT;05403;USA;802 862 3344
5685;5207;Claires;CLEVELAND MALL;2001 E DIXON BLVD  .;SHELBY;NC;28150;USA;704 481 1836
5686;6106;Claires;RIVER CENTER;849 E. COMMERCE ST. SUITE 261;SAN ANTONIO;TX;78205;USA;210 224 1983
5688;5206;Claires;PINE CREST PLAZA;23 PINE CREST PLAZA;SOUTHERN PINES;NC;28387;USA;910 692 4043
5690;5215;Claires;COLLEGE SQ - MORRISTOWN;2550 EAST MORRIS BLVD., #29;MORRISTOWN;TN;37813;USA;423 581 9365
5691;4327;Claires;MERCER MALL;261 MERCER MALL RD STE 145;BLUEFIELD;WV;24701;USA;304 325 3275
5692;5307;Claires;GULFVIEW SQUARE;9409 U.S. HWY. 19 SUITE 265;PORT RICHEY;FL;34668;USA;727 842 9198
5693;4121;Claires;KENWOOD TOWNE CENTRE;7875 MONTGOMERY RD. # L-133;CINCINNATI;OH;45236;USA;513 984 9827
5694;6206;Claires;BROADWAY SQUARE MALL;4601 S. BROADWAY;TYLER;TX;75703;USA;903 581 5277
5696;7103;Claires;STREETS OF TANASBOURNE;2285 NW ALLIE AVE;HILLSBORO;OR;97124;USA;503 645 5259
5698;5201;Claires;JACKSONVILLE MALL;304 JACKSONVILLE MALL SPC #D1;JACKSONVILLE;NC;28546;USA;910 353 0834
5700;5202;Claires;TANGER O.C. CHARLESTON;4840 TANGER OUTLET BLVD;N. CHARLESTON;SC;29418;USA;843 746 8095
5701;6112;Claires;BRAZOS MALL;100 W. HWY. 332 SUITE 1286;LAKE JACKSON;TX;77566;USA;979 299 1557
5702;6209;Claires;WEST RIDGE MALL;1801 S.W. WANAMAKER RD., E-7;TOPEKA;KS;66604;USA;785 273 7421
5703;7211;Claires;PUEBLO MALL;3535 DILLON DR.;PUEBLO;CO;81008;USA;719 545 3634
5704;7102;Claires;CAPITAL MALL;625 BLACK LAKE BLVD SUITE 261;OLYMPIA;WA;98502;USA;360 352 5881
5705;7206;Claires;RIMROCK MALL;300 SOUTH 24TH ST. WEST #A11;BILLINGS;MT;59102;USA;406 656 6773
5706;4203;Claires;SUSQUEHANNA VALLEY MALL;1 SUSQUEHANNA VALLEY MALL #H6;SELINGSGROVE;PA;17870;USA;570 374 5381
5707;4204;Claires;BERKSHIRE-WYOMISSING;1665 BERN RD.;WYOMISSING;PA;19610;USA;610 373 7661
5708;5208;Claires;HALLCREST PLAZA;445 HWY 46 SOUTH;DICKSON;TN;37055;USA;615 740 7917
5711;6105;Claires;TRENTON CROSSING;7600 N 10TH STREET;MCALLEN;TX;78504;USA;956 682 2564
5712;5206;Claires;CARY TOWNE CENTER;1105 WALNUT ST. #G 130;CARY;NC;27511;USA;919 460 1055
5715;6105;Claires;RIO GRANDE VALLEY P.O.;5001 EAST US EXPRESSWAY 83;MERCEDES;TX;78570;USA;956 514 1413
5719;5215;Claires;THE MALL @ JOHNSON CITY;2011 N. ROAN ST. SUITE #18;JOHNSON CITY;TN;37601;USA;423 282 0881
5721;4121;Claires;NORTHGATE MALL CINCINNATTI;9501 COLERAIN AVE SPC 214;CINCINNATI;OH;45251;USA;513 385 6817
5722;7106;Claires;CHICO MALL;1950 E. 20TH ST., SPACE C-315;CHICO;CA;95928;USA;530 891 8733
5726;6110;Claires;COLLIN CREEK;811 N. CENTRAL EXPSY. SP. 2065;PLANO;TX;75075;USA;972 422 7266
5727;4302;Claires;NEWPORT CENTRE;30 MALL DRIVE WEST;JERSEY CITY;NJ;07310;USA;201 626 5150
5728;6002;Claires;VALLEY PLAZA MALL;2701 MING AVENUE SPACE C-20;BAKERSFIELD;CA;93304;USA;661 835 8077
5729;7210;Claires;BOISE TOWN SQUARE;350 N. MILWAUKEE ST  SPC#1171;BOISE;ID;83704;USA;208 376 0080
5730;4124;Claires;NEW TOWNE MALL;400 MILL AVE. S.E., SP. 701;NEW PHILADELPHIA;OH;44663;USA;330 339 4661
5731;6106;Claires;ROLLING OAKS MALL;6909 N. LOOP 1604 EAST, #2065;SAN ANTONIO;TX;78247;USA;210 651 5177
5732;7101;Claires;BELLIS FAIR;#1 BELLIS FAIR PARKWAY, SP 222;BELLINGHAM;WA;98226;USA;360 647 2481
5734;7212;Claires;HERITAGE MALL;1915 SE 14TH AVENUE, SP. D407;ALBANY;OR;97321;USA;541 928 4441
5736;4316;Claires;WST-SUNRISE;969 SUNRISE MALL;MASSAPEQUA;NY;11758;USA;516 795 2224
5740;6201;Claires;PARK PLAZA;6000 W. MARKHAM SPACE 3040;LITTLE ROCK;AR;72205;USA;501 663 0146
5743;6105;Claires;SUNLAND PARK MALL;750 SUNLAND PARK DR., SP. M-6;EL PASO;TX;79912;USA;915 584 9506
5744;6106;Claires;THE FORUM AT OLYMPIA PKWY;8332 AGORA PARKWAY #140;SELMA;TX;78154;USA;210 659 6234
5746;5009;Claires;KENNEDY MALL;555 JOHN F KENNEDY RD UNIT262;DUBUQUE;IA;52002;USA;563 583 7601
5748;4123;Claires;BEAVER VALLEY MALL;265 BEAVER VALLEY MALL;MONACA;PA;15061;USA;724 775 6541
5749;7017;Claires;VILLAGE POINTE;17305 DAVENPORT STREET;OMAHA;NE;68118;USA;402 289 0803
5750;7206;Claires;SOUTHGATE MALL-MISSOULA;2901 BROOKS ST. SPACE D3;MISSOULA;MT;59801;USA;406 549 4347
5752;7102;Claires;SOUTH HILL MALL;3500 S. MERIDIAN, SPACE 620;PUYALLUP;WA;98373;USA;253 840 3583
5754;5309;Claires;ALBANY MALL;2601 DAWSON ROAD, SPACE E48;ALBANY;GA;31707;USA;229 434 0272
5755;4326;Claires;HARFORD MALL;676A BEL AIR RD.;BEL AIR;MD;21014;USA;410 838 0016
5758;4107;Claires;MALL OF MONROE;2121 N. MONROE ST., UNIT 265;MONROE;MI;48161;USA;734 242 2564
5759;6212;Claires;EAST HILLS S.C.;3702 FREDRICK BLVD.;ST. JOSPEH;MO;64506;USA;816 232 5588
5761;4328;Claires;SOUTHPARK MALL;62 SOUTH PARK CIRCLE;COLONIAL HEIGHTS;VA;23834;USA;804 520 7135
5762;5215;Claires;ASHEVILLE MALL;3 SOUTH TUNNEL RD. SUITE #M-04;ASHEVILLE;NC;28805;USA;828 298 7836
5764;6106;Claires;INGRAM PARK MALL;6301 NORTHWEST LOOP 410;SAN ANTONIO;TX;78238;USA;210 684 5744
5765;6012;Claires;SAN TAN VILLAGE       SPC116;2268 EAST WILLIAMS FIELD ROAD;GILBERT;AZ;85296;USA;480 857 1372
5766;6110;Claires;VISTA RIDGE MALL;2400 S. STEMMONS FRWY.SP.#2074;LEWISVILLE;TX;75067;USA;972 315 3265
5768;5305;Claires;PORT CHARLOTTE TOWN CTR;1441 TAMIAMI TRAIL, ROOM #941;PORT CHARLOTTE;FL;33948;USA;941 627 6666
5770;4324;Claires;WST-GARDEN STATE PLAZA;1 GARDEN STATE PLAZA BLVD 1210;PARAMUS;NJ;07652;USA;201 712 0815
5771;5203;Claires;OGLETHORPE MALL;7804 ABERCORN STREET;SAVANNAH;GA;31406;USA;912 355 6006
5772;6206;Claires;CENTRAL MALL-TEXARKANA;2400 RICHMOND RD SPACE #93;TEXARKANA;TX;75503;USA;903 838 6048
5775;6107;Claires;HILL COUNTRY GALLERIA;12701 HILL COUNTRY BLVD;VILLAGE OF BEE CAVE;TX;78738;USA;512 263 8327
5776;6111;Claires;TOWN EAST MALL;2063 TOWN EAST MALL STE 2236;MESQUITE;TX;75150;USA;972 681 1620
5777;5201;Claires;CHESAPEAKE SQUARE;4200 PORTSMOUTH BLVD., RM. 232;CHESAPEAKE;VA;23321;USA;757 488 8419
5780;7101;Claires;CASCADE MALL;201 CASCADE MALL DRIVE  A-14;BURLINGTON;WA;98233;USA;360 757 8814
5781;7206;Claires;SILVER LAKE MALL;200 W. HANLEY AVE., STE. A-121;COEUR D'ALENE;ID;83814;USA;208 762 2330
5782;6211;Claires;NORTHWEST ARKANSAS MALL;4201 N. SHILOH DR., SPACE 1680;FAYETTEVILLE;AR;72703;USA;479 443 2262
5783;7208;Claires;UNIVERSITY-OREM;SPACE D-63 UNIVERSITY MALL;OREM;UT;84097;USA;801 225 1314
5787;7212;Claires;WST-VANCOUVER;8700 NE VANCOUVER MALL STE 115;VANCOUVER;WA;98662;USA;360 896 1965
5788;7208;Claires;FASHION PLACE;6191 S. STATE STREET;MURRAY;UT;84107;USA;801 265 9153
5789;6112;Claires;BRAZOS TOWN CENTER;23820 COMMERCIAL DRIVE;ROSENBURG;TX;77471;USA;281 232 3802
5792;6012;Claires;FIESTA MALL;1445 W SOUTHERN AVE # 2144;MESA;AZ;85202;USA;480 644 9501
5793;6004;Claires;OTAY RANCH TOWN CENTER;2015 BIRCH ROAD SPC # 507;CHULA VISTA;CA;91915;USA;619 482 1618
5794;4327;Claires;MORGANTOWN MALL;9711 MALL ROAD;MORGAN TOWN;WV;26501;USA;304 983 6760
5795;4328;Claires;ST. CHARLES TOWNE CENTER;11110 MALL CIRCLE SECT G;WALDORF;MD;20603;USA;301 705 8008
5796;4317;Claires;FREEHOLD RACEWAY MALL;3710 ROUTE 9, SPC.B-222;FREEHOLD;NJ;07728;USA;732 462 5954
5798;4327;Claires;ASHLAND TOWN CENTER;500 WINCHESTER AVE. STE 568;ASHLAND;KY;41105;USA;606 324 4343
5799;4203;Claires;YORK GALLERIA;2899 WHITEFORD ROAD;YORK;PA;17402;USA;717 840 1033
5800;6007;Claires;DESERT HILLS PREMIUM OUTLETS;48400 SEMINOLE DRIVE;CABAZON;CA;92230;USA;951 849 4308
5803;6109;Claires;WEATHERFORD MARKETPLACE;138 EAST INTERSTATE 20;WEATHERFORD;TX;76087;USA;817 599 3536
5804;6104;Claires;CORONADO CENTER;6600 MENAUL NE, SUITE #D-002;ALBUQUERQUE;NM;87110;USA;505 884 7284
5805;5208;Claires;RIVERGATE MALL;1000 RIVERGATE PKWY SPC #1630;GOODLETTSVILLE;TN;37072;USA;615 851 3695
5806;4308;Claires;LAKEFOREST;701 RUSSELL AVENUE;GAITHERSBURG;MD;20877;USA;301 963 7488
5808;5310;Claires;DECATUR MALL;1801 BELTLINE RD. SW, SP#B-8;DECATUR;AL;35603;USA;256 340 9470
5812;6011;Claires;CHRISTOWN SPECTRUM MALL;1644 WEST MONTEBELLO   #5;PHOENIX;AZ;85015;USA;602 249 6330
5813;5309;Claires;THE AVENUES;10300 SOUTHSIDE BLVD SPC 2476A;JACKSONVILLE;FL;32256;USA;904 363 9825
5816;5215;Claires;KINGSPORT TOWN CENTER;2101 FORT HENRY DR., SP#E-29;KINGSPORT;TN;37664;USA;423 246 7155
5819;6201;Claires;THE MALL @ BARNES CROSSING;1001 BARNES CROSSING RD SPC323;TUPELO;MS;38804;USA;662 844 3044
5820;5005;Claires;LINCOLNWOOD TOWN CENTER;3333 WEST TOUHY AVE. SP#C02A;LINCOLNWOOD;IL;60712;USA;847 674 7114
5821;5305;Claires;TYRONE SQUARE;6753 TYRONE SQUARE;ST. PETERSBURG;FL;33710;USA;727 345 0040
5822;6008;Claires;CITADEL OUTLETS;100 CITADEL DRIVE SUITE 109;COMMERCE;CA;90040;USA;323 724 3384
5825;7208;Claires;LAYTON HILLS MALL;1201 N.HILL FIELD RD STE#1012;LAYTON;UT;84041;USA;801 547 0672
5826;7106;Claires;YUBA SUTTER MALL;1165 - T COLUSA AVE.;YUBA CITY;CA;95992;USA;530 674 9480
5827;5202;Claires;COLUMBIANA CENTRE;100 COLUMBIANA CIRCLE,SPC 1292;COLUMBIA;SC;29212;USA;803 732 1806
5829;4210;Claires;DESTINY USA;1 DESTINY USA DRIVE SPC E205;SYRACUSE;NY;13204;USA;315 466 2703
5830;6008;Claires;WST-CULVER CITY;136 FOX HILLS MALL;CULVER CITY;CA;90230;USA;310 398 8073
5831;7102;Claires;TACOMA MALL;4502 S. STEELE SUITE 137;TACOMA;WA;98409;USA;253 472 4257
5832;4217;Claires;THE SHOPPES @ BUCKLAND HS;194 BUCKLAND HILLS DR  #1172;MANCHESTER;CT;06040;USA;860 644 8807
5833;5005;Claires;NORTHFIELD SQUARE;1600 STATE ROUTE 50, ROOM 114;BOURBONNAIS;IL;60914;USA;815 935 5013
5834;5307;Claires;DESOTO SQUARE;303 U.S. 301 BLVD. W. #117;BRADENTON;FL;34205;USA;941 747 6489
5835;5007;Claires;NORTHLAND PLAZA;2572 SYCAMORE ROAD;DEKALB;IL;60115;USA;815 758 3969
5836;5203;Claires;ASHLEY PARK;330 NEWMAN CROSSING BYPASS;NEWNAN;GA;30263;USA;770 251 4395
5839;7206;Claires;NORTHTOWN-SPOKANE;4750 N DIVISION  STE 288;SPOKANE;WA;99207;USA;509 484 3669
5840;4204;Claires;PROMENDADE SHOPS SAUCON VALLEY;2845 CENTER VALLEY PKWY #430;CENTER VALLEY;PA;18034;USA;610 797 3885
5841;4125;Claires;SHENANGO VALLEY MALL;3349 E. STATE STREET;HERMITAGE;PA;16148;USA;724 981 1477
5843;5310;Claires;COLONIAL PROM. FULTONDALE;3477 LOWERY PKWY SPC#145;FULTONDALE;AL;35068;USA;205 808 5028
5844;6003;Claires;RED CLIFFS MALL;1750 E. RED CLIFFS DR. SPC#199;ST. GEORGE;UT;84790;USA;435 628 6496
5846;4124;Claires;GREAT LAKES MALL;7850 MENTOR AVE., SPC #732;MENTOR;OH;44060;USA;440 255 5513
5847;5311;Claires;EASTERN SHORE CENTRE;30500 STATE HWY 181;SPANISH FORT;AL;36527;USA;251 625 1146
5849;6012;Claires;SUPERSTITION SPRINGS P.C.;6555 E. SOUTHERN AVE.;MESA;AZ;85206;USA;480 641 0268
5850;7106;Claires;MT. SHASTA MALL;900 DANA DR. SUITE #B39;REDDING;CA;96003;USA;530 223 4435
5857;7014;Claires;ABERDEEN MALL;3315 6TH AVENUE,S.E. STE.56;ABERDEEN;SD;57401;USA;605 225 9147
5858;4210;Claires;TOWNE CENTER AT WEBSTER;1028 RIDGE ROAD   SPC #119;WEBSTER;NY;14580;USA;585 872 6280
5863;4110;Claires;MALL AT PARTRIDGE CREEK;17460 HALL RD. SPC # 152A;CLINTON TOWNSHIP;MI;48038;USA;586 263 5938
5864;6206;Claires;LOUISIANA BOARDWALK;517 BOARDWALK BLVD;BOSSIER CITY;LA;71111;USA;318 549 3153
5868;6105;Claires;BASSETT CENTER;6101 GATEWAY BLVD STE 515;EL PASO;TX;79925;USA;915 778 9114
5870;5203;Claires;SOUTHLAKE MALL;1213 SOUTHLAKE MALL;MORROW;GA;30260;USA;770 960 0448
5871;4219;Claires;PHEASANT LANE MALL;310 DANIEL WEBSTER HWHY.;NASHUA;NH;03063;USA;603 888 5138
5877;4306;Claires;DEPTFORD MALL;1750 DEPTFORD CTR ROAD # 1214;DEPTFORD;NJ;08096;USA;856 384 6047
5880;4219;Claires;STEEPLEGATE MALL;270 LOUDON RD., SPC.#580;CONCORD;NH;03301;USA;603 224 1244
5881;4105;Claires;BIRCHWOOD MALL;4350 24TH AVENUE;FORT GRATIOT;MI;48059;USA;810 385 7090
5882;6002;Claires;VISALIA MALL;2173 S. MOONEY BLVD SPACE 1700;VISALIA;CA;93277;USA;559 636 8339
5883;5203;Claires;HOUSTON COUNTY GALLERIA;2922 WATSON BLVD;CENTERVILLE;GA;31028;USA;478 953 7727
5888;4204;Claires;STROUD MALL;334 STROUD MALL ROAD #454;STROUDSBURG;PA;18360;USA;570 476 6641
5889;5001;Claires;WEST TOWNE MALL;128 WEST TOWNE MALL, #C-80;MADISON;WI;53719;USA;608 833 2847
5890;5215;Claires;BRADLEY SQUARE MALL;200 NW PAUL HUFF HWY., SP.219;CLEVELAND;TN;37312;USA;423 478 5060
5892;5202;Claires;VILLAGE AT SANDHILL;470- 13 TOWN CTR;COLUMBIA;SC;29229;USA;803 699 9277
5895;7210;Claires;WHITE MOUNTAIN MALL;2441 FOOTHILL BLVD.  SPC #137;ROCK SPRINGS;WY;82901;USA;307 382 6318
5896;4105;Claires;BAY CITY MALL;4101 WILDER RD. SPC B225;BAY CITY;MI;48706;USA;989 684 3998
5897;7016;Claires;MALL OF AMERICA;179 E BROADWAY;BLOOMINGTON;MN;55425;USA;952 854 5504
5900;6109;Claires;HEARTLAND MALL;300 EARLY BLVD   SPC. #33;EARLY;TX;76801;USA;325 643 5949
5901;5002;Claires;MAYFAIR MALL;2500 N. MAYFAIR RD.  SPC. #622;WAUWATOSA;WI;53226;USA;414 774 5886
5902;4306;Claires;MOORESTOWN MALL;RT. 38 LENOLA  SPC. #1495;MOORESTOWN;NJ;08057;USA;856 231 1551
5909;7016;Claires;SOUTHDALE CENTER;36 SOUTHDALE CENTER   2750B;EDINA;MN;55435;USA;952 927 8876
5911;5001;Claires;PARADISE PAVILION;1440 SOUTH MAIN STREET;WEST BEND;WI;53095;USA;262 338 8221
5913;6004;Claires;IMPERIAL VALLEY MALL;3451 S. DOGWOOD AVE;EL CENTRO;CA;92243;USA;760 336 3877
5916;5207;Claires;ROCK HILL GALLERIA;2301 DAVE LYLE BLVD;ROCK HILL;SC;29730;USA;803 366 1729
5918;5310;Claires;PINNACLE AT TUTWILER FARM;5030 PINNACLE SQUARE SPC # 108;BIRMINGHAM;AL;35235;USA;205 655 6391
5919;5308;Claires;MERRITT SQUARE MALL;777 E. MERRITT ISLAND # 354;MERRITT ISLAND;FL;32952;USA;321 454 4641
5920;6201;Claires;OLD HICKORY MALL;2021 N HIGHLAND, UNIT A1;JACKSON;TN;38305;USA;731 668 9209
5923;5002;Claires;GURNEE MILLS;6170 W GRAND AVE  SPACE 611;GURNEE;IL;60031;USA;847 855 0036
5928;4218;Claires;THE HANOVER MALL;1775 WASHINGTON ST   SUITE 227;HANOVER;MA;02339;USA;781 829 8871
5929;7015;Claires;CEDAR MALL;2900 S MAIN E. #9 SUITE D;RICE LAKE;WI;54868;USA;715 234 5766
5930;5207;Claires;BIRKDALE VILLAGE;16926-B BIRKDALE COMMONS PKWY;HUNTERSVILLE;NC;28078;USA;704 895 1311
5931;4328;Claires;CHARLOTTESVILLE FASH.SQ.;1585 RIO ROAD;CHARLOTTESVILLE;VA;22901;USA;434 973 1261
5933;4218;Claires;WESTGATE MALL-BROCKTON;200 WESTGATE DRIVE, SPACE 11;BROCKTON;MA;02301;USA;508 587 3561
5935;4105;Claires;MIDLAND MALL;6800 EASTMAN AVE SUITE 556;MIDLAND;MI;48640;USA;989 832 6166
5937;5205;Claires;WESTGATE MALL-SPARTANBURG;205 WEST BLACKSTOCK RD BX 420;SPARTANBURG;SC;29301;USA;864 587 6169
5939;7015;Claires;RIVER HILLS MALL;1850 ADAMS  SPACE 142;MANKATO;MN;56001;USA;507 387 7903
5940;7101;Claires;KITSAP MALL;10315 SILVERDALE WAY NORTHWEST;SILVERDALE;WA;98383;USA;360 698 7445
5941;6003;Claires;CENTENNIAL CENTER;7991 W. TROPICAL PARKWAY;LAS VEGAS;NV;89149;USA;702 645 6029
5943;5207;Claires;CAROLINA PLACE;11025 CAROLINA PL PKWY SP.A-19;PINEVILLE;NC;28134;USA;704 541 0462
5945;5210;Claires;TOWN CENTER AT COBB;400 ERNST BARETT W. PKWY;KENNESAW;GA;30144;USA;770 426 8681
5946;6007;Claires;VICTORIA GARDENS;12544 NORTH MAIN STREET;RANCHO CUCAMONGA;CA;91739;USA;909 646 8457
5947;5304;Claires;SAWGRASS MILLS;NW 136TH AVENUE #1213;SUNRISE;FL;33323;USA;954 835 9336
5948;6205;Claires;TANGER O.C. HOUSTON;5885 GULF FREEWAY SUITE 335;TEXAS CITY;TX;77591;USA;281 337 8927
5950;5303;Claires;AVENTURA MALL;19575 BISCAYNE BLVD. SPC #1289;N. MIAMI BEACH;FL;33180;USA;305 935 5283
5952;7111;Claires;SUNVALLEY;309 B SUNVALLEY MALL;CONCORD;CA;94520;USA;925 827 0964
5953;4212;Claires;WST-CONNECTICUT POST;1201 BOSTON POST RD SPACE 2066;MILFORD;CT;06460;USA;203 878 9432
5954;4219;Claires;THE MALL @ ROCKINGHAM PK;99 ROCKINGHAM   STE 1137;SALEM;NH;03079;USA;603 898 0915
5956;7102;Claires;KENT STATION;437 RAMSEY WAY;KENT;WA;98032;USA;253 859 8100
5957;6008;Claires;WEST COVINA;621 PLAZA DRIVE;WEST COVINA;CA;91790;USA;626 960 5888
5961;4204;Claires;LEHIGH VALLEY MALL;263 LEHIGH VALLEY MALL;WHITEHALL;PA;18052;USA;610 264 8012
5963;4213;Claires;BANGOR MALL;663 STILLWATER AVE;BANGOR;ME;04401;USA;207 942 2562
5966;6011;Claires;TANGER O.C. GLENDALE;6800 N.95TH AVE SUITE 855;GLENDALE;AZ;85305;USA;623 772 5576
5967;7206;Claires;PALOUSE MALL;2048 W PULLMAN ROAD;MOSCOW;ID;83843;USA;208 882 8247
5968;6212;Claires;WARD PARKWAY CENTER;8600 WARD PARKWAY CENTER;KANSAS CITY;MO;64114;USA;816 523 0955
5969;6214;Claires;CHESTERFIELD MALL;248 CHESTERFIELD MALL #404;ST. LOUIS;MO;63017;USA;636 532 5445
5970;7017;Claires;OAK VIEW MALL;3001 S. 144TH STREET;OMAHA;NE;68144;USA;402 333 9263
5972;4203;Claires;HARRISBURG MALL;3601 PAXTON ST  SPC #RE1;HARRISBURG;PA;17111;USA;717 561 0345
5974;6105;Claires;MALL DE LAS AGUILAS;455 S BIBB SPC 404;EAGLE PASS;TX;78852;USA;830 773 3412
5975;4326;Claires;TOWSON TOWN CENTER;825 DULANEY VALLEY RD ST 1120;TOWSON;MD;21204;USA;410 296 7637
5976;5214;Claires;ILLINOIS STAR CENTRE;3000 W DE YOUNG SUITE #268;MARION;IL;62959;USA;618 993 2758
5977;4328;Claires;VIRGINIA CENTER COMMONS;10101 BROOK ROAD  STE 344;GLEN ALLEN;VA;23059;USA;804 266 0697
5981;4308;Claires;TANGER C.O. NATIONAL HARBOR;6800 OXON HILL ROAD SPC 855;OXON HILL;MD;20745;USA;301 567 6729
5982;6105;Claires;SUNRISE-BROWNSVILLE;2370 N EXPRESSWAY;BROWNSVILLE;TX;78526;USA;956 541 5591
5983;7111;Claires;WST-SAN FRANCISCO CTR;865 MARKET ST.  SPACE C40;SAN FRANCISCO;CA;94103;USA;415 495 2425
5986;4105;Claires;GRAND TRAVERSE MALL;3200 S AIRPORT RD W SPC # 524;TRAVERSE CITY;MI;49684;USA;231 947 9075
5989;4123;Claires;MONROEVILLE MALL;RT 22 & MALL DRIVE SPC # 108;MONROEVILLE;PA;15146;USA;412 373 6693
5990;7108;Claires;VINTAGE FAIRE MALL;3401 DALE RD, SPACE Q21;MODESTO;CA;95356;USA;209 544 6884
5991;5214;Claires;MALL ST. MATTHEWS;5000 SHELBYVILLE RD;LOUISVILLE;KY;40207;USA;502 894 9736
5993;4324;Claires;GALLERIA AT CRYSTAL RUN;1 GALLERIA DR. SUITE 20;MIDDLETOWN;NY;10940;USA;845 692 0444
5994;4326;Claires;THE GALL. @ HARBOR PLACE;200 E PRATT  SPACE 334;BALTIMORE;MD;21202;USA;410 539 8593
5995;4328;Claires;POTOMAC MILLS;2700 POTOMAC MILLS CIR STE 725;WOODBRIDGE;VA;22192;USA;703 497 2722
5996;5007;Claires;KENDALL MARKETPLACE;967 ERICA LANE   SPC 5C-2;YORKVILLE;IL;60560;USA;630 553 6923
5997;5205;Claires;GREENWOOD MALL;420-9 HIGHWAY 72 BYPASS;GREENWOOD;SC;29649;USA;864 223 6992
5998;7206;Claires;BUTTE PLAZA;3100 HARRISON AVE;BUTTE;MT;59701;USA;406 494 8115
6000;7101;Claires;VALLEY MALL-UNION GAP;2529 MAIN STREET SUITE 161;UNION GAP;WA;98903;USA;509 457 6474
6001;6002;Claires;PASEO NUEVO;811 C STATE ST.;SANTA BARBARA;CA;93101;USA;805 568 0603
6002;6211;Claires;PINNACLE HILLS PROMENADE;2203 SOUTH PROMENADE BLVD;ROGERS;AR;72758;USA;479 936 7044
6003;4302;Claires;STATEN ISLAND MALL;2655 RICHMOND AVENUE SPC 2230;STATEN ISLAND;NY;10314;USA;718 982 7254
6005;4110;Claires;TWELVE OAKS MALL;27488 NOVI RD;NOVI;MI;48377;USA;248 344 4447
6007;4328;Claires;WILLIAMSBURG PREMIUM;5711 RICHMOND ROAD;WILLIAMSBURG;VA;23188;USA;757 258 1039
6008;4110;Claires;WESTLAND CENTER;35000 W WARREN RD  STE 616;WESTLAND;MI;48185;USA;734 261 0011
6009;5210;Claires;MCINTOSH PLAZA;1109 S PARK ST    SPC 10;CARROLLTON;GA;30117;USA;770 836 8553
6012;4121;Claires;DEERFIELD TOWNE CENTER;5855 DEERFIELD BLVD. D-102;MASON;OH;45040;USA;513 770 0666
6013;6109;Claires;HULEN MALL;4800 S HULEN ST. #2575;FT WORTH;TX;76132;USA;817 370 1788
6014;6112;Claires;ALMEDA MALL;248 ALMEDA MALL;HOUSTON;TX;77075;USA;713 946 5866
6016;7016;Claires;APACHE MALL;1055 APACHE MALL;ROCHESTER;MN;55902;USA;507 281 1605
6018;7209;Claires;NORTHFIELD AT STAPLETON;8340 EAST 49 AVE  SPC # 1670;DENVER;CO;80238;USA;303 375 1165
6019;6112;Claires;WEST OAKS MALL-HOUSTON;245 WEST OAKS MALL;HOUSTON;TX;77082;USA;281 597 0011
6020;4317;Claires;BRUNSWICK SQUARE;755 NEW JERSEY HIGHWAY 18;EAST BRUNSWICK;NJ;08816;USA;732 238 2789
6022;4315;Claires;JUNCTION BLVD;37-60 JUNCTION BLVD;QUEENS;NY;11368;USA;718 458 1506
6023;4306;Claires;OXFORD VALLEY MALL;2300 EAST LINCOLN HWY SPC#122;LANGHORNE;PA;19047;USA;215 752 4790
6025;7108;Claires;FASHION FAIR;657 E SHAW AVE;FRESNO;CA;93710;USA;559 224 4939
6027;4124;Claires;SUMMIT MALL;3265 MARKET STREET;FAIRLAWN;OH;44333;USA;330 864 6821
6029;6006;Claires;GALLERIA AT TYLER;2010 GALLERIA AT TYLER  F202;RIVERSIDE;CA;92503;USA;951 343 0192
6030;4306;Claires;NESHAMINY MALL;603 NESHAMINY MALL;BENSALEM;PA;19020;USA;215 355 1654
6032;4315;Claires;FORDHAM ROAD;260 E. FORDHAM ROAD SPC 260;BRONX;NY;10458;USA;718 220 2049
6035;5311;Claires;GOVERNORS SQUARE MALL;1500 APALACHEE PARKWAY #2400;TALLAHASSEE;FL;32301;USA;850 671 1360
6036;7016;Claires;RIDGEDALE CENTER;12571 WAYZATA #1220;MINNETONKA;MN;55305;USA;952 525 0583
6038;6006;Claires;MORENO VALLEY AT TOWNGATE;22500 TOWNGATE CIRCLE;MORENO VALLEY;CA;92553;USA;951 656 0043
6041;4324;Claires;GALLERIA @ WHITE PLAINS;100 MAIN STREET   #334;WHITE PLAINS;NY;10601;USA;914 686 1821
6042;7208;Claires;VALLEY FAIR MALL;3601 S. 2700 WEST SPC # B-134;WEST VALLEY CITY;UT;84119;USA;801 966 8485
6043;4220;Claires;EMERALD SQUARE;999 S. WASHINGTON ST  #217;NORTH ATTLEBORO;MA;02760;USA;508 699 7004
6048;5207;Claires;NORTHLAKE-CHARLOTTE;6801 NORTH LAKE MALL DRV #295;CHARLOTTE;NC;28216;USA;704 509 9227
6049;4213;Claires;BERLIN MALL;282 BERLIN MALL ROAD UNIT 11;MONTPELIER;VT;05602;USA;802 229 5467
6050;4124;Claires;GREAT NORTHERN;599 GREAT NORTHERN MALL;NORTH OLMSTED;OH;44070;USA;440 979 1250
6052;5208;Claires;NORTHGATE-TULLAHOMA;240 N. JACKSON STREET;TULLAHOMA;TN;37388;USA;931 393 4949
6053;7103;Claires;CEDAR HILLS CROSSING;3205 SW CEDAR HILLS BLVD STE66;BEAVERTON;OR;97005;USA;503 644 9142
6055;5214;Claires;PARKWAY PLAZA;401 MADISON SQUARE DRIVE;MADISONVILLE;KY;42431;USA;270 821 8305
6056;5009;Claires;QUINCY PLACE MALL;1110 QUINCY PLACE - UNIT #62;OTTUMWA;IA;52501;USA;641 682 2110
6058;6106;Claires;NORTH STAR MALL;7400 SAN PEDRO AVE STE# 956;SAN ANTONIO;TX;78216;USA;210 342 0556
6059;4122;Claires;TANGER O.C. JEFFERSONVILLE;8420 FACTORY SHOPS BLVD;JEFFERSONVILLE;OH;43128;USA;740 948 2808
6060;4212;Claires;STAMFORD TOWN CENTER;100 GREYROCK PLACE;STAMFORD;CT;06901;USA;203 323 4483
6061;4217;Claires;ENFIELD SQUARE;I-91 AND HAZARD AVE. #33;ENFIELD;CT;06082;USA;860 741 3778
6062;5309;Claires;VOLUSIA MALL;1700 W INT'L SPEEDWAY SP 356;DAYTONA BEACH;FL;32114;USA;386 253 8912
6063;4308;Claires;TYSONS CORNER CENTER;1961 CHAIN BRIDGE RD;MC LEAN;VA;22102;USA;703 847 5909
6064;5002;Claires;ALGONQUIN COMMONS;1728S RANDALL RD;ALGONQUIN;IL;60102;USA;847 458 0040
6066;7106;Claires;SUNRISE-CITRUS HEIGHTS;6076 SUNRISE MALL;CITRUS HEIGHTS;CA;95610;USA;916 729 0678
6067;4212;Claires;WST-MERIDEN;470 LEWIS AVENUE # 21;MERIDEN;CT;06450;USA;203 235 6229
6068;7206;Claires;GALLATIN VALLEY MALL;2825 W. MAIN;BOZEMAN;MT;59718;USA;406 585 0772
6070;7103;Claires;LLOYD CENTER;2301 LLOYD CENTER;PORTLAND;OR;97232;USA;503 287 1553
6071;4219;Claires;SQUARE ONE MALL;1201 BROADWAY;SAUGUS;MA;01906;USA;781 231 6870
6072;7110;Claires;STONERIDGE;1308 STONERIDGE MALL #D-131;PLEASANTON;CA;94588;USA;925 416 1398
6073;6002;Claires;HANFORD MALL;1675 W. LACEY BLVD SPACE G-6;HANFORD;CA;93230;USA;559 584 3582
6074;5205;Claires;NORTH POINT MALL;2174 NORTH POINTE CIRCLE;ALPHARETTA;GA;30022;USA;770 667 9271
6075;5203;Claires;STATESBORO MALL;718 NORTHSIDE DR EAST STE #15;STATESBORO;GA;30458;USA;912 489 2533
6076;5203;Claires;MILLEDGEVILLE MALL;2400 N. COLUMBIA STREET #A9;MILLEDGEVILLE;GA;31061;USA;478 452 7203
6077;6201;Claires;SOUTHAVEN TOWNE CENTER;6554 TOWN CENTER LOOP;SOUTHAVEN;MS;38671;USA;662 349 0264
6079;5304;Claires;TOWN CENTER AT BOCA RATON;6000 GLADES ROAD SUITE 1110;BOCA RATON;FL;33431;USA;561 361 0915
6080;4316;Claires;GREEN ACRES MALL;2014 GREEN ACRES MALL SPC 204B;VALLEY STREAM;NY;11581;USA;516 823 0913
6082;4316;Claires;BROADWAY MALL;RT 106 & NORTHERN STATE P;HICKSVILLE;NY;11801;USA;516 932 1237
6083;6004;Claires;WESTFIELD CARLSBAD;2525 EL CAMINO REAL SPACE 138;CARLSBAD;CA;92008;USA;760 720 0803
6084;4316;Claires;SMITH HAVEN MALL;408 SMITH HAVEN MALL    C04;LAKE GROVE;NY;11755;USA;631 361 9206
6085;7102;Claires;THE OUTLET COLLECTION SEATTLE;1101 OUTLET COLLECTION RD#1049;AUBURN;WA;98001;USA;253 833 2374
6087;4105;Claires;FASHION SQUARE MALL;4853 FASHION SQUARE MALL;SAGINAW;MI;48604;USA;989 797 3905
6088;6007;Claires;FASHION SQUARE (WEST);14006 RIVERSIDE DR. SPACE 241;SHERMAN OAKS;CA;91423;USA;818 385 0613
6089;6207;Claires;TURTLE CREEK MALL;1000 TURTLE CREEK DRIVE #50;HATTIESBURG;MS;39402;USA;601 268 1896
6091;5203;Claires;DUBLIN MALL;2005 VETERANS BOULEVARD;DUBLIN;GA;31021-7537;USA;478 274 0525
6092;6206;Claires;MALL ST. VINCENT;1133 ST. VINCENT AVENUE;SHREVEPORT;LA;71104;USA;318 425 1550
6093;4316;Claires;WST-SOUTH SHORE;1701 SUNRISE HIGHWAY #F-11;BAY SHORE;NY;11706;USA;631 665 5433
6094;7017;Claires;HILLTOP MALL;5019 2ND AVE #16;KEARNY;NE;68847;USA;308 236 8946
6096;6106;Claires;RIVER HILL MALL;200 SIDNEY BAKER ST. SO.;KERRVILLE;TX;78028;USA;830 257 5909
6097;6006;Claires;LAGUNA HILLS MALL;24155 LAGUNA HILLS SUITE 1680;LAGUNA HILLS;CA;92653;USA;949 770 6455
6098;5302;Claires;PLAZA DEL CARIBE;2050 PONCE BY PASS STE 122;PONCE;PR;00717;USA;787 840 7117
6099;4125;Claires;GROVE CITY PREMIUM OUTLET;1911 LEESBURG GROVE CITY #850;GROVE CITY;PA;16127;USA;724 748 4253
6103;5201;Claires;LYNNHAVEN MALL;701 LYNNHAVEN PKWY #1068;VIRGINIA BEACH;VA;23452;USA;757 463 3904
6105;4317;Claires;MENLO PARK;386 MENLO PARK     SPC2590;EDISON;NJ;08837;USA;732 632 9733
6107;4317;Claires;QUAKER BRIDGE MALL;255 QUAKER BRIDGE MALL 1239B;LAWRENCEVILLE;NJ;08648;USA;609 799 7710
6108;5301;Claires;MAYAGUEZ MALL S.C.;975 AVE. HOSTOS STE #115;MAYAGUEZ;PR;00680;USA;787 265 3966
6109;4326;Claires;SECURITY SQUARE MALL;6901 SECURITY BLVD., SPACE 369;BALTIMORE;MD;21244;USA;410 281 1791
6110;5307;Claires;LAKESIDE VILLAGE;1557 TOWN CENTER DRIVE;LAKELAND;FL;33803;USA;863 682 4539
6112;7110;Claires;GREAT MALL-BAY AREA;447 GREAT MALL DRIVE STE 134;MILPITAS;CA;95035;USA;408 934 9799
6113;6011;Claires;ARROWHEAD TOWNE CENTER;7700 W ARROWHEAD TWN CTR #1040;GLENDALE;AZ;85308;USA;623 979 1132
6115;5005;Claires;ONE NORTH STATE STREET;5 NORTH STATE STREET;CHICAGO;IL;60602;USA;312 727 0263
6117;6006;Claires;MONTCLAIR PLACE;5167 MONTCLAIR PLAZA LANE;MONTCLAIR;CA;91763;USA;909 625 7856
6119;6002;Claires;THE OAKS-THOUSAND OAKS;266 W. HILLCREST DRIVE;THOUSAND OAKS;CA;91360;USA;805 494 1225
6120;4121;Claires;TRI-COUNTY MALL;11700 PRINCETON PIKE;CINCINNATI;OH;45246;USA;513 671 8141
6121;6002;Claires;WST-VALENCIA T/C;24201 W.VALENCIA BLVD.SPC 2258;VALENCIA;CA;91355;USA;661 253 2130
6122;5310;Claires;LAGRANGE MALL;1501 LAFAYETTE PARKWAY;LA GRANGE;GA;30240;USA;706 845 1093
6124;6008;Claires;WESTFIELD MALL PALM DESERT;72-840 HIGHWAY 111 STE 435;PALM DESERT;CA;92260;USA;760 346 9254
6125;6209;Claires;VILLAGE SQUARE MALL;2601 CENTRAL & HWY 50 BYPASS;DODGE CITY;KS;67801;USA;620 227 7622
6127;7014;Claires;PRAIRIE HILLS MALL;1681 3RD AVENUE WEST  #93;DICKINSON;ND;58601;USA;701 227 3753
6129;7014;Claires;WESTGATE MALL-BRAINERD;14136 BAXTER DRIVE;BAXTER;MN;56425;USA;218 828 4797
6131;5214;Claires;SOMERSET MALL;4150 S. HWY 27;SOMERSET;KY;42501;USA;606 678 4636
6132;7111;Claires;SANTA ROSA PLAZA;1001 SANTA ROSA PLAZA;SANTA ROSA;CA;95401;USA;707 575 0677
6135;4217;Claires;NATICK COLLECTION;1245 WORCESTER STREET #2022;NATICK;MA;01760;USA;508 653 0024
6136;5010;Claires;FAIR OAKS MALL-COLUMBUS;2272 25TH STREET;COLUMBUS;IN;47201;USA;812 375 9246
6138;4213;Claires;THE MAINE MALL;364 MAINE MALL RD STE 815;SOUTH PORTLAND;ME;04106;USA;207 773 5133
6139;7211;Claires;BELMAR;7160 W ALASKA DRIVE;LAKEWOOD;CO;80226;USA;303 742 2064
6140;5203;Claires;AUGUSTA MALL;3450 WRIGHTSBORO RD SPC. #2187;AUGUSTA;GA;30909;USA;706 737 6831
6141;4219;Claires;THE MALL AT FOX RUN;50 FOX RUN ROAD #L -10;NEWINGTON;NH;03801;USA;603 431 1564
6142;4217;Claires;EASTFIELD MALL;1655 BOSTON ROAD;SPRINGFIELD;MA;01129;USA;413 543 8209
6143;4107;Claires;FRANKLIN PARK;5001 MONROE  SPC # 1100;TOLEDO;OH;43623;USA;419 473 0187
6145;5301;Claires;AGUADILLA MALL;CARR. #2  KM 126.5;AGUADILLA;PR;00605;USA;787 882 4140
6146;6006;Claires;THE SHOPS-MISSON VIEJO;398SHOPS AT MISSION VIEJO ST;MISSION VIEJO;CA;92691;USA;949 364 3420
6147;7101;Claires;NORTHGATE SHOPPING CENTER;401 NE NORTHGATE WAY STE #511;SEATTLE;WA;98125;USA;206 365 3891
6148;7101;Claires;ALDERWOOD MALL;3000 184TH ST SW  ROOM 522;LYNNWOOD;WA;98037;USA;425 771 2042
6149;5301;Claires;PLAZA DEL SOL-BAYAMON;725 WEST MAIN STREET  1580;BAYAMON;PR;00956;USA;787 780 7117
6153;4308;Claires;THE MALL @ PRINCE GEORGES;3500 EAST WEST HWY  #1434;HYATTSVILLE;MD;20782;USA;301 559 2061
6154;7111;Claires;SERRAMONTE CENTER;35 SERRAMONTE CENTER;DALY CITY;CA;94015;USA;650 994 6504
6155;5302;Claires;SANTA ROSA MALL;RD #2 & AGUAS BUENAS AVENUE;BAYAMON;PR;00619;USA;787 269 1975
6157;6113;Claires;THE WOODLANDS MALL;1201 LAKE WOODLANDS  SPC2040;THE WOODLANDS;TX;77380;USA;281 364 7155
6158;6110;Claires;TRINITY VALLEY S.C.;2630 N JOSEY LANE;CARROLLTON;TX;75007;USA;972 820 7320
6159;4220;Claires;DARTMOUTH MALL;147 N. DARTMOUTH MALL RD;NORTH DARTMOUTH;MA;02747;USA;508 984 4456
6160;5302;Claires;TU TU PARK;#26A ESTATE CHARLOTTE AMALIE;ST. THOMAS;VI;00802;USA;340 775 2133
6162;4306;Claires;KING OF PRUSSIA MALL;ROUTE 202 AND 363, #5;KING OF PRUSSIA;PA;19406;USA;610 962 0446
6163;7014;Claires;VIKING PLAZA;3015 HIGHWAY 29 SOUTH;ALEXANDRIA;MN;56308;USA;320 762 2266
6165;5201;Claires;INDEPENDENCE MALL;3500 OLEANDER DRIVE;WILMINGTON;NC;28403;USA;910 452 9501
6166;6112;Claires;BAYBROOK MALL;1336 BAYBROOK MALL;FRIENDSWOOD;TX;77546;USA;281 486 5050
6169;5303;Claires;SOUTHLAND MALL-MIAMI;20505 S. DIXIE HIGHWAY;MIAMI;FL;33189;USA;305 251 2307
6170;4204;Claires;VIEWMONT MALL;100 VIEWMONT MALL;SCRANTON;PA;18508;USA;570 344 2377
6171;4316;Claires;BRIDGEHAMPTON COMMONS;2044 MONTAUK HWY SPACE 80;BRIDGEHAMPTON;NY;11932;USA;631 537 0363
6172;6201;Claires;DYERSBURG MALL;2700 LAKE ROAD;DYERSBURG;TN;38024;USA;731 285 8084
6174;5214;Claires;TIMES SQUARE MALL;3917 BROADWAY ST;MT. VERNON;IL;62864;USA;618 242 5220
6175;4110;Claires;FAIRLANE TOWN CENTER;18900 MICHIGAN AVE SPC #N-108;DEARBORN;MI;48126;USA;313 441 2364
6176;6010;Claires;BREA MALL;1123 BREA MALL;BREA;CA;92821;USA;714 671 3916
6179;5301;Claires;PLAZA LAS AMERICAS;525 FD ROSSEVELT AVE. 1ST FL;SAN JUAN;PR;00918;USA;787 767 3747
6180;5215;Claires;WEST TOWN MALL;7600 KINGSTON PIKE SPC#1146;KNOXVILLE;TN;37919;USA;865 694 4174
6186;4315;Claires;KINGS PLAZA SHOPPING CTR;5169 KINGS PLAZA MALL STE 244;BROOKLYN;NY;11234;USA;718 258 9208
6187;6011;Claires;PARADISE VALLEY MALL;4550 EAST CACTUS RD.;PHOENIX;AZ;85032-7717;USA;602 494 1670
6188;4324;Claires;POUGHKEEPSIE GALLERIA;2001 SOUTH RD;POUGHKEEPSIE;NY;12601;USA;845 297 0640
6191;5303;Claires;FLORIDA KEYS OUTLET CENTER;250 EAST PALM DRIVE #165;FLORIDA CITY;FL;33034;USA;305 248 7680
6192;5210;Claires;CUMBERLAND MALL;1325 CUMBERLAND MALL SE;ATLANTA;GA;30339;USA;770 434 1744
6193;4203;Claires;COLONIAL PARK MALL;4600 JONESTOWN RD SPC 20;HARRISBURG;PA;17109;USA;717 545 8719
6194;5303;Claires;WESTLAND MALL-HIALEAH;1675 W 49TH STREET;HIALEAH;FL;33012;USA;305 558 4635
6195;7014;Claires;WATERTOWN MALL;1300 9TH AVE, S.E.;WATERTOWN;SD;57201;USA;605 882 3948
6198;6111;Claires;FIREWHEEL TOWN CENTER;385 CEDAR SAGE DRIVE;GARLAND;TX;75040;USA;972 495 1960
6199;7016;Claires;BURNSVILLE CENTER;1041 BURNSVILLE CENTER;BURNSVILLE;MN;55306;USA;952 435 3606
6201;4316;Claires;ROOSEVELT FIELD MALL;630 OLD COUNTRY ROAD SPC 1079A;GARDEN CITY;NY;11530;USA;516 873 5332
6202;7108;Claires;SIERRA VISTA MALL;1050 SHAW AVENUE  STE 1015;CLOVIS;CA;93612;USA;559 297 5369
6204;7017;Claires;SOUTHPARK MALL-SPENCER;901 11TH STREET, S.W.;SPENCER;IA;51301;USA;712 262 0078
6205;4124;Claires;BEACHWOOD PLACE;26300 CEDAR ROAD;BEACHWOOD;OH;44122;USA;216 292 4219
6206;4308;Claires;WST-MONTGOMERY;7101 DEMOCRACY BLVD #1000;BETHESDA;MD;20817;USA;301 469 9606
6207;7101;Claires;EVERETT MALL;1402 SE EVERETT MALL WAY #193;EVERETT;WA;98208;USA;425 347 5149
6208;5301;Claires;GALLERIA AT GRAN CARIBE #20-A;CARR. ESTATAL NUM 2, KM 29.7;VEGA ALTA;PR;00692;USA;787 883 8078
6212;7016;Claires;WOODBURY LAKES;9140 HUDSON ROAD;WOODBURY;MN;55125;USA;651 730 0083
6213;4210;Claires;EASTVIEW;201 EASTVIEW MALL;VICTOR;NY;14564;USA;585 425 4050
6216;6008;Claires;PUENTE HILLS MALL;1600 S AZUSA AVENUE UNIT #138;CITY OF INDUSTRY;CA;91748;USA;626 965 3520
6219;4326;Claires;TANGER O.C. REHOBOTH;36698 BAYSIDE OUTLET DR.STE270;REHOBOTH BEACH;DE;19971;USA;302 227 3680
6220;5311;Claires;TANGER O.C. FOLEY;2601 S. MCKENZIE ST SUITE 116;FOLEY;AL;36535;USA;251 943 4244
6221;5305;Claires;SANIBEL FACTORY STORES;20350 SUMMERLIN ROAD #3160;FORT MYERS;FL;33908;USA;239 466 0110
6223;7015;Claires;THUNDERBIRD MALL;1408 S. 12TH AVE SUITE A;VIRGINIA;MN;55792;USA;218 741 2207
6224;7209;Claires;SOUTHLANDS;6155 SOUTH MAIN STREET #E110;AURORA;CO;80016;USA;303 627 6268
6225;6205;Claires;CENTRAL MALL-PORT ARTHUR;3100 HIGHWAY 365;PORT ARTHUR;TX;77642;USA;409 722 8751
6226;7106;Claires;VACAVILLE PREMIUM OUTLETS;131M NUT TREE ROAD SUITE B;VACAVILLE;CA;95687;USA;707 446 2218
6230;4121;Claires;BRIDGEWATER FALLS;3423 PRINCETON ROAD #131;HAMILTON;OH;45011;USA;513 894 1600
6232;7211;Claires;THE OUTLETS @ CASTLE ROCK;5050 FACTORY SHOPS BLVD  #655;CASTLE ROCK;CO;80108;USA;303 688 2792
6233;7208;Claires;TANGER O.C. PARK CITY;6699 N. LANDMARK DRIVE;PARK CITY;UT;84098;USA;435 649 4119
6234;5305;Claires;ELLENTON PREMIUM OUTLETS;5363 FACTORY SHOPS BLVD.;ELLENTON;FL;34222;USA;941 723 6919
6235;5208;Claires;JACKSON PLAZA;377 WEST JACKSON STREET;COOKEVILLE;TN;38501;USA;931 526 9976
6236;5207;Claires;BOONE MALL;1180 BLOWING ROCK ROAD;BOONE;NC;28607;USA;828 262 5759
6237;5210;Claires;CALHOUN PREMIUM OUTLETS;455 BELWOOD ROAD;CALHOUN;GA;30701;USA;706 625 3377
6238;5308;Claires;SEMINOLE TOWNE CENTER;273 TOWNE CENTER BLVD;SANFORD;FL;32771;USA;407 321 7436
6240;4204;Claires;LAUREL MALL;260 LAUREL MALL;HAZLE TOWNSHIP;PA;18202;USA;570 459 2117
6243;5208;Claires;STONES RIVER MALL;1720 OLD FORT PARKWAY SPC#B130;MURFREESBORO;TN;37129;USA;615 848 6907
6244;4326;Claires;CONCORD MALL;4737 CONCORD PIKE;WILMINGTON;DE;19803;USA;302 477 0336
6246;5310;Claires;FLORENCE MALL;301 COX CREEK BLVD;FLORENCE;AL;35630;USA;256 766 2680
6247;5302;Claires;PLAZA CAROLINA;HWY #3 & LOIZA AVENUE #256;CAROLINA;PR;00987;USA;787 762 7209
6252;6110;Claires;HIGHLAND VILLAGE M.P.;1501 COTTONWOOD CREEK;HIGHLAND VILLAGE;TX;75077;USA;972 317 4352
6253;6113;Claires;WESTWOOD VILLAGE;33020 FM 2978 SPC #525;MAGNOLIA;TX;77354;USA;832 934 0719
6255;6006;Claires;THE SHOPPES @ CHINO HILLS;13865 CITY CENTER DRIVE #3075;CHINO HILLS;CA;91709;USA;909 548 3283
6257;6106;Claires;VILLAGE AT STONE OAK;22706 US HGHWY 281 NORTH #103;SAN ANTONIO;TX;78259;USA;210 497 3708
6258;6111;Claires;WAXAHACHIE TOWNE CENTER;1314 HWY 77 NORTH SPC # 3;WAXAHACHIE;TX;75165;USA;972 937 0133
6260;5203;Claires;THE SHOPPES AT RIVER CROS;5080 RIVERSIDE DR  SPC #406;MACON;GA;31210;USA;478 475 4291
6263;6105;Claires;PALMS CROSSING;3300 EXPRESSWAY 83 SPC # 175;MC ALLEN;TX;78501;USA;956 683 0367
6264;4220;Claires;PATRIOT PLACE;270 PATRIOT PLACE SPC # E-13;FOXBOROUGH;MA;02035;USA;508 543 4241
6268;6012;Claires;TEMPE MARKETPLACE;2000 E.RIO SALADO PKWY # 1233;TEMPE;AZ;85281;USA;480 921 4265
6269;5001;Claires;MARSHFIELD MALL;503 IVES STREET;MARSHFIELD;WI;54449;USA;715 384 3299
6271;4308;Claires;FAIR OAKS MALL;11750 FAIR OAKS;FAIRFAX;VA;22033;USA;703 359 0582
6273;4107;Claires;BRIARWOOD;670B BRIARWOOD CIRCLE;ANN ARBOR;MI;48108;USA;734 930 1655
6274;5304;Claires;BOYNTON BEACH MALL;801 N. CONGRESS AVE.  ROOM 747;BOYNTON BEACH;FL;33426;USA;561 732 5351
6277;4213;Claires;CROSSGATES MALL;1 CROSSGATES MALL ROAD  C209;ALBANY;NY;12203;USA;518 456 6123
6278;5206;Claires;CROSS CREEK MALL;232 CROSS CREEK MALL;FAYETTEVILLE;NC;28303;USA;910 487 3708
6280;5305;Claires;EDISON MALL;4125 CLEVELAND AVE SPC #1801;FORT MYERS;FL;33901;USA;239 936 5600
6281;4212;Claires;WESTFARMS;500 WESTFARMS MALL SPC #217;FARMINGTON;CT;06032-2615;USA;860 313 0024
6282;4306;Claires;SPRINGFIELD MALL-PA;1250 BALTIMORE PIKE;SPRINGFIELD;PA;19064;USA;610 544 2333
6283;6112;Claires;MEMORIAL CITY MALL;303 MEMORIAL CITY SPC #707A;HOUSTON;TX;77024;USA;713 973 7756
6285;6001;Claires;QUEENS MARKETPLACE;201 WAIKOLOA BEACH DRIVE;WAIKOLOA;HI;96738;USA;808 886 8905
6288;7108;Claires;WEST VALLEY MALL;3200 N. NAGLEE ROAD SPC # 233;TRACY;CA;95376;USA;209 833 6297
6289;6113;Claires;CYPRESS TOWNE CENTER;25905 NW FREEWAY;CYPRESS;TX;77429;USA;281 256 2645
6290;5002;Claires;GOLF MILL;282 GOLF MILL S.C.SPACE 282;NILES;IL;60714;USA;847 297 3449
6293;7212;Claires;LINCOLN CITY OUTLETS;1500 SE E. DEVILS LAKE RD #600;LINCOLN CITY;OR;97367;USA;541 996 6632
6294;7106;Claires;ARDEN FAIR;1689 ARDEN WAY SPC# 2184A;SACRAMENTO;CA;95815;USA;916 922 9951
6298;7015;Claires;ROSEDALE CENTER;10 ROSEDALE CENTER STE 560;ROSEVILLE;MN;55113;USA;651 631 1826
6299;6007;Claires;NORTHRIDGE FASHION CENTER;9301 TAMPA AVENUE;NORTHRIDGE;CA;91324;USA;818 886 8826
6301;6011;Claires;OUTLETS AT ANTHEM;4250 W. ANTHEM WAY;PHOENIX;AZ;85086;USA;623 465 7178
6306;6212;Claires;647 MASSACHUSETTS ST;647 MASSACHUSETTS ST;LAWRENCE;KS;66044;USA;785 840 9149
6307;4212;Claires;TANGER O.C. WESTBROOK;314 FLAT ROCK ROAD;WESTBROOK;CT;06498;USA;860 399 7905
6308;6111;Claires;TANGER O.C. TERRELL;301 TANGER DRIVE;TERRELL;TX;75160;USA;972 524 6442
6309;4306;Claires;CUMBERLAND MALL;3849 SOUTH DELSEA DRIVE #B-23;VINELAND;NJ;08360;USA;856 327 8889
6311;5004;Claires;BURR RIDGE VILLAGE CENTER;480 VILLAGE CENTER DRIVE;BURR RIDGE;IL;60527;USA;630 325 4283
6312;5208;Claires;NASHVILLE WEST S.C.;6720 CHARLOTTE PIKE #101;NASHVILLE;TN;37209;USA;615 353 2728
6320;7110;Claires;WST-OAKRIDGE;925 BLOSSOM HILL RD STE #1547;SAN JOSE;CA;95123;USA;408 362 0662
6322;6107;Claires;LAKELINE MALL;11200 LAKELINE MALL DR SP B-2;CEDAR PARK;TX;78613;USA;512 331 7343
6324;5010;Claires;TANGER O.C. TUSCOLA;I-57 AND US 36  C-100;TUSCOLA;IL;61953;USA;217 253 6506
6328;5001;Claires;TOS AT OSHKOSH;3001 SOUTH WASHBURN ST. #D180;OSHKOSH;WI;54901;USA;920 235 3148
6333;6206;Claires;VICKSBURG FACTORY OUTLET;4000 SOUTH FRONTAGE ROAD;VICKSBURG;MS;39180;USA;601 638 1235
6336;5304;Claires;CORAL SQUARE;9299 W. ATLANTIC BLVD.;CORAL SPRINGS;FL;33071;USA;954 755 6831
6337;5307;Claires;LAKELAND SQUARE MALL;3800 N. HIGHWAY 98;LAKELAND;FL;33805;USA;863 859 6274
6338;4125;Claires;BOULEVARD MALL;716 ALBERTA DRIVE #529;BUFFALO;NY;14226;USA;716 835 4430
6339;6113;Claires;WILLOWBROOK MALL;1152 WILLOWBROOK MALL;HOUSTON;TX;77070-5789;USA;281 894 5720
6347;5210;Icing;TOWN CENTER AT COBB;400 ERNEST BARRETT PKWY #D04A;KENNESAW;GA;30144;USA;770 421 8021
6348;4125;Icing;WALDEN GALLERIA;SPACE # D-220 WALDEN GALLERIA;BUFFALO;NY;14225;USA;716 685 9132
6349;7102;Claires;SOUTHCENTER;2836 SOUTHCENTER MALL;TUKWILLA;WA;98188;USA;206 243 0845
6350;4324;Claires;PARAMUS PARK;700 PARAMUS PARK MALL #1650;PARAMUS;NJ;07652;USA;201 261 6643
6351;4124;Claires;AURORA FARMS PREMIUM OUTLETS;549 S CHILLICOTHE RD SPC 200;AURORA;OH;44202;USA;330 995 9231
6353;6110;Claires;SOUTHLAKE TOWN SQUARE;323 GRAND AVE EAST;SOUTHLAKE;TX;76092;USA;817 416 4295
6354;5309;Claires;ST. AUGUSTINE PREMIUM OUTLETS;2700 STATE RD 16, STE 201;ST. AUGUSTINE;FL;32092;USA;904 824 1996
6355;5308;Claires;INDIAN RIVER MALL;6200 20TH STREET;VERO BEACH;FL;32966;USA;772 770 1644
6359;5304;Claires;THE GARDENS MALL;3101 PGA BLVD.;PALM BEACH GARDENS;FL;33410;USA;561 775 5602
6361;5010;Claires;EDINBURGH PREMIUM OUTLETS;11701 NORTH EXECUTIVE DRIVE;EDINBURGH;IN;46124;USA;812 526 7824
6364;5201;Claires;CAROLINA PREMIUM OUTLETS;1025 OUTLET CENTER DR   STE510;SMITHFIELD;NC;27577;USA;919 989 6966
6370;4110;Claires;TANGER O.C. HOWELL;1475 NORTH BURK HART ROAD;HOWELL;MI;48843;USA;517 545 3675
6371;5305;Claires;EAGLE RIDGE MALL;728 EAGLE RIDGE DRIVE SP 412;LAKE WALES;FL;33853;USA;863 678 0443
6373;4302;Claires;LIVINGSTON MALL;112 EISENHOWER PARKWAY #1069;LIVINGSTON;NJ;07039;USA;973 535 3221
6376;5303;Claires;DUVAL STREET;402 DUVAL STREET;KEY WEST;FL;33040;USA;305 292 9867
6378;7108;Claires;MEADOWOOD MALL;5410 MEADOWOOD MALL CIR;RENO;NV;89502;USA;775 827 8111
6380;4219;Claires;SOLOMON POND MALL;601 DONALD LYNCH BLVD;MARLBOROUGH;MA;01752;USA;508 303 0289
6382;6010;Claires;LAKEWOOD CENTER;371 LAKEWOOD CENTER  SPC371;LAKEWOOD;CA;90712-2409;USA;562 602 1456
6383;5308;Claires;THE LOOP - KISSIMEE;3228 NORTH JOHN YOUNG PKWY;KISSIMMEE;FL;34741;USA;407 931 0225
6386;6010;Claires;STONEWOOD CENTER;346 E STONEWOOD STREET SP G-13;DOWNEY;CA;90241;USA;562 862 2234
6389;4105;Claires;BIRCH RUN PREMIUM OUTLETS;12365 S. BEYER SPC#C-065;BIRCH RUN;MI;48415;USA;989 624 4005
6390;6010;Claires;BURBANK TOWN CENTER;201 E. MAGNOLIA BLVD. #388;BURBANK;CA;91502;USA;818 558 7426
6391;7103;Claires;WASHINGTON SQUARE-TIGARD;9612 SW WASHINGTON SQUARE RD;TIGARD;OR;97223;USA;503 620 5857
6392;7110;Claires;EASTRIDGE-SAN JOSE;2200 EASTRIDGE LOOP SPC.#2043;SAN JOSE;CA;95129;USA;408 274 0874
6393;6010;Claires;WESTMINSTER MALL-CA;1065 WESTMINSTER MALL;WESTMINSTER;CA;92683;USA;714 891 3995
6394;6010;Claires;WST-MAINPLACE;2800 NORTH MAIN PLACE;SANTA ANA;CA;92705;USA;714 953 7470
6395;4317;Claires;MONMOUTH MALL;ROUTE 35 & WYCOFF ROAD;EATONTOWN;NJ;07724;USA;732 389 8810
6397;6002;Claires;PISMO BEACH PREMIUM OUTLETS;333 FIVE CITIES DRIVE;PISMO BEACH;CA;93449-5003;USA;805 773 9010
6401;6110;Claires;IRVING MALL;2408 IRVING MALL;IRVING;TX;75062;USA;972 252 4433
6403;6205;Claires;PRIEN LAKE MALL;460 W. PRIEN LAKE ROAD;LAKE CHARLES;LA;70601;USA;337 477 0260
6405;5203;Claires;TANGER O.C. LOCUST GROVE;1000 TANGER DRIVE;LOCUST GROVE;GA;30248;USA;770 957 7476
6406;7210;Claires;ORCHARD TOWN CENTER;14643 ORCHARD PARKWAY SPC #600;WESTMINSTER;CO;80020;USA;303 450 0573
6408;7108;Claires;MARKETPLACE @ RIVER PARK;7810 VIA DEL RIO SPC #220-A;FRESNO;CA;93720;USA;559 261 4515
6409;5001;Claires;OUTLET AT THE DELLS;210 GASSER ROAD;BARABOO;WI;53913;USA;608 253 4569
6410;6001;Claires;QUEEN KA'AHUMANU CENTER;275 KAAHUMANU AVENUE SPC# 1BO7;KAHULUI;HI;96732;USA;808 871 2434
6411;4212;Claires;THE SHOPPES @ FARMINGTON;110 ALBANY TURNPIKE;CANTON;CT;06019;USA;860 693 4305
6413;7210;Claires;PROMENADE SHOPS AT CENTERRA;5897 SKY POND DRIVE # K-154;LOVELAND;CO;80538;USA;970 613 0256
6414;6008;Claires;WESTSIDE PAVILION;10800 W. PICO BLVD.;WEST LOS ANGELES;CA;90064;USA;310 446 0063
6415;6111;Claires;SHERMAN TOWN CENTER;3916 TOWN CENTER STREET;SHERMAN;TX;75091;USA;903 891 7229
6420;6211;Claires;BRANSON LANDING;715 BRANSON LANDING BLVD;BRANSON;MO;65616;USA;417 239 0186
6421;7212;Claires;LANCASTER MALL;831 LANCASTER DRIVE N.E.;SALEM;OR;97301;USA;503 588 8005
6422;6104;Claires;COTTONWOOD MALL;10000 COORS BY PASS;ALBUQUERQUE;NM;87114;USA;505 792 9011
6424;6214;Claires;THE MEADOWS;20 MEADOWS CIRCLE DR SPC#206;LAKE SAINT LOUIS;MO;63367;USA;636 695 4233
6425;4110;Claires;SOMERSET COLLECTION;2800 N.W. BIG BEAVER RD.;TROY;MI;48084;USA;248 649 5880
6426;5304;Claires;BROWARD MALL;8000 W BROWARD BLVD SPC 1323;PLANTATION;FL;33388;USA;954 236 2292
6427;4217;Claires;BERKSHIRE MALL-LANESBORO;655 CHESHIRE ROAD;LANESBORO;MA;01237;USA;413 499 5572
6430;6007;Claires;WST-SANTA ANITA;400 S BALDWIN  STE #C-14;ARCADIA;CA;91007;USA;626 574 9564
6431;5310;Claires;BIG SPRINGS VILLAGE;11521 US HWY 431 SOUTH SPC #K;GUNTERSVILLE;AL;35976;USA;256 891 4985
6432;6004;Claires;PARKWAY PLAZA;733 PARKWAY PLAZA;EL CAJON;CA;92020;USA;619 447 6559
6433;6004;Claires;WST-HORTON PLAZA;269 HORTON PLAZA  BOX 86;SAN DIEGO;CA;92101;USA;619 338 9277
6436;6105;Claires;OUTLET SHOPPES AT EL PASO;7051 SOUTH DESERT BLVD #E507;CANUTILLO;TX;79835;USA;915 877 5609
6438;4125;Claires;F.O. NIAGARA FALLS USA;1952 MILITARY ROAD SP #65;NIAGARA FALLS;NY;14304;USA;716 298 5772
6440;4122;Claires;RICHLAND MALL;636 RICHLAND MALL;MANSFIELD;OH;44906;USA;419 529 8855
6441;6002;Claires;TULARE OUTLET CENTER;1405 RETHERFORD STREET;TULARE;CA;93274;USA;559 687 1241
6443;5004;Claires;STRATFORD SQUARE MALL;902 STRATFORD SQUARE MALL;BLOOMINGDALE;IL;60108;USA;630 307 7753
6447;5201;Claires;GREENVILLE MALL;714 SOUTHEAST GREENVILLE BLVD;COLONIAL-GREENVILLE;NC;27858;USA;252 756 2478
6448;5206;Claires;CRABTREE VALLEY MALL;4325 GLENWOOD AVENUE;RALEIGH;NC;27612;USA;919 781 6431
6450;6112;Claires;FIRST COLONY MALL;16535 SOUTHWEST FREEWAY  #105;SUGARLAND;TX;77479;USA;281 491 2772
6451;6002;Claires;SANTA MARIA TOWN CENTER;130 TOWN CENTER EAST;SANTA MARIA;CA;93454;USA;805 928 0181
6452;4220;Claires;SWANSEA MALL;262 SWANSEA MALL DRIVE;SWANSEA;MA;02777;USA;508 678 7720
6453;7108;Claires;SHERWOOD MALL;5308 PACIFIC AVE., SUITE #9;STOCKTON;CA;95207;USA;209 473 8849
6454;6003;Claires;GALLERIA AT SUNSET;1300 WEST SUNSET ROAD;HENDERSON;NV;89014;USA;702 434 4377
6455;5009;Claires;TANGER O.C. WILLIAMSBURG;116 TANGER DRIVE;WILLIAMSBURG;IA;52361;USA;319 668 9582
6456;5202;Claires;AZALEA SQUARE;464B AZALEA SQUARE BLVD;SUMMERVILLE;SC;29483;USA;843 871 4893
6457;5002;Claires;BROOKFIELD SQUARE;95 N. MOORLAND ROAD SPC #D-9;BROOKFIELD;WI;53005;USA;262 860 1302
6460;6001;Claires;KUKUI GROVE CENTER;3-2600 KAUMUALII HWY #1910;LIHUE;HI;96766;USA;808 245 8597
6461;4122;Claires;RICHMOND SQUARE;GARWOOD RD & US 40E #525;RICHMOND;IN;47374;USA;765 939 2534
6462;6205;Claires;TANGER O.C. GONZALES;2200 TANGER BLVD  SPACE #124;GONZALES;LA;70737;USA;225 647 2406
6463;4105;Claires;HERITAGE PARK PLACE;6311 DORT HWY;GRAND BLANC;MI;48439;USA;810 694 7702
6465;6001;Claires;PRINCE KUHIO PLAZA;111 EAST PUAINAKO ST.;HILO;HI;96720;USA;808 959 2075
6467;5201;Claires;BERKELEY MALL;613K BERKELEY BLVD.;GOLDSBORO;NC;27534;USA;919 751 2722
6468;5309;Claires;TIFTON MALL;458 VIRGINIA AVENUE SPACE #3-A;TIFTON;GA;31794;USA;229 388 1622
6471;7014;Claires;COLUMBIA-GRAND FORKS;2800 COLUMBIA RD. SP #437;GRAND FORKS;ND;58201;USA;701 775 3351
6472;5304;Claires;SAWGRASS MILLS;12801 W. SUNRISE BLVD SP.303;SUNRISE;FL;33323;USA;954 851 9957
6473;6212;Claires;COLUMBIA-MO;2300 W. BERNADETTE DR. SPC 502;COLUMBIA;MO;65203;USA;573 446 0297
6474;6112;Claires;RICE VILLAGE ARCADE MALL;2509 AMHEARST;HOUSTON;TX;77005;USA;713 521 1076
6476;6205;Claires;MALL OF LOUISIANA;6401 BLUBONNET BLVD SPC #110;BATON ROUGE;LA;70836;USA;225 757 1725
6477;4122;Claires;THE MALL @ TUTTLE CROSSING;5043 TUTTLE CROSSING;DUBLIN;OH;43016;USA;614 799 0403
6481;6207;Claires;BONITA LAKES MALL;1570 BONITA LAKES CIRCLE;MERIDIAN;MS;39301;USA;601 483 3136
6483;4124;Claires;SOUTHPARK;500 SOUTHPARK CENTER ROAD;STRONGSVILLE;OH;44136;USA;440 846 2334
6485;4105;Claires;GENESEE VALLEY MALL;3361 SOUTH LINDEN ROAD;FLINT;MI;48507;USA;810 230 7611
6488;5207;Claires;SOUTHPARK;4400 SHARON ROAD #V10;CHARLOTTE;NC;28211;USA;704 367 0785
6492;6201;Claires;LEIGH MALL;1404 OLD ABERDEEN ROAD;COLUMBUS;MS;39701;USA;662 327 4414
6495;5007;Claires;SOUTHPARK MALL-MOLINE;4500 16TH STREET, SPC.388;MOLINE;IL;61265;USA;309 797 4807
6496;5007;Claires;NORTHPARK-DAVENPORT;320 W. KIMBERLY  SPC 154 & 156;DAVENPORT;IA;52806;USA;563 391 8312
6498;7016;Claires;MALL OF AMERICA;394 N. GARDEN     SPCW365;BLOOMINGTON;MN;55425;USA;952 851 0050
6499;4302;Claires;JERSEY GARDENS;651 KAPKOWSKI ROAD, SPACE#2460;ELIZABETH;NJ;07201;USA;908 282 0210
6502;4306;Claires;THE SHOPS @ LIBERTY PLACE;1625 CHESTNUT STREET;PHILADELPHIA;PA;19103;USA;215 564 0640
6504;4218;Claires;CAPE COD MALL;793 IYANNOUGH ROAD;HYANNIS;MA;02601;USA;508 775 0617
6508;4123;Claires;THE GALL. @ PITTS. MILLS;442 PITTSBURGH MILLS CIRCLE;TARENTUM;PA;15084;USA;724 274 4229
6510;4217;Claires;GREENDALE MALL;7 NEPONSET STREET;WORCESTER;MA;01606;USA;508 856 0899
6517;4315;Claires;QUEENS CENTER;90-15 QUEENS BLVD   #3024;ELMHURST;NY;11373;USA;718 271 3009
6520;7111;Icing;SANTA ROSA PLAZA;1046 SANTA ROSA PLAZA;SANTA ROSA;CA;95401;USA;707 579 5538
6530;4317;Claires;WOODBRIDGE CENTER;413 WOODBRIDGE CENTER DRIVE;WOODBRIDGE;NJ;07095;USA;732 634 4405
6537;4308;Claires;FASHION CTR AT PENTAGON CITY;1100 S. HAYES STREET # X-5;ARLINGTON;VA;22202;USA;703 415 8118
6543;7210;Claires;FRONTIER MALL;1400 DELL RANGE BLVD;CHEYENNE;WY;82009;USA;307 778 0522
6545;5201;Claires;TANGER O.C. NAGS HEAD;7100 S. CROATAN HIGHWAY SP.88;NAGS HEAD;NC;27959;USA;252 480 1701
6548;4219;Claires;SETTLERS GREEN O.VILLAGE;2 COMMON CT.UNIT #D18;NORTH CONWAY;NH;03860;USA;603 356 9285
6552;4203;Claires;TANGER O C  OF HERSHEY;145 OUTLET SQUARE;HERSHEY;PA;17033;USA;717 520 1231
6555;6111;Claires;CENTRAL TEXAS MARKETPLACE;2412 WEST LOOP 340;WACO;TX;76711;USA;254 662 0114
6557;5201;Claires;PEMBROKE MALL;4554 VIRGINIA BEACH BLVD #700;VIRGINIA BEACH;VA;23462;USA;757 554 0123
6558;6107;Claires;TANGER O.C. SAN MARCOS;4015 I-35 SOUTH;SAN MARCOS;TX;78666;USA;512 353 1431
6559;7015;Claires;NORTH BRANCH OUTLET;38500 TANGER DRIVE SUITE 201;NORTH BRANCH;MN;55056;USA;651 674 2044
6561;5305;Claires;COASTLAND CENTER;1942 N. TAMIAMI TRAIL #J-3;NAPLES;FL;34102;USA;239 262 0226
6563;5308;Claires;THE AVENUE VIERA;2261 TOWN CENTER AVE SPC #141;MELBOURNE;FL;32940;USA;321 631 9120
6564;7206;Claires;KALISPELL CENTER MALL;20 NORTH MAIN ST.;KALISPELL;MT;59901;USA;406 755 1757
6567;7211;Claires;FLATACRES MARKET CENTER;11469 S.TWENTY MILE ROAD;PARKER;CO;80134;USA;720 842 5054
6568;6003;Claires;LAS VEGAS PREMIUM OUTLETS-STH;7400 LAS VEGAS BLVD SOUTH;LAS VEGAS;NV;89123;USA;702 260 4363
6570;4107;Claires;FINDLAY VILLAGE MALL;1800 TIFFIN AVENUE;FINDLAY;OH;45840;USA;419 420 0189
6571;7208;Claires;NEWGATE MALL;3651 WALL AVE SPACE 1068;OGDEN;UT;84405;USA;801 622 2416
6572;6010;Claires;ONTARIO MILLS;ONE ONTARIO MILLS CIRCLE #1025;ONTARIO;CA;91764;USA;909 484 3999
6575;4210;Claires;SHOPPINGTOWN MALL;3649 ERIE BOULEVARD EAST #38;DEWITT;NY;13214;USA;315 251 0603
6576;6112;Claires;THE GALLERIA-HOUSTON;5135 WEST ALABAMA STREET;HOUSTON;TX;77056;USA;713 963 0255
6577;6201;Claires;WOLFCHASE GALLERIA;2760 NORTH GERMANTOWN #211;MEMPHIS;TN;38133;USA;901 381 4573
6578;5001;Claires;JOHNSON CREEK OUTLET CTR;595 WEST LINMAR LANE STE B110;JOHNSON CREEK;WI;53038;USA;920 699 3903
6579;7015;Claires;ALBERTVILLE PREMIUM OUTLETS;6415 LABEAUX AVE # B 140;ALBERTVILLE;MN;55301;USA;763 497 8885
6581;5210;Claires;NORTHLAKE-ATLANTA;4800 BRIAR CLIFF ROAD #2016;ATLANTA;GA;30345;USA;770 492 0308
6583;5301;Claires;PLAZA DEL ATLANTICO;PR 2, KM 80.3  SPC #15;ARECIBO;PR;00612;USA;787 879 1793
6586;7111;Claires;THE SHOPS AT TANFORAN;1150  EL CAMINO REAL;SAN BRUNO;CA;94066;USA;650 588 5930
6589;4315;Claires;210 86TH STREET;210 E. 86TH STREET;NEW YORK;NY;10028;USA;212 988 1143
6590;5210;Claires;ARBOR PLACE;6700 DOUGLAS BLVD.;DOUGLASVILLE;GA;30135;USA;678 838 9095
6591;6109;Claires;HILLSIDE VILLAGE;205 WEST FM 1382 SPC# 617;CEDAR HILL;TX;75104;USA;972 291 7594
6592;6211;Claires;SMITH FARM CROSSING;9031 NORTH 121 EAST AVE;OWASSO;OK;74055;USA;918 376 9319
6593;7206;Claires;SPOKANE VALLEY MALL;14700 INDIANA AVE    #2046;SPOKANE;WA;99216;USA;509 893 0532
6594;6214;Claires;OSAGE BEACH PREMIUM OUTLET;4540 HIGHWAY 54,SPC A-4;OSAGE BEACH;MO;65065;USA;573 348 1608
6595;4308;Claires;SPRINGFIELD MALL;6500 SPRINGFIELD MALL SPC12048;SPRINGFIELD;VA;22150;USA;703 922 0198
6596;6007;Claires;LAKE ARROWHEAD VILLAGE;28200 HWY 189;LAKE ARROWHEAD;CA;92352;USA;909 336 9033
6597;4217;Claires;NATICK COLLECTION;1245 WORCESTER ST #1176;NATICK;MA;01760;USA;508 651 9359
6598;4218;Claires;COLONY PLACE;134 COLONY PLACE;PLYMOUTH;MA;02360;USA;508 746 2742
6599;4123;Claires;TANGER O.C. PITTSBURGH;2200 TANGER BLVD SPC # 932;WASHINGTON;PA;15301;USA;724 222 2493
6600;7103;Claires;SEASIDE FACTORY OUTLET;1111 NORTH ROOSEVELT DRIVE;SEASIDE;OR;97138;USA;503 738 6727
6601;5009;Claires;JORDAN CREEK TOWN CENTER;101 JORDAN CREEK PRKWY #11460;WEST DES MOINES;IA;50266;USA;515 223 1501
6602;5304;Claires;CORAL RIDGE MALL;3200 N. FEDERAL HWY   SPC 603;FT LAUDERDALE;FL;33306;USA;954 567 0187
6603;4219;Claires;NORTHSHORE MALL;210 ANDOVER STREET;PEABODY;MA;01960;USA;978 531 5392
6604;4317;Claires;JACKSON PREMIUM OUTLETS;537 MONMOUTH ROAD;JACKSON;NJ;08527;USA;732 833 1200
6605;7210;Claires;MERIDIAN CROSSROADS;1400 N. EAGLE RD. SUITE 105;MERIDIAN;ID;83642;USA;208 288 2245
6606;4306;Claires;THE COURT AT KING OF PRUSSIA;690 WEST DEKALB PIKE #2075;KING OF PRUSSIA;PA;19406;USA;610 337 7224
6608;5206;Claires;ALAMANCE CENTER;3176 WALTHAM BLVD;BURLINGTON;NC;27215;USA;336 584 8799
6609;5210;Claires;MT. BERRY SQUARE;722 MOUNT BERRY SQUARE NE;ROME;GA;30165;USA;706 292 9010
6610;5208;Claires;STREETS OF INDIAN LAKE;300 INDIAN LAKE BLVD #260;HENDERSONVILLE;TN;37075;USA;615 264 0314
6611;5304;Claires;SHOPS AT PEMBROKE GARDENS;14545 SW 5TH STREET;PEMBROKE PINES;FL;33027;USA;954 430 8363
6612;6002;Claires;CAMARILLO PREMIUM OUTLETS;950  CAMARILLO CENTER STE 922;CAMARILLO;CA;93010;USA;805 383 0195
6613;7111;Claires;PETALUMA VILLAGE P. O.;2200 PETALUMA BLVD.NORTH  #430;PETALUMA;CA;94952;USA;707 778 7355
6614;6001;Claires;PEARLRIDGE CENTER;98-1005 MOANALUA ROAD STE 215B;AIEA, OAHU;HI;96701;USA;808 484 1474
6615;5307;Claires;THE SHOPS AT WIREGRASS;28163 PASEO DRV SPACE # 810;WESLEY CHAPEL;FL;33543;USA;813 991 4236
6617;4316;Claires;TANGER O.C. RIVERHEAD;1308 TANGER DRIVE # 1308;RIVERHEAD;NY;11901;USA;631 727 5501
6618;5205;Claires;TANGER O.C. COMMERCE;800 STEVEN B.TANGER BLVD #510;COMMERCE;GA;30529;USA;706 336 5953
6619;5310;Claires;BRIDGE STREET TOWN CENTRE;365 THE BRIDGE STREET N.W.#113;HUNTSVILLE;AL;35806;USA;256 327 8463
6620;4326;Claires;THE CENTRE AT SALISBURY;2300 N. SALISBURY BLVD SP-J105;SALISBURY;MD;21801;USA;410 543 8378
6621;7108;Claires;WEBERSTOWN MALL;4950 PACIFIC AVENUE #215;STOCKTON;CA;95207;USA;209 957 7249
6622;4212;Claires;BRASS MILL CTR & COMMONS;495 UNION STREET        #2176;WATERBURY;CT;06702;USA;203 757 7401
6623;7017;Claires;SUNSET PLAZA;1700 MARKET LANE;NORFOLK;NE;68701;USA;402 379 4685
6625;5009;Claires;CORAL RIDGE MALL;1451 CORAL RIDGE AV.;CORALVILLE;IA;52241;USA;319 625 2645
6627;5205;Claires;NORTH GEORGIA PREMIUM OUTLETS;800 HWY 400 SOUTH SPC 755;DAWSONVILLE;GA;30534;USA;706 216 5013
6628;4217;Claires;EAST BROOK MALL;95 ROUTE 195;WILLIMANTIC;CT;06226;USA;860 456 7086
6629;5005;Claires;LIGHTHOUSE PREMIUM OUTLETS;1635 LIGHTHOUSE PLACE;MICHIGAN CITY;IN;46360;USA;219 879 0245
6630;7102;Claires;CENTRALIA F.O.;1334 LUM ROAD;CENTRALIA;WA;98531;USA;360 807 1984
6631;4220;Claires;WRENTHAM VILLAGE P.O.;1048 SOUTH STREET;WRENTHAM;MA;02093;USA;508 384 2066
6632;4107;Claires;SOUTHLAND CENTER;23000 EUREKA ROAD SPC 1125;TAYLOR;MI;48180;USA;734 287 6526
6633;4308;Claires;DULLES TOWN CENTER;21100 DULLES TOWN CIRCLE #B109;DULLES;VA;20166;USA;703 433 0978
6634;4217;Claires;LEE PREMIUM OUTLETS;290 PREMIUM OUTLETS BLVD #F290;LEE;MA;01238;USA;413 243 0222
6635;7209;Claires;GLENWOOD SPRINGS MALL;51027 HWY 6 & 24  #103;GLENWOOD SPRINGS;CO;81601;USA;970 947 0603
6636;5002;Claires;BAYSHORE TOWN CENTER;5800 N. BAYSHORE DR. # Q-115;GLENDALE;WI;53217;USA;414 964 6865
6638;4203;Claires;TOS AT GETTYSBURG;1863 GETTYSBERG VLG STE. 810;GETTYSBURG;PA;17325;USA;717 334 7131
6639;6007;Claires;WST-TOPANGA;6600 TOPANGA CANYON BLVD.;CANOGA PARK;CA;91303;USA;818 615 0993
6641;4125;Claires;WALDEN GALLERIA;ONE WALDEN GALLERIA DR;BUFFALO;NY;14225;USA;716 685 0626
6642;4210;Claires;PYRAMID MALL;40 CATHERWOOD ROAD;ITHACA;NY;14850;USA;607 266 9302
6645;7102;Claires;NORTH BEND PREMIUM OUTLETS;461 S. FORK AVENUE S.W. STE P;NORTH BEND;WA;98045;USA;425 888 4133
6646;7014;Claires;WASHINGTON SQUARE MALL;808 WASHINGTON AVENUE;DETROIT LAKES;MN;56501;USA;218 847 4817
6648;4213;Claires;WILTON MALL AT SARATOGA;3065 ROUTE 50;SARATOGA SPRINGS;NY;12866;USA;518 583 8039
6649;4105;Claires;GREAT LAKES CROSSING;4588 BALDWIN ROAD;AUBURN HILLS;MI;48326;USA;248 338 1794
6654;7111;Claires;WESTLAKE SHOPPING CENTER;456 WESTLAKE CENTER;DALY CITY;CA;94015;USA;650 755 5442
6655;6012;Claires;FOOTHILLS MALL;7401 N.LA CHOLLA BLVD STE 176;TUCSON;AZ;85741;USA;520 531 8544
6659;6104;Claires;BROADMOOR SHOPPING CENTER;1401 N. TURNER;HOBBS;NM;88240;USA;575 397 1169
6660;5201;Claires;MACARTHUR CENTER;300 MONTICELLO AVE SPACE #169;NORFOLK;VA;23510;USA;757 625 5442
6663;7106;Claires;FOLSOM PREMIUM OUTLETS;13000 FOLSOM BLVD;FOLSOM;CA;95630;USA;916 985 7168
6664;4107;Claires;JACKSON CROSSING;1224 JACKSON CROSSING;JACKSON;MI;49202;USA;517 768 2261
6667;7014;Claires;PAUL BUNYAN MALL;1401 PAUL BUNYAN DRIVE NW;BEMIDJI;MN;56601;USA;218 751 0134
6669;4121;Claires;DAYTON MALL;2700 MIAMISBURG SPC 1150;DAYTON;OH;45459;USA;937 436 5234
6670;6006;Claires;THE PROMENADE IN TEMECULA;40820 WINCHESTER;TEMECULA;CA;92591;USA;951 296 3133
6672;5308;Claires;OVIEDO MALL;1685 OVIEDO MALL BLVD;OVIEDO;FL;32765;USA;407 977 2808
6674;5001;Claires;MEMORIAL MALL;3347 KOHLER MEMORIAL DR. #C01;SHEBOYGAN;WI;53081;USA;920 208 3652
6678;5307;Claires;WST-CITRUS PARK;8135-A CITRUS PARK TOWN CENTER;TAMPA;FL;33625;USA;813 920 2168
6684;7015;Claires;NORTHTOWN-BLAINE;614 NORTHTOWN DRIVE;BLAINE;MN;55434;USA;763 783 9185
6686;5002;Claires;THE SHOPS AT FOX RIVER;2910 COMMERCE DRIVE SPC#F8;JOHNSBURG;IL;60050;USA;815 363 5045
6689;4306;Claires;PLYMOUTH MEETING MALL;500 W GERMANTOWN PIKE STE#1135;PLYMOUTH MEETING;PA;19462;USA;610 825 9170
6691;4327;Claires;LEESBURG PREMIUM OUTLETS;241 FORT EVANS ROAD;LEESBURG;VA;20176;USA;703 779 4727
6692;5310;Claires;QUINTARD MALL;700 QUINTARD DRIVE;OXFORD;AL;36203;USA;256 831 7140
6694;5012;Claires;HAMILTON TOWN CENTER;13904 TOWN CENTER BLVD;NOBLESVILLE;IN;46060;USA;317 773 5680
6695;5004;Claires;ARBORETUM OF S.BARRINGTON;100 WEST HIGGINS ROAD #H-55;SOUTH BARRINGTON;IL;60010;USA;847 836 0021
6696;5005;Claires;CITICORP CENTER;500 W. MADISON;CHICAGO;IL;60661;USA;312 648 2305
6697;5208;Claires;PROVIDENCE MARKETPLACE;401 MT JULIET ROAD SPC 510;MOUNT JULIET;TN;37122;USA;615 758 0020
6702;7212;Claires;GARDEN VALLEY SHOPPING CENTER;780 NW GARDEN VALLEY BLVD.#100;ROSEBURG;OR;97471;USA;541 957 1477
6705;7208;Claires;PROVO TOWN CENTER;1200 TOWN CENTER BLVD;PROVO;UT;84601;USA;801 852 3150
6708;6001;Claires;WINDWARD MALL;46-056 KAMEHAMEHA HWY.;KANEOHE;HI;96744;USA;808 247 6985
6709;6003;Claires;BARSTOW OUTLET CENTER;2796 TANGER WAY SPC # 325;BARSTOW;CA;92311;USA;760 253 5279
6711;4123;Claires;DUBOIS MALL;5522 SHAFFER ROAD SUITE 55;DUBOIS;PA;15801;USA;814 371 5758
6715;4210;Claires;SOUTHSIDE MALL;5006 STATE HWY 23;ONEONTA;NY;13820;USA;607 432 3696
6718;4107;Claires;ADRIAN MALL;1357 S.MAIN STREET      #1204;ADRIAN;MI;49221;USA;517 266 0149
6719;6209;Claires;GARDEN CITY SHOPPIGN CTR;2214 E. KANSAS AVENUE;GARDEN CITY;KS;67846;USA;620 271 9039
6721;5302;Claires;LAS CATALINAS;CARR.NO.1 KM 267 FSQ 798;CAGUAS;PR;00725;USA;787 746 5155
6723;6112;Claires;THE GALLERIA-HOUSTON;5015 WESTHEIMER  SPC #A1185;HOUSTON;TX;77056;USA;713 572 4743
6725;6201;Claires;CARRIAGE CROSSING;4670 MERCHANTS PARK CIRCLE;COLLIERVILLE;TN;38017;USA;901 861 4556
6727;4110;Claires;EASTLAND-HARPER WOODS;18000 E 8 MILE RD # 755;HARPER WOODS;MI;48225;USA;313 372 6810
6728;7211;Claires;PARK MEADOWS;8505 PARK MEADOWS CENTER DRIVE;LONE TREE;CO;80124;USA;303 790 4992
6730;4306;Claires;ROOSEVELT MALL;2329 COTTMAN AVENUE;PHILADELPHIA;PA;19149;USA;215 543 0496
6735;6209;Claires;MEADOWBROOK MALL S.C.;202 EAST CENTENNIAL;PITTSBURGH;KS;66762;USA;620 231 1522
6736;4125;Claires;OLEAN CENTER MALL;400 N.UNION;OLEAN;NY;14760;USA;716 373 6659
6737;6207;Claires;EDGEWOOD MALL-MCCOMB;1722 VETERANS BLVD;MC COMB;MS;39648;USA;601 250 1183
6742;5207;Claires;CAROLINA MALL;1480 US HIGHWAY 29 NORTH;CONCORD;NC;28025;USA;704 795 1432
6743;7212;Claires;WOODBURN COMPANY STORES;1001 ARNEY ROAD SUITE 419;WOODBURN;OR;97071;USA;503 981 1435
6744;4327;Claires;CROSSROADS-MT.HOPE;41 CROSSROADS MALL;MT HOPE;WV;25880;USA;304 255 1330
6745;5203;Claires;TANGER O.C. HILTON HEAD;1414 FORDING ISLAND ROAD;BLUFFTON;SC;29910;USA;843 836 3177
6751;4328;Claires;RIVER RIDGE MALL;3405 CANDLERS MTN RD;LYNCHBURG;VA;24502;USA;434 832 0829
6753;4213;Claires;AUBURN MALL;550 CENTER STREET;AUBURN;ME;04210;USA;207 795 7848
6756;6207;Claires;SAWMILL SQUARE;910 SAWMILL ROAD;LAUREL;MS;39440;USA;601 426 0030
6757;6004;Claires;FASHION VALLEY MALL;7007 FRIARS ROAD SPC # 363;SAN DIEGO;CA;92108;USA;619 296 4305
6758;5305;Claires;MIROMAR OUTLETS;10801 CORKSCREW ROAD;ESTERO;FL;33928;USA;239 948 4044
6761;5005;Claires;DOWNTOWN OAK PARK;407 N. HARLEM;OAK PARK;IL;60301;USA;708 763 9352
6762;4204;Claires;PALMER PARK MALL;2455 PARK AVENUE;EASTON;PA;18045;USA;610 923 0467
6766;5303;Claires;DOLPHIN MALL;11401 NW 12TH STREET;MIAMI;FL;33172;USA;305 436 8816
6769;5202;Claires;TANGER O.C. HWY 501-MYRTLE;4635 FACTORY STORES BLVD;MYRTLE BEACH;SC;29579;USA;843 236 0105
6772;6012;Claires;THE MALL AT SIERRA VISTA;2200 EL MERCADO LOOP;SIERRA VISTA;AZ;85635;USA;520 458 7287
6773;5308;Claires;ORLANDO INT. PREMIUM OUTLETS;4973 INTERNATIONAL DRIVE;ORLANDO;FL;32819;USA;407 351 6365
6774;6104;Claires;NORTH PLAINS MALL;2809 N. PRINCE STREET;CLOVIS;NM;88101-4473;USA;575 763 3484
6779;5201;Claires;GOLDEN EAST CROSSING;1100 N. WESLEYAN BLVD.;ROCKY MOUNT;NC;27804;USA;252 442 4919
6781;4108;Claires;RIVERTOWN CROSSINGS;3700 RIVERTOWN PARKWAY;GRANDVILLE;MI;49418;USA;616 532 3045
6784;7111;Claires;HILLTOP MALL;2445 HILLTOP MALL DRIVE RD;RICHMOND;CA;94806;USA;510 222 5134
6786;6104;Claires;RIO WEST MALL;1300 W. MALONEY AVE;GALLUP;NM;87301;USA;505 722 2810
6787;5311;Claires;PIER PARK;205 BLUEFISH DRIVE SPC #110;PANAMA CITY;FL;32413;USA;850 234 6026
6790;5205;Claires;MALL OF GEORGIA;3333 BUFORD DRIVE STE 2011;BUFORD;GA;30519;USA;678 482 7141
6793;4203;Claires;TANGER O.C. LANCASTER;901 OUTLET DRIVE;LANCASTER;PA;17602;USA;717 394 4223
6796;6002;Claires;PACIFIC VIEW VENTURA;3301 E. MAIN ST. SPACE#1101;VENTURA;CA;93003;USA;805 658 1229
6798;4220;Claires;CRYSTAL MALL;850 HARTFORD TURNPIKE;WATERFORD;CT;06385;USA;860 447 3422
6799;6211;Claires;WASHINGTON PARK MALL;2350 SE WASHINGTON BLVD;BARTLESVILLE;OK;74006;USA;918 333 2151
6803;5307;Claires;WST-BRANDON;639 BRANDON TOWN CTR DR SPC326;BRANDON;FL;33511;USA;813 655 5425
6805;6111;Claires;ALLEN PREMIUM OUTLETS;820 WEST STACY ROAD;ALLEN;TX;75013-4805;USA;972 678 0431
6808;7212;Claires;CLACKAMAS TOWN CENTER;12000 SE 82 AVENUE SPACE 1124;PORTLAND;OR;97086;USA;503 654 8145
6809;5202;Claires;MOUNT PLEASANT TOWNE CTR;1328 THEATER DRIVE;MT. PLEASANT;SC;29464;USA;843 884 4345
6810;6002;Claires;LA CUMBRE PLAZA;136 SOUTH HOPE AVE #D-108;SANTA BARBARA;CA;93105;USA;805 682 5053
6815;7106;Claires;NATOMAS MARKETPLACE;3681 TRUXEL RD;SACRAMENTO;CA;95834;USA;916 928 1282
6816;6104;Claires;CARLSBAD MALL;2302 W. PIERCE STREET;CARLSBAD;NM;88220;USA;575 628 3136
6818;5007;Claires;GERRY CENTENNIAL PLAZA;1750 DOUGLAS ROAD;OSWEGO;IL;60543;USA;630 551 2593
6822;5305;Claires;COCONUT POINT;23191 FASHION DRIVE SPC #121;ESTERO;FL;33928;USA;239 495 2975
6823;4204;Claires;SHOPES AT MONTAGE      CLAIRES;1141 SHOPPES BLVD;MOOSIC;PA;18507;USA;570 961 1510
6824;4328;Claires;NEW TOWN SHOPS;5127 MAIN STREET SPC # 800;WILLIAMSBURG;VA;23188;USA;757 220 3408
6825;7209;Claires;FLATIRON CROSSING;1 WEST FLATIRON CIRCLE;BROOMFIELD;CO;80021;USA;303 460 7707
6827;7111;Claires;HILLSDALE SHOPPING CENTER;404 HILLSDALE SHOP CTR #2132;SAN MATEO;CA;94403;USA;650 573 0594
6828;6006;Claires;BUENA PARK MALL;8281C ON THE MALL;BUENA PARK;CA;90620;USA;714 252 9029
6829;6210;Claires;PENN SQUARE MALL;1901 NW EXPRESSWAY SUITE#2008;OKLAHOMA CITY;OK;73118;USA;405 767 6912
6830;7106;Claires;GALLERIA AT ROSEVILLE;1151 GALLERIA BOULEVARD #2057;ROSEVILLE;CA;95678;USA;916 788 1484
6831;6110;Claires;STONEBRIAR CENTRE;2601 PRESTON ROAD        #1024;FRISCO;TX;75034;USA;972 668 6655
6832;6104;Claires;DURANGO MALL;800 SOUTH CAMINO DEL RIO;DURANGO;CO;81301;USA;970 247 7911
6834;4220;Claires;SILVER CITY GALLERIA;2 GALLERIA MALL DRIVE #A-114;TAUNTON;MA;02780;USA;508 822 2768
6836;5301;Claires;PLAZA GUAYNABO;STATE ROAD #20,KM.3.4 SP# 116;GUAYNABO;PR;00965;USA;787 731 8943
6842;6210;Claires;MOUNTAIN VIEW MALL;1211 NORTH COMMERCE;ARDMORE;OK;73401;USA;580 226 6324
6843;4219;Claires;THE LOOP-METHUEN;90 PLEASANT VALLEY STREET;METHUEN;MA;01844;USA;978 683 2570
6844;4298;Claires;AAFES FORT BENNING;9220 MARNE RD.;FORT BENNING;GA;31905;USA;800 252 4737
6845;4298;Claires;AAFES FORT BELVOIR;8651 JOHN J KINGMAN BLDG 2321;FORT BELVOIR;VA;22060;USA;800 252 4737
6847;4308;Claires;ARUNDEL MILLS;7000 ARUNDEL MILLS CIRCLE;HANOVER;MD;21076;USA;443 755 9880
6853;4219;Claires;TANGER O.C. TILTON;120 LACONIA ROAD;TILTON;NH;03276;USA;603 286 8477
6855;6111;Claires;THE SHOPS AT WILLOW BEND;6121 WEST PARK BLVD #C114;PLANO;TX;75093;USA;972 202 5558
6856;5307;Claires;COASTAL WAY;13105 CORTEZ BLVD;SPRING HILL;FL;34613;USA;352 592 0008
6858;5304;Claires;THE MALL @ WELLINGTON;10300 WEST FOREST HILL BLVD;WELLINGTON;FL;33414;USA;561 784 4465
6859;5307;Claires;INTERNATIONAL PLAZA;2223 N. WEST SHORE BLVD #112;TAMPA;FL;33607;USA;813 348 9133
6860;4121;Claires;ROOKWOOD COMMONS;2727 EDMONDSON ROAD;NORWOOD;OH;45209;USA;513 351 3230
6863;4110;Claires;OAKLAND MALL;656 W. 14 MILE ROAD;TROY;MI;48083;USA;248 585 9733
6866;4105;Claires;INDIAN HILLS PLAZA;4116 E. BLUE GRASS ROAD RTE 27;MT. PLEASANT;MI;48858;USA;989 775 3836
6870;5308;Claires;ORLANDO VINELAND PREM OUTLETS;8166 VINELAND RD SPC# 1707;ORLANDO;FL;32821-7819;USA;407 239 3619
6871;4108;Claires;MARKETPLACE AT WARSAW;2860 FRONTAGE ROAD;WARSAW;IN;46580;USA;574 268 2243
6872;5203;Claires;THE AVENUE PEACHTREE CITY;230 CITY CIRCLE #740;PEACHTREE CITY;GA;30269;USA;770 487 7328
6873;6111;Claires;ROCKWALL MARKET CENTER;2811 MARKET CENTER BLVD #2837;ROCKWALL;TX;75087;USA;972 772 7574
6876;5308;Claires;WATERFORD LAKES TOWN CTR;411 NORTH ALAFAYA TRAIL;ORLANDO;FL;32828;USA;407 380 2191
6878;4204;Claires;THE CROSSINGS PREMIUM OUTLETS;1000 PREMIUM OUTLET DRIVE;TANNERSVILLE;PA;18372;USA;570 619 8896
6881;7101;Claires;WENATCHEE VALLEY MALL;511 VALLEY MALL PKWY;E. WENATCHEE;WA;98802;USA;509 886 4413
6882;4108;Claires;THE LAKES MALL;5600 HARVEY STREET;MUSKEGON;MI;49444;USA;231 798 3687
6883;4308;Claires;BOWIE TOWN CENTER;15435 EMERALD WAY;BOWIE;MD;20716;USA;301 262 6070
6884;6004;Claires;LAS AMERICAS PREMIUM OUTLETS;4321 CAMINO DE LA PLAZA;SAN YSIDRO;CA;92173;USA;619 934 7154
6888;5301;Claires;PUERTO RICO PREMIUM;CARR.#2 K.M. 54.8 P.R.140 #425;BARCELONETA;PR;00617;USA;787 970 2330
6890;5004;Claires;DEER PARK TOWN CENTER;N 20530 RAND ROAD    #444;DEER PARK;IL;60010;USA;847 438 0371
6891;4123;Claires;THE MALL AT ROBINSON;100 ROBINSON CENTER DR;PITTSBURGH;PA;15205;USA;412 494 0708
6893;6207;Claires;DOGWOOD FESTIVAL MARKET;202 DOGWOOD BLVD    D-6;FLOWOOD;MS;39232;USA;601 992 6227
6894;4124;Claires;TOWER CITY CENTER;230 W. HURON ROAD;CLEVELAND;OH;44113;USA;216 685 1913
6901;5012;Claires;JEFFERSON POINTE;4120 WEST JEFFERSON BLVD;FORT WAYNE;IN;46804;USA;260 435 1658
6904;4124;Claires;MACEDONIA COMMONS;8210 MACEDONIA COMMONS BLVD.#4;MACEDONIA;OH;44056;USA;330 908 3405
6905;4324;Claires;THE WESTCHESTER;125 WESTCHESTER AVE;WHITE PLAINS;NY;10601;USA;914 761 9357
6906;6106;Claires;WESTOVER MARKETPLACE;8203 HWY 151 SPC# 109;SAN ANTONIO;TX;78245;USA;210 681 0757
6910;6210;Claires;PONCA PLAZA;2101 N.14 STREET SUITE #125;PONCA CITY;OK;74601;USA;580 765 8076
6911;5007;Claires;NORTHRIDGE PLAZA;4044 E 53RD STREET #4044;DAVENPORT;IA;52807;USA;563 355 7412
6913;5203;Claires;THE MALL AT STONECREST;2929 TURNER HILL ROAD;LITHONIA;GA;30038;USA;678 526 2699
6923;7016;Claires;EDEN PRAIRIE CENTER;8251 FLYING CLOUD DRIVE;EDEN PRAIRIE;MN;55344;USA;952 941 8757
6924;6012;Claires;CHANDLER FASHION CENTER;3111 WEST CHANDLER BLVD #2448;CHANDLER;AZ;85226;USA;480 812 4870
6926;6011;Claires;DESERT RIDGE MARKETPLACE;21001 N. TATUM BLVD #46-1450;PHOENIX;AZ;85050;USA;480 563 7671
6927;4121;Claires;NEWPORT ON THE LEVEE;1 LEVEE WAY;NEWPORT;KY;41071;USA;859 292 0240
6934;4123;Claires;THE WATERFRONT;120 WEST BRIDGE STREET;HOMESTEAD;PA;15120;USA;412 462 6110
6935;4122;Claires;POLARIS FASHION PLACE;1500 POLARIS PKWY,SUITE 2168;COLUMBUS;OH;43240;USA;614 888 0149
6950;4110;Claires;GREEN OAK VILLAGE PLACE;9775 VILLAGE PALCE BLVD;BRIGHTON;MI;48116;USA;810 229 0938
6951;6104;Claires;MESILLA VALLEY MALL;700 S. TELSHOR BLVD.;LAS CRUCES;NM;88011;USA;575 532 9116
6956;5214;Claires;THE PADDOCK SHOPS;4053 SUMMIT PLAZA DRIVE;LOUISVILLE;KY;40241;USA;502 339 8670
6958;7212;Claires;VALLEY RIVER CENTER;509 VALLEY RIVER CENTER #H11;EUGENE;OR;97401;USA;541 345 4803
6959;5215;Claires;BLUE RIDGE MALL;1800 FOUR SEASONS BOULEVARD;HENDERSONVILLE;NC;28792;USA;828 694 0099
6960;5309;Claires;LAKE CITY MALL;2469 W.US HWY 90 SUITE 172;LAKE CITY;FL;32055;USA;386 754 6913
6963;5205;Claires;THE COLLECTION AT FORSYTH;410 PEACHTREE PARKWAY SPC #148;CUMMINGS;GA;30041;USA;770 886 5659
6965;6111;Claires;PARIS TOWN CENTER;3534 LAMAR AVE;PARIS;TX;75462;USA;903 785 6465
6966;4122;Claires;FAIRFIELD COMMONS;2727 FAIRFIELD COMMONS;BEAVER CREEK;OH;45431;USA;937 427 4652
6967;4317;Claires;OCEAN COUNTY MALL;1201 HOPPER ROAD SP #455;TOMS RIVER;NJ;08753;USA;732 473 0063
6972;5303;Claires;KENDALL VILLAGE CENTER;8713 SW 124TH AVENUE SPC E-5;MIAMI;FL;33183;USA;305 630 3424
6985;6207;Claires;OAKWOOD SHOPPING CENTER;197 WESTBANK EXPRESSWAY  1740;GRETNA;LA;70053;USA;504 363 5268
6986;4213;Claires;THE MARKETPLACE @ AUGUSTA;2 STEPHEN KING DRIVE;AUGUSTA;ME;04330;USA;207 623 1561
6987;5308;Claires;TERRACE AT FLORIDA MALL;8001 S.ORANGE BLOSSOM #1250;ORLANDO;FL;32809;USA;407 855 3513
8008;7103;Icing;BENTLEY MALL;32 COLLEGE RD #13M;FAIRBANKS;AK;99701;USA;907 452 5113
8012;5310;Icing;RIVERCHASE GALLERIA;2000 RIVERCHASE GALLERIA #242;HOOVER;AL;35244;USA;205 985 0081
8022;6211;Icing;NORTHWEST ARKANSAS MALL;4201 HWY 471 N;FAYETTEVILLE;AR;72703;USA;479 442 8662
8024;6210;Icing;CENTRAL MALL - FT. SMITH;5111 ROGER AVE #159;FT SMITH;AR;72903;USA;479 452 4010
8036;6012;Icing;PARK PLACE-TUCSON;5870 E BROADWAY BLVD SPACE 430;TUCSON;AZ;85711;USA;520 747 0966
8042;6006;Icing;GALLERIA AT TYLER;2166 GALLERIA AT TYLER F219;RIVERSIDE;CA;92503;USA;951 352 0892
8046;6004;Icing;WST-MISSION VALLEY;1640 CAMINO DEL RIO N #56;SAN DIEGO;CA;92108;USA;619 260 1034
8047;7108;Icing;MERCED MALL;750 MERCED MALL #10;MERCED;CA;95348;USA;209 383 1292
8056;7108;Icing;SHERWOOD MALL;5308 PACIFIC AVE #27A;STOCKTON;CA;95207;USA;209 477 3158
8065;6010;Icing;BURBANK TOWN CENTER;201 E. MAGNOLIA BLVD. #151;BURBANK;CA;91502;USA;818 954 9690
8069;7110;Icing;GREAT MALL-BAY AREA;114 GREAT MALL DRIVE;MILPITAS;CA;95035;USA;408 956 0012
8072;7106;Icing;MT. SHASTA MALL;900 DANA DRIVE B-18;REDDING;CA;96003;USA;530 223 3235
8074;6004;Icing;WST-PLAZA BONITA;3030 PLAZA BONITA RD 1074;NATIONAL CITY;CA;91950;USA;619 267 2815
8075;6004;Icing;WESTFIELD CARLSBAD;2525 EL CAMINO REAL;CARLSBAD;CA;92008;USA;760 434 3258
8079;6002;Icing;VISALIA MALL;2175 S MOONEY BLVD;VISALIA;CA;93277;USA;559 625 4403
8080;7111;Icing;CODDINGTOWN MALL;371 CODDINGTOWN CENTER;SANTA ROSA;CA;95401;USA;707 526 7414
8082;6003;Icing;THE MALL OF VICTOR VALLEY;14400 BEAR VALLEY RD #317;VICTORVILLE;CA;92392;USA;760 241 1722
8096;6010;Icing;STONEWOOD CENTER;251 STONEWOOD STREET #B21;DOWNEY;CA;90241;USA;562 869 0282
8100;6002;Icing;VALLEY PLAZA MALL;2701 MING AVE #196;BAKERSFIELD;CA;93304;USA;661 398 0198
8106;7106;Icing;SUNRISE-CITRUS HEIGHTS;6007 SUNRISE MALL;CITRUS HEIGHTS;CA;95610;USA;916 966 1492
8107;7108;Icing;VINTAGE FAIRE MALL;3401 DALE ROAD #324;MODESTO;CA;95356;USA;209 527 8485
8108;7110;Icing;WST-OAKRIDGE;925 BLOSSOM HILL RD #1313;SAN JOSE;CA;95123;USA;408 629 2484
8110;7106;Icing;ARDEN FAIR;1689 ARDEN WAY;SACRAMENTO;CA;95815;USA;916 920 3429
8111;6006;Icing;MONTCLAIR PLACE;2196  MONTCLAIR PLAZA LANE;MONTCLAIR;CA;91763;USA;909 625 3036
8116;6004;Icing;PARKWAY;555 PARKWAY PLAZA;EL CAJON;CA;92020;USA;619 588 2288
8117;6004;Icing;WST - NORTH COUNTY;200 E VIA RANCHO PWY #115;ESCONDIDO;CA;92025;USA;760 480 7222
8120;6008;Icing;SOUTH BAY GALLERIA;1815 HAWTHORNE AVE 346;REDONDO BEACH;CA;90278;USA;310 371 2538
8121;6008;Icing;WESTSIDE PAVILION;10800 WEST PICO BLVD #362;WEST LOS ANGELES;CA;90064;USA;310 234 0344
8123;6006;Icing;THE PROMENADE IN TEMECULA;40820 WINCHESTER ROAD 1620;TEMECULA;CA;92591;USA;951 296 0885
8126;6007;Icing;NORTHRIDGE FASHION CENTER;9301 TAMPA AVENUE #48;NORTHRIDGE;CA;91324;USA;818 407 1255
8129;7209;Icing;MESA MALL;2424 US HWYS 6 & 50;GRAND JUNCTION;CO;81505;USA;970 241 1179
8133;7211;Icing;PUEBLO MALL;3515 DILLON DRIVE;PUEBLO;CO;81008;USA;719 583 8938
8137;7209;Icing;TOWN CENTER @ AURORA;14200 EAST ALAMEDA AVENUE;AURORA;CO;80012;USA;303 367 4759
8138;7211;Icing;THE CITADEL;750 CITADEL DRIVE EAST #2226B;COLORADO SPRINGS;CO;80908;USA;719 573 0559
8145;4326;Icing;CHRISTIANA MALL;513 CHRISTIANA MALL RD #528;NEWARK;DE;19702;USA;302 738 5728
8155;5307;Icing;WESTFIELD MALL BRANDON;459 BRANDON TOWN CTR DR STE358;BRANDON;FL;33511;USA;813 685 8178
8162;5308;Icing;ORLANDO FASHION SQUARE;3297 E COLONIAL DRIVE D-41;ORLANDO;FL;32803;USA;407 898 9070
8169;5305;Icing;EDISON MALL;4125 CLEVELAND AVE #1050;FORT MYERS;FL;33901;USA;239 939 5578
8203;5311;Icing;PEACHTREE MALL;3507 MANCHESTER EXPRESSWY #99;COLUMBUS;GA;31909;USA;706 322 8831
8204;6001;Icing;WINDWARD MALL;46 056 KAM HWY;KANEOHE, OAHU;HI;96744;USA;808 247 3588
8205;6001;Icing;PRINCE KUHIO PLAZA;111 E PUAINAKO ST #760;HILO;HI;96720;USA;808 959 5569
8206;6001;Icing;PEARLRIDGE CENTER;533 PEARLRIDGE CTR;AIEA, OAHU;HI;96701;USA;808 484 0259
8209;6001;Icing;PEARLRIDGE CENTER;98-1005 MOANALUA RD SUITE 236;AIEA, OAHU;HI;96701;USA;808 484 2917
8234;5010;Icing;MARKET PLACE MALL;2000 N NEIL STREET D-10;CHAMPAIGN;IL;61820;USA;217 356 9795
8252;5007;Icing;EASTLAND-BLOOMINGTON;1615 E EMPIRE B 3A;BLOOMINGTON;IL;61701;USA;309 663 8523
8259;5007;Icing;CHERRYVALE MALL;7200 HARRISON AVE #E67A;ROCKFORD;IL;61112;USA;815 332 7170
8260;5012;Icing;GLENBROOK SQUARE;4201 COLDWATER RD B-5;FORT WAYNE;IN;46805;USA;260 484 5591
8261;5214;Icing;EASTLAND MALL;800 N GREEN RIVER RD;EVANSVILLE;IN;47715;USA;812 474 9547
8263;5012;Icing;MUNCIE MALL;3501 N.GRANDVILLE AVE #J7;MUNCIE;IN;47303;USA;765 287 8102
8264;5012;Icing;GREENWOOD PARK MALL;1251 U.S. 31 NORTH;GREENWOOD;IN;46142;USA;317 882 7122
8276;6212;Icing;OAK PARK MALL;11409 W 95TH ST #44;OVERLAND PARK;KS;66214;USA;913 894 0425
8280;6209;Icing;WEST RIDGE MALL;1801 SW WANAMAKER ROAD E-3A;TOPEKA;KS;66604;USA;785 271 1218
8286;4121;Icing;FLORENCE MALL;2170 FLORENCE MALL;FLORENCE;KY;41042;USA;859 282 0729
8291;6205;Icing;SOUTHLAND MALL-HOUMA;5953 W PARK AVENUE;HOUMA;LA;70364;USA;985 872 5644
8298;6206;Icing;PECANLAND MALL;4700 MILHAVEN ROAD #1120;MONROE;LA;71203;USA;318 387 9593
8299;6205;Icing;MALL OF ACADIANA;5725 JOHNSTON ST #140;LAFAYETTE;LA;70503;USA;337 988 4389
8313;4218;Icing;SOUTH SHORE PLAZA;250 GRANITE STREET 2062A;BRAINTREE;MA;02184;USA;781 849 0618
8314;4220;Icing;EMERALD SQUARE MALL;999 S WASHINGTON ST E351;NORTH ATTLEBORO;MA;02760;USA;508 699 2024
8318;4308;Icing;WST-MONTGOMERY;7101 DEMOCRACY BLVD 1334;BETHESDA;MD;20817;USA;301 469 5914
8328;4213;Icing;THE MAINE MALL;364 MAINE MALL ROAD STE 318A;SOUTH PORTLAND;ME;04106;USA;207 541 4810
8338;4105;Icing;GENESEE VALLEY MALL;3355 LINDEN ROAD # 337;FLINT;MI;48507;USA;810 732 0397
8351;4107;Icing;SOUTHLAND CENTER;23000 EUREKA ROAD SPACE #1065;TAYLOR;MI;48180;USA;734 374 9450
8354;4108;Icing;THE CROSSDROADS-PORTAGE;6650 S WESTNEDGE AVE #237;PORTAGE;MI;49024;USA;269 329 2099
8362;7016;Icing;MALL OF AMERICA;247 EAST BROADWAY;BLOOMINGTON;MN;55425;USA;952 858 8851
8364;7015;Icing;ROSEDALE CENTER;2012 ROSEDALE CENTER;ROSEVILLE;MN;55113;USA;651 639 1315
8365;7015;Icing;MAPLEWOOD MALL;3001 WHITE BEAR AVE N STE 2086;MAPLEWOOD;MN;55109;USA;651 770 9407
8368;6214;Icing;SAINT LOUIS GALLERIA;2471 ST. LOUIS GALLERIA;ST. LOUIS;MO;63117;USA;314 721 8831
8371;6214;Icing;MID RIVERS MALL;1600 MID RIVERS MALL DR #2304;ST. PETERS;MO;63376;USA;636 279 7205
8373;6214;Icing;SOUTH COUNTY;449 SOUTH COUNTRY CENTERWAY;ST. LOUIS;MO;63129;USA;314 892 5830
8376;6212;Icing;COLUMBIA-MO;2300 BERNADETTE DR #516;COLUMBIA;MO;65203;USA;573 445 6105
8378;6212;Icing;INDEPENDENCE CENTER;18813 E 39TH STREET #D05A;INDEPENDENCE;MO;64057;USA;816 795 1558
8379;6209;Icing;NORTHPARK MALL-JOPLIN;101 RANGELINE ROAD;JOPLIN;MO;64801;USA;417 781 2664
8380;6211;Icing;BATTLEFIELD MALL;2825 GLENSTONE AVE #VC01A;SPRINGFIELD;MO;65804;USA;417 886 4101
8385;6207;Icing;NORTHPARK - RIDGELAND;1200 E COUNTY LINE RD SP# 230;RIDGELAND;MS;39157;USA;601 977 0816
8389;6207;Icing;BONITA LAKES MALL;1000 BONITA LAKES CIRCLE;MERIDIAN;MS;39301;USA;601 693 6788
8390;7206;Icing;RIMROCK MALL;300 SOUTH 24TH ST W #D-9;BILLINGS;MT;59102;USA;406 652 4434
8405;5207;Icing;CAROLINA PLACE;11025 CAROLINA PL PKWY STE A4;PINEVILLE;NC;28134;USA;704 542 3801
8413;7017;Icing;CONESTOGA MALL;3404 WEST 13TH STREET #138;GRAND ISLAND;NE;68803;USA;308 381 6659
8420;4219;Icing;MALL OF NEW HAMPSHIRE;1500 SOUTH WILLOW ST N125;MANCHESTER;NH;03103;USA;603 668 4642
8441;6104;Icing;CORONADO CENTER;6600 MENAUL NE #21;ALBUQUERQUE;NM;87110;USA;505 884 7400
8442;6104;Icing;COTTONWOOD MALL;10000 COORS BLVD NW E-239;ALBUQUERQUE;NM;87114;USA;505 897 1653
8447;6104;Icing;MESILLA VALLEY MALL;700 TELESHOR BLVD;LAS CRUCES;NM;88001;USA;575 521 4360
8450;6003;Icing;MEADOWS MALL;4300 MEADOWS LANE #2090;LAS VEGAS;NV;89107;USA;702 258 0272
8456;4210;Icing;THE MALL @ GREECE RIDGE;228 GREECE RIDGE CENTER;ROCHESTER;NY;14626;USA;585 723 5570
8466;4324;Icing;GALLERIA AT WHITE PLAINS;MAIN & COURT ST #477;WHITE PLAINS;NY;10601;USA;914 946 7220
8480;4316;Icing;SMITH HAVEN MALL;130 SMITH HAVEN MALL;LAKE GROVE;NY;11755;USA;631 724 1321
8487;4122;Icing;THE MALL AT FAIRFIELD COM.;2727 N FAIRFIELD RD # E-223;BEAVERCREEK;OH;45431;USA;937 426 0510
8491;4124;Icing;BELDEN VILLAGE;4196 BELDEN VILLAGE MALL C-7;CANTON;OH;44718;USA;330 966 0088
8494;4121;Icing;NORTHGATE-CINCINNATI;9715 COLERAIN AVE A-1A;CINCINNATI;OH;45251;USA;513 385 2579
8495;4121;Icing;DAYTON MALL;2700 MIAMISBURG MALL  #270;DAYTON;OH;45459;USA;937 434 5141
8496;4124;Icing;GREAT LAKES MALL;7850 MENTOR AVENUE #820;MENTOR;OH;44060;USA;440 255 1034
8509;4121;Icing;EASTGATE MALL;4601 616 EASTGATE BLVD;CINCINNATI;OH;45245;USA;513 752 8125
8516;4124;Icing;SOUTHPARK;1220 SOUTHPARK CENTER;STRONGSVILLE;OH;44136;USA;440 572 5651
8517;4107;Icing;FRANKLIN PARK MALL;5001 MONROE STREET T-40;TOLEDO;OH;43623;USA;419 474 4647
8529;7212;Icing;ROGUE VALLEY MALL;1600 N RIVERSIDE 2127;MEDFORD;OR;97501;USA;541 857 0664
8530;7212;Icing;CLACKAMAS TOWN CENTER;12000 SE 82ND AVE SPC G105;HAPPY VALLEY;OR;97086;USA;503 659 0337
8535;7103;Icing;WASHINGTON SQUARE-TIGARD;9565 SW WASHINGTON SQ RD #B03A;TIGARD;OR;97223;USA;503 624 0790
8537;4204;Icing;LEHIGH VALLEY MALL;163 LEHIGH VALLEY MALL #1099;WHITEHALL;PA;18052;USA;610 264 7674
8574;4203;Icing;LOGAN VALLEY MALL;5580 GOODS LANE SUITE 1063;ALTOONA;PA;16602;USA;814 941 0717
8575;4125;Icing;MILLCREEK MALL;575 MILLCREEK MALL;ERIE;PA;16565;USA;814 866 2241
8595;5205;Icing;HAYWOOD MALL;700 HAYWOOD RD;GREENVILLE;SC;29607;USA;864 297 1422
8597;7211;Icing;RUSHMORE MALL;2200 N MAPLE AVE;RAPID CITY;SD;57701;USA;605 343 4170
8607;5215;Icing;WEST TOWN MALL;7600 KINGSTON PIKE #1530;KNOXVILLE;TN;37919;USA;865 690 6235
8615;6109;Icing;MALL OF ABILENE;4310 BUFFALO GAP RD;ABILENE;TX;79606;USA;325 698 9225
8624;6206;Icing;BROADWAY SQUARE MALL;4601 S BROADWAY SPC # D-06C;TYLER;TX;75703;USA;903 509 0356
8625;6109;Icing;THE PARKS AT ARLINGTON;3811 S COOPER STREET STE 1176;ARLINGTON;TX;76015;USA;817 472 9744
8628;6205;Icing;SAN JACINTO MALL;1152 SAN JACINITO MALL;BAYTOWN;TX;77521;USA;281 421 4840
8629;6105;Icing;CIELO VISTA MALL;8401 GATEWAY BLVD WEST SP#J-01;EL PASO;TX;79925;USA;915 781 1366
8633;6113;Icing;WILLOWBROOK-HOUSTON;1214 WILLOWBROOK MALL;HOUSTON;TX;77070;USA;281 890 4099
8638;6110;Icing;IRVING MALL;3656 IRVING MALL;IRVING;TX;75062;USA;972 252 9600
8639;6105;Icing;LA PLAZA MALL;2200 SOUTH 10TH STREET;MCALLEN;TX;78503;USA;956 682 1014
8642;6205;Icing;PARKDALE MALL;820 PARKDALE RD;BEAUMONT;TX;77706;USA;409 899 3315
8644;6107;Icing;POST OAK MALL;1500 HARVEY ROAD SPACE #7022;COLLEGE STATION;TX;77840-6754;USA;979 696 3595
8652;6106;Icing;INGRAM PARK MALL;6301 NW LOOP 410 #S07;SAN ANTONIO;TX;78238;USA;210 647 8668
8666;7208;Icing;LAYTON HILLS MALL;1400 N HILLFIELD ROAD #2060;LAYTON;UT;84041;USA;801 544 7703
8667;7208;Icing;SOUTH TOWNE CENTER;10450 S STATE STREET;SANDY;UT;84070;USA;801 572 9114
8668;7208;Icing;UNIVERSITY-OREM;575 EAST UNIVERSITY PARKWAY;OREM;UT;84097;USA;801 225 5245
8670;7208;Icing;NEWGATE MALL;3651 WALL AVENUE SUITE 1146;OGDEN;UT;84405;USA;801 394 3510
8671;7208;Icing;PROVO TOWN CENTRE;1200 PROVO TOWN CENTER 2096;PROVO;UT;84601;USA;801 852 5054
8677;4327;Icing;VALLEY MALL- HARRISONBURG;1925 E MARKET STREET #300;HARRISONBURG;VA;22801;USA;540 434 8518
8678;4328;Icing;PATRICK HENRY MALL;12300 JEFFERSON AVE;NEWPORT NEWS;VA;23602;USA;757 249 8064
8682;4328;Icing;SPOTSYLVANIA TOWNE CENTRE;675 SPOTSYLVANIA MALL DR.;FREDERICKSBURG;VA;22407;USA;540 786 4828
8684;4328;Icing;RIVER RIDGE MALL;3405 CANDLERS MT RD A-25;LYNCHBURG;VA;24502;USA;434 237 4906
8697;5201;Icing;CHESAPEAKE SQUARE;4200 PORTSMOUTH BLVD #864;CHESAPEAKE;VA;23321;USA;757 465 5250
8698;4308;Icing;DULLES TOWN CENTER;21100 DULLES TOWN CIRCLE G204;DULLES;VA;20166;USA;703 421 9130
8701;4213;Icing;UNIVERSITY MALL;155 DORSET STREET E-5;SOUTH BURLINGTON;VT;05403;USA;802 859 0122
8705;7102;Icing;OUTLET COLLECTION SEATTLE#1138;1101 OUTLET COLLECTION DR SW;AUBURN;WA;98001;USA;253 939 8979
8706;7102;Icing;SOUTH CENTER;1003 SOUTHCENTER MALL;TUKWILA;WA;98188;USA;206 431 0498
8708;7212;Icing;WST-VANCOUVER;8700 NE VANCOUVER MALL DR.#137;VANCOUVER;WA;98662;USA;360 256 9522
8717;7101;Icing;KITSAP MALL;10315 SILVERDALE WAY NW;SILVERDALE;WA;98383;USA;360 698 1826
8718;7206;Icing;SPOKANE VALLEY MALL;14700 E INDIANA;SPOKANE;WA;99216;USA;509 893 9371
8722;5002;Icing;SOUTHRIDGE-GREENDALE;5300 S 76TH ST #1250;GREENDALE;WI;53129;USA;414 421 1370
8728;4327;Icing;CHARLESTON TOWNE CTR MALL;2047 CHARLESTON TOWNE CTR;CHARLESTON;WV;25389;USA;304 343 0091
8734;4327;Icing;MEADOWBROOK MALL;2399 MEADOWBROOK ROAD #370;BRIDGEPORT;WV;26330;USA;304 842 6052
8737;7401;Icing;POLO PARK SHOPPING CENTRE;1485 PORTAGE AVE SPC 261;WINNIPEG;MB;R3G 0W4;CAN;204 783 4122
8739;7301;Icing;MIC MAC MALL;21 MICMAC BLVD;DARTMOUTH;NS;B3A 4N3;CAN;902 469 0580
8740;7405;Icing;WEST EDMONTON MALL;8882  170TH STREET U-107;EDMONTON;AB;T5T 4J2;CAN;780 444 2319
8746;7403;Icing;WILLOWBROOK-LANGLEY;19705 FRASER HIGHWAY #209;LANGLEY;BC;V3A 7E9;CAN;604 530 9599
8748;7303;Icing;LIME RIDGE MALL;999 UPPER WONTWORTH STREET;HAMILTON;ON;L9A 4X5;CAN;905 575 8628
8752;7301;Icing;AVALON MALL;48 KENMOUNT ROAD;ST. JOHNS;NL;A1B 1W3;CAN;709 726 2970
8753;7402;Icing;WOODGROVE CENTER;UNIT 145 6631 ISLAND HIGHWAY N;NANAIMO;BC;V9T 4T7;CAN;250 390 0876
8754;7304;Icing;SQUARE ONE SHOPPING CTR;100 CITY CENTRE DRIVE #2-724;MISSISSAUGA;ON;L5B 2C9;CAN;905 566 1538
8755;7304;Icing;RIOCAN BURLOAK PWR CENTRE;3499 WYECROFT ROAD SPC # L5;OAKVILLE;ON;L6L 0B6;CAN;905 827 3232
8757;7402;Icing;THE BAY CENTRE;1150 DOUGLAS STREET SUITE#106;VICTORIA;BC;V8W 3M9;CAN;250 389 1885
8758;7302;Icing;DEVONSHIRE MALL;3100 HOWARD AVE;WINDSOR;ON;N8X 3Y8;CAN;519 966 7173
8764;7402;Icing;METROPOLIS AT METROTOWN;356  4820 KINGSWAY;BURNABY;BC;V5H 4P1;CAN;604 419 4420
8767;7303;Icing;INTERCITY SHOPPING CENTER;1000 FORT WILLIAM ROAD  52A;THUNDER BAY;ON;P7B 6B9;CAN;807 623 5135
8768;7306;Icing;OSHAWA CENTRE;419 KING STREET WEST SPC 2380;OSHAWA;ON;L1J 2K5;CAN;905 429 2286
8769;7303;Icing;CONESTOGA-WATERLOO;550 KING STREET NORTH;WATERLOO;ON;N2L 5W6;CAN;519 886 1763
8771;4220;Icing;PROVIDENCE PLACE;15 PROVIDENCE PLACE A-311;PROVIDENCE;RI;02903;USA;401 270 4049
8772;5303;Icing;DOLPHIN MALL;11401 NW 12TH STREET;MIAMI;FL;33172;USA;305 436 9945
8773;4327;Icing;VALLEY MALL-HAGERSTOWN;17301 VALLEY MALL ROAD #580;HAGERSTOWN;MD;21740;USA;301 582 4676
8776;4302;Icing;JERSEY GARDENS;651 KAPKOWSKI ROAD 2232;ELIZABETH;NJ;07201;USA;908 659 1657
8778;7101;Icing;ALDERWOOD MALL;3000 184TH STREET SW SPC#290;LYNNWOOD;WA;98037;USA;425 776 2958
8780;6110;Icing;STONEBRIAR CENTRE;121 PRESTON RD SUITE 2008;FRISCO;TX;75034;USA;972 668 8855
8782;7209;Icing;FLATIRON CROSSING;1 WEST FLATIRON CIRCLE #2244;BROOMFIELD;CO;80021;USA;303 460 9411
8786;4308;Icing;ARUNDEL MILLS;7000 ARUNDEL MILLS CIRCLE;HANOVER;MD;21076;USA;443 755 9881
8797;6214;Icing;ST. CLAIR SQUARE;249 ST. CLAIR SQUARE;FAIRVIEW HEIGHTS;IL;62208;USA;618 632 3758
8798;4324;Icing;WST-GARDEN STATE PLAZA;1 GARDEN STATE PLAZA SPC 1007;PARAMUS;NJ;07652;USA;201 368 0260
8802;7017;Icing;GATEWAY MALL;602 GATEWAY MALL;LINCOLN;NE;68505;USA;402 467 3378
8805;7301;Icing;DARTMOUTH CROSSING;94 HECTOR GATE SPC #2F-3;DARTMOUTH;NS;B3B 0B9;CAN;902 468 7301